{"type": "FeatureCollection", "features": [{"type": "Feature", "id": "accompagnement_digitalisation.3057", "geometry": {"type": "Point", "coordinates": [-1.665094, 48.129601]}, "geometry_name": "geom", "properties": {"structure": "ASPECT BRETAGNE - CFA ECB", "adresse": "9 rue Franz Heller", "code_postal": "35000", "ville": "RENNES", "etape": "FINI", "nb_etablissements": "40", "nb_salaries": "12", "secteurs": "Apprentissage, formation continue, VAE", "activites_structure": "<ul>\n<li>Agriculture </li>\n<li>Commerce </li>\n<li>Industrie </li>\n</ul>", "nom_projet": "Digitalisation du BPREA", "public_cible_projet": " Demandeurs emplois, repreneur exploitation, salariés", "objectif_projet": "Proposer 65% du parcours de 910 heures en ressources digitalisées", "description_projet": "Digitaliser la formation « Brevet professionnel de responsable exploitation agricole » pour permettre un meilleur accès aux repreneurs d’exploitation agricole qui souhaitent s’installer sur les quatre départements bretons", "lieu_projet": "Bretagne", "calendrier_projet": "Septembre 2023 -Décembre 2024"}, "bbox": [-1.665094, 48.129601, -1.665094, 48.129601]}, {"type": "Feature", "id": "accompagnement_digitalisation.3058", "geometry": {"type": "Point", "coordinates": [-1.667593, 48.104732]}, "geometry_name": "geom", "properties": {"structure": "Bâtiment CFA Bretagne", "adresse": "33 Boulevard Solférino", "code_postal": "35000", "ville": "RENNES", "etape": "FINI", "nb_etablissements": "6 (4 centres et 2 antennes)", "nb_salaries": "Environ 250", "secteurs": "Formation aux métiers du bâtiment", "activites_structure": "<ul>\n<li>Formations du CAP au diplôme d’ingénieur</li>\n<li>Offre de services complémentaire (prépa apprentissage, parcours d’intégration professionnelle pour les réfugiés, formation continue …)</li>\n</ul>", "nom_projet": "Création de parcours digitaux de formation hybrides, individualisés, professionnalisants, permettant les entrées permanentes", "public_cible_projet": "Demandeur d’emploi, reconversion, réorientation, etc.", "objectif_projet": "<ul>\n<li>La création de parcours digitaux hybrides professionnalisants personnalisés</li>\n<li>La mise en place d’un processus facilitant la gestion des entrées permanentes</li>\n<li>Une coordination et une harmonisation des pratiques entre site de formation</li>\n</ul>", "description_projet": "La définition de ce type de parcours de formation doit nécessairement se faire dans une démarche de digitalisation et d’hybridation. L’hybridation s’entend ici en termes de contenu, d’outils, de temporalités et de lieux de formation. ", "lieu_projet": "Bâtiment CFA Bretagne et ses 4 sites de formation", "calendrier_projet": "2022/2023"}, "bbox": [-1.667593, 48.104732, -1.667593, 48.104732]}, {"type": "Feature", "id": "accompagnement_digitalisation.3059", "geometry": {"type": "Point", "coordinates": [-1.712461, 48.113203]}, "geometry_name": "geom", "properties": {"structure": "BUROSCOPE", "adresse": "2 A, allée Jacques Frimot", "code_postal": "35000", "ville": "RENNES", "etape": "FINI", "nb_etablissements": "2", "nb_salaries": "35", "secteurs": "Formation, accompagnement, emploi", "activites_structure": "<ul>\n<li>Formations qualifiantes</li>\n<li>Formations par apprentissage</li>\n<li>Prestations d’accompagnement à l’emploi</li>\n<li>Formations continues modulaires</li>\n<li>Bilan de compétences</li>\n</ul>", "nom_projet": " ", "public_cible_projet": " ", "objectif_projet": " ", "description_projet": " ", "lieu_projet": " ", "calendrier_projet": " "}, "bbox": [-1.712461, 48.113203, -1.712461, 48.113203]}, {"type": "Feature", "id": "accompagnement_digitalisation.3060", "geometry": {"type": "Point", "coordinates": [-1.713611, 48.114746]}, "geometry_name": "geom", "properties": {"structure": "Chambre Régionale d'Agriculture de Bretagne", "adresse": "Rue maurice Le Lannou", "code_postal": "35000", "ville": "RENNES", "etape": "FINI", "nb_etablissements": "20", "nb_salaries": "568", "secteurs": "Agriculture", "activites_structure": "Diverses actvités dont :\n<ul>\n<li>Formation continue des actifs et futurs actifs\nagricoles</li>\n</ul>", "nom_projet": " ", "public_cible_projet": " ", "objectif_projet": " ", "description_projet": " ", "lieu_projet": " ", "calendrier_projet": " "}, "bbox": [-1.713611, 48.114746, -1.713611, 48.114746]}, {"type": "Feature", "id": "accompagnement_digitalisation.3061", "geometry": {"type": "Point", "coordinates": [-1.68393, 48.133967]}, "geometry_name": "geom", "properties": {"structure": "GRETA-CFA Est-Bretagne", "adresse": "34 rue Bahon Rault", "code_postal": "35000", "ville": "RENNES", "etape": "FINI", "nb_etablissements": "4 agences et 14 sites de formation", "nb_salaries": "128", "secteurs": "Tous secteurs d'activités", "activites_structure": "Missions de formation continue et d'apprentissage de l'Education Nationale", "nom_projet": " ", "public_cible_projet": " ", "objectif_projet": " ", "description_projet": " ", "lieu_projet": " ", "calendrier_projet": " "}, "bbox": [-1.68393, 48.133967, -1.68393, 48.133967]}, {"type": "Feature", "id": "accompagnement_digitalisation.3062", "geometry": {"type": "Point", "coordinates": [-1.741224, 48.046239]}, "geometry_name": "geom", "properties": {"structure": "Chambre de Métiers et de l'Artisanat de Région Bretagne (CMA)", "adresse": "Contour antoine-de-Saint-Exupéry\nCampus de Ker Lann", "code_postal": "35170", "ville": "BRUZ", "etape": "FINI", "nb_etablissements": "14", "nb_salaries": "800", "secteurs": "Organisme consulaire", "activites_structure": "Formation initiale et continue et conseil économique aux entreprises artisanales", "nom_projet": "Digitalisation de nos formations à destination des porteurs de projet et chefs d’entreprises artisanales", "public_cible_projet": "Formateurs internes", "objectif_projet": "Faire monter en compétences nos formateurs dans la digitalisation de nos formations afin de les rendre plus ludiques et attractives", "description_projet": "Montée en compétence sur des logicels ", "lieu_projet": "Visio", "calendrier_projet": "2023"}, "bbox": [-1.741224, 48.046239, -1.741224, 48.046239]}, {"type": "Feature", "id": "accompagnement_digitalisation.3063", "geometry": {"type": "Point", "coordinates": [-1.742087, 48.047526]}, "geometry_name": "geom", "properties": {"structure": "DIAFOR Organisation", "adresse": "Campus de Ker Lann\nRue Henri Moissan", "code_postal": "35170", "ville": "BRUZ", "etape": "FINI", "nb_etablissements": "7", "nb_salaries": "66", "secteurs": "Industrie", "activites_structure": "Formation technique (maintenance, usinage,\nchaudronnerie, soudage, électronique,\nautomatisme, robotique, froid climatisation..) à\ndestination de demandeurs d'emploi", "nom_projet": " ", "public_cible_projet": " ", "objectif_projet": " ", "description_projet": " ", "lieu_projet": " ", "calendrier_projet": " "}, "bbox": [-1.742087, 48.047526, -1.742087, 48.047526]}, {"type": "Feature", "id": "accompagnement_digitalisation.3064", "geometry": {"type": "Point", "coordinates": [-1.806295, 48.100336]}, "geometry_name": "geom", "properties": {"structure": "EPLEFPA Théodore Monod", "adresse": "55 avenue de la Bouvardière\nBP 55 124", "code_postal": "35651", "ville": "Combourg", "etape": "FINI", "nb_etablissements": "2", "nb_salaries": "42", "secteurs": "Agriculture et paysage\nGestion et traitement de l'eau ", "activites_structure": "<ul>\n<li>Formations professionnelles continues certifiantes</li>\n <li>Formation par la voie de l’apprentissage</li>\n<li>Formations professionnelles courtes</li>\n<li>Validation des Acquis de l’Expérience (VAE)</li>\n<li>Conseils compétences</li>\n</ul>\n\n<ul>\nDomaine de formation :\n<li>Agriculture, conseil, paysage, traitement de l'eau</li>\n</ul>", "nom_projet": "Rendre accessible à un public de niveau 3 une formation de niveau 4", "public_cible_projet": "Public avec un faible niveau de qualification et d’autonomie", "objectif_projet": "<ul>\n<li>Définir une stratégie de digitalisation globale au sein du campus (CFPPA Le Rheu, CPSA Combourg)</li>\n<li>Mettre en œuvre cette stratégie sur une formation de niveau 3 : \n<ul>\n<li>le Le BPREA à distance en apprentissage </li>\n</ul>\nen portant une attention particulière sur :\n<ul>\n<li>la scénarisation des parcours autour de situations professionnelles concrètes </li>\n<li>une pédagogie collaborative</li>\n</ul>\n</li>\n</ul>", "description_projet": "Questionnement porté particulièrement sur :\n<ul>\n<li>Comment garantir un niveau de motivation permettant d’éviter les abandons ?</li>\n<li>Comment favoriser les apprentissages à distance pour un public de « bas niveau de formation » ?</li>\n<li>Comment garantir les interactions entre pairs et apprentissages coopératifs ?</li>\n</ul>", "lieu_projet": "CFPPA Le Rheu, CPSA Combourg", "calendrier_projet": "<ul>\n<li>Phase de diagnostic : janvier-avril 2022</li>\n<li> Conception des parcours pédagogique : mai à septembre 2022</li>\n</ul>"}, "bbox": [-1.806295, 48.100336, -1.806295, 48.100336]}, {"type": "Feature", "id": "accompagnement_digitalisation.3066", "geometry": {"type": "Point", "coordinates": [-1.657738, 48.10754]}, "geometry_name": "geom", "properties": {"structure": "Le Pont Supérieur site de Rennes", "adresse": "Place Jean Normand", "code_postal": "35000", "ville": "RENNES", "etape": "FINI", "nb_etablissements": "1", "nb_salaries": "51 ETP", "secteurs": "Enseignement supérieur spectacle vivant", "activites_structure": "<ul>\n<li>Diplôme National Supérieur Professionnel (DNSP) de musicien</li>\n<li>Diplômes d’État (DE) de professeur de musique</li>\n<li>Master “artistes des musiques traditionnelles”</li>\n</ul>", "nom_projet": " ", "public_cible_projet": " ", "objectif_projet": " ", "description_projet": " ", "lieu_projet": " ", "calendrier_projet": " "}, "bbox": [-1.657738, 48.10754, -1.657738, 48.10754]}, {"type": "Feature", "id": "accompagnement_digitalisation.3072", "geometry": {"type": "Point", "coordinates": [-1.666196, 48.109791]}, "geometry_name": "geom", "properties": {"structure": "40mcube", "adresse": "48 avenue Sergent Maginot", "code_postal": "35000", "ville": "RENNES", "etape": "FINI", "nb_etablissements": "1", "nb_salaries": "6", "secteurs": "Art visuels", "activites_structure": "<ul>\n<li>Espace d’exposition d’art contemporain</li>\n<li>Atelier de production et de commandes d’œuvres</li>\n<li>Lieu de résidence d’artistes</li>\n<li>Organisme de formation</li>\n</ul>", "nom_projet": "artist for ever ", "public_cible_projet": "Artistes-auteur·trices, diffuseur·euses, enseignant·es, agent·es de la fonction publique", "objectif_projet": "Création d'une plateforme de micro-learning", "description_projet": "<ul>\n<li>Développement de la plateforme www.artistforever.fr</li>\n<li>, conception des 2 premières formations et de ressources gratuites accessibles à tous·tes.</li>\n</ul>\n\nLes contenus théoriques et pratiques des formations présentées actuellement à 40mcube sont scénarisés, mis en récit, en voix et sous-titrés.\nChaque formation est illustrée par une artiste-auteur·trice et enrichie par de nombreuses interviews vidéo de professionnel·les.  ", "lieu_projet": "Rennes", "calendrier_projet": "2021-2023"}, "bbox": [-1.666196, 48.109791, -1.666196, 48.109791]}, {"type": "Feature", "id": "accompagnement_digitalisation.3073", "geometry": {"type": "Point", "coordinates": [-1.635305, 48.095381]}, "geometry_name": "geom", "properties": {"structure": "SYNTHESES FORMATION", "adresse": "4 allée de la Bourgonnette  ", "code_postal": "35000", "ville": "RENNES", "etape": "FINI", "nb_etablissements": "1", "nb_salaries": "6", "secteurs": "Formation continue pour adulte en informatique", "activites_structure": "Formations en :\n<ul>\n<li>Bureautique</li>\n<li>Communication digitale</li>\n<li>CAO DAO 3D </li>\n<li>Infographie et web</li>\n</ul>", "nom_projet": "Digitalisation des parcours de formation", "public_cible_projet": "Salarié.e.s, demandeur.euse.s d’emploi", "objectif_projet": "<ul>\n<li>Mettre en place un LMS permettant de digitaliser l’offre de formation en blended learning (présentiel et distantiel)</li>\n<li>Pérenniser l’approche individualisée de notre pédagogie</li>\n</ul>", "description_projet": "<ul>\n<li>Identification du LMS</li>\n<li>Déploiement d’un premier module</li>\n<li>Industrialisation pour l’ensemble de notre offre de formation (80 modules)</li>\n</ul>", "lieu_projet": "Rennes", "calendrier_projet": "Fin 2023"}, "bbox": [-1.635305, 48.095381, -1.635305, 48.095381]}, {"type": "Feature", "id": "accompagnement_digitalisation.3074", "geometry": {"type": "Point", "coordinates": [-1.651983, 48.088552]}, "geometry_name": "geom", "properties": {"structure": "geYser", "adresse": "11 square de Galicie", "code_postal": "35200", "ville": "RENNES", "etape": "FINI", "nb_etablissements": "1", "nb_salaries": "3", "secteurs": "Sécurité routière", "activites_structure": "<ul>\n<li>Formation des enseignants de la conduite (ECSR)</li>\n<li>Animation de stages de sensibilisation à la sécurité routière</li>\n</ul>", "nom_projet": "Digitalisation de la formation d'enseignant de la conduite et de la sécurité routière", "public_cible_projet": "Apprenant.e.s futurs moniteurs", "objectif_projet": "<ul>\n<li>Digitaliser les contenus théoriques</li>\n<li>Mettre en place du E learning</li>\n<li>Digitaliser l'OF lui-même</li>\n</ul>", "description_projet": "<ul>\n<li>Mise en place d'un plateforme LMS</li> \n<li>Créations de contenus à digitaliser</li>\n<li>Conception de modules E-learning</li>\n<li>Storyboard détaillé des modules</li>\n<li>Aide à la mise en route du LMS</li>\n</ul>", "lieu_projet": "Rennes", "calendrier_projet": "1er semestre 2022"}, "bbox": [-1.651983, 48.088552, -1.651983, 48.088552]}, {"type": "Feature", "id": "accompagnement_digitalisation.3075", "geometry": {"type": "Point", "coordinates": [-1.683822, 48.092631]}, "geometry_name": "geom", "properties": {"structure": "PRISME", "adresse": "23 rue d’Aiguillon  ", "code_postal": "35200", "ville": "RENNES", "etape": "FINI", "nb_etablissements": "1", "nb_salaries": "42", "secteurs": "Insertion", "activites_structure": "Bretagne Formation :\n<ul>\n<li>PREPA (Avenir-Jeunes, Territoriales)</li>\n<li>QUALIF (PQ Métiers techniques du spectacle)</li>\n</ul>\n\nAutres :\n<ul>\n<li>Ateliers sociaux Linguistique (QPV/DDETS)</li>\n<li>Se reconnecter (CCAS-VDR/PLIE-RennesMetro)</li>\n</ul>", "nom_projet": "Digitalisation des pratiques de formation", "public_cible_projet": "<ul>\n<li>Composé de personnes en réinsertion professionnelle, jeunes et adultes, à partir de 16 ans. </li>\n<li>Public recontrant souvent des difficultés de maîtrise du français, illettrisme, des troubles cognitifs… </li>\n</ul>", "objectif_projet": "<ul>\n<li>Poursuivre la digitalisation des pratiques de formation</li>\n</ul>", "description_projet": "<ul>\n<li>Création d’un module spécifique TRE/TRS adapté aux publics accueillis proposé en présentiel enrichi</li>\n<li>Poursuite de la création de contenus du Bloc compétences dans les parcours de type PREPA Avenir Jeunes</li>\n<li>Harmoniser des pratiques et usages numérique de l’équipe pédagogique</li>\n<li>Intégrer les supports numériques dans l’évaluation des compétences des personnes</li>\n<li>Vérifier l’ergonomie de notre outil Moodle</li>\n</ul>", "lieu_projet": "Rennes", "calendrier_projet": "Année 2022"}, "bbox": [-1.683822, 48.092631, -1.683822, 48.092631]}, {"type": "Feature", "id": "accompagnement_digitalisation.3076", "geometry": {"type": "Point", "coordinates": [-1.796831, 47.963753]}, "geometry_name": "geom", "properties": {"structure": "SKOL RADIO - Radio Laser", "adresse": "Espace Galatée\nRue du Commandant Charcot", "code_postal": "35580", "ville": "GUICHEN", "etape": "FINI", "nb_etablissements": "1", "nb_salaries": "6 + 20 CDD", "secteurs": "Métiers de la radio et du podcast", "activites_structure": "Formation longue certifiante « Devenir Animateur Animatrice-Technicien Technicienne – Réalisateur\nRéalisatrice »", "nom_projet": "Devenir Animateur Animatrice-Technicien Technicienne – Réalisateur Réalisatrice", "public_cible_projet": "Demandeur.euse.s d’emploi", "objectif_projet": "<ul>\n<li>Digitalisation d’une partie de la formation longue</li>\n</ul>", "description_projet": "<ul>\n<li>Test de digitalisation sur un module de la formation longue aux métiers de la radio</li> <li>Montée en compétence des formateurs</li>\n<li>Réflexion autour de la digitalisation des pratiques d'examen grâce à des outils adaptés</li>\n</ul>", "lieu_projet": "Guichen", "calendrier_projet": "Année 2022"}, "bbox": [-1.796831, 47.963753, -1.796831, 47.963753]}, {"type": "Feature", "id": "accompagnement_digitalisation.3077", "geometry": {"type": "Point", "coordinates": [-1.79131, 48.091169]}, "geometry_name": "geom", "properties": {"structure": "CLPS L'enjeu compétences", "adresse": "16 avenue de la Croix Verte", "code_postal": "35650", "ville": "LE RHEU", "etape": "FINI", "nb_etablissements": "14", "nb_salaries": "Effectif moyen 2021 : 374 ETP", "secteurs": "Formation pour adultes", "activites_structure": "<ul>\n<li>Accompagnements professionnels</li>\n<li>Formation générale de remise à niveau</li> \n<li>Formations métiers</li>\n<li>Formations en entreprise et collectivités</li>\n</ul>", "nom_projet": "DIGICLES", "public_cible_projet": "Demandeur.euse.s d'emploi en situation d’illettrisme et d’illectronisme", "objectif_projet": "Acquérir une autonomie numérique en situation professionnelle et personnelle et mieux maitriser les compétences clés", "description_projet": "Proposer un parcours d’immersion numérique guidé auprès des publics concernés ", "lieu_projet": "CLPS", "calendrier_projet": "De septembre 2022 à septembre 2023"}, "bbox": [-1.79131, 48.091169, -1.79131, 48.091169]}, {"type": "Feature", "id": "accompagnement_digitalisation.3079", "geometry": {"type": "Point", "coordinates": [-1.687812, 48.178883]}, "geometry_name": "geom", "properties": {"structure": "MFU Rennes", "adresse": "12 Les Rabinardières", "code_postal": "35760", "ville": "SAINT GRÉGOIRE", "etape": "FINI", "nb_etablissements": "1", "nb_salaries": "18", "secteurs": "Tertiaire", "activites_structure": "Formation par apprentissage et formation continue dans 3 domaines d’activités :\n<ul>\n<li>Maintenance des Bâtiments</li>\n<li>Métiers du Paysage</li>\n<li>Métiers de la Piscine</li>\n</ul>", "nom_projet": "Intégrer les outils numériques à l’univers de la formation technique ", "public_cible_projet": " Stagiaires de la formation contenue et apprentis formés dans le secteur de la Maintenance des Bâtiments  ", "objectif_projet": "<ul>\n<li>Améliorer l’accompagnement individuel et collectif des apprenants en diversifiant les modalités d’apprentissage</li>\n<li>Intégrer la gamification dans les formations</li>\n<li>Favoriser une meilleure prise en main des outils existants</li>\n<li>Amener l’équipe pédagogique à créer ses propres contenus digitaux dynamiques et innovants</li>\n<li>Répondre à un besoin de dématérialisation de supports et outils de formation</li>\n<li>Améliorer et optimiser les évaluations, positionnement par le numérique</li>\n</ul>", "description_projet": "Une personne dédiée au projet de digitalisation a rejoint l’équipe de la MFU depuis juin 2023. \n\nUne plateforme pédagogique digitale est en cours de création (mfu-pedagogie.mfr35.fr). Elle a vocation à être lancée à la rentrée avec des premiers cours dans chaque domaine d’apprentissage. Le lancement sera suivi d’une phase de bilan afin de modifier et compléter les éléments déjà réalisés. Une fois les adaptions prises en compte, il s’agira d’enrichir les cours puis d’étendre aux autres filières de la MFU.  \n\nEn parallèle, tous les formateurs sont formés à l’intégration d’outils digitaux et interactifs dans leurs cours (genially, wooclap…). ", "lieu_projet": "Rennes", "calendrier_projet": "Mars 2023 - Février 2026"}, "bbox": [-1.687812, 48.178883, -1.687812, 48.178883]}, {"type": "Feature", "id": "accompagnement_digitalisation.3080", "geometry": {"type": "Point", "coordinates": [-1.728263, 48.108616]}, "geometry_name": "geom", "properties": {"structure": "ENCP - Ecole Nationale de la culture Physique", "adresse": "4 rue Nikolas Tesla", "code_postal": "35000", "ville": "RENNES", "etape": "FINI", "nb_etablissements": "2", "nb_salaries": "23", "secteurs": "Fitness FI et FC", "activites_structure": "<ul>\n<li>Formation initiale de BP JEPS Activité de la Forme options A et B</li>\n<li>Formation continue</li>\n</ul>", "nom_projet": "Digitalisation des formations", "public_cible_projet": "<ul>\n<li>Jeunes adultes</li>\n<li>Adultes</li>\n</ul>", "objectif_projet": "Mutation des modalités d’enseignement sur du blended learning", "description_projet": "Etablissement d’une stratégie pour mise en construction de modules a distance   dans le cadre des BP et CQP ", "lieu_projet": "Rennes et Brest", "calendrier_projet": "2023"}, "bbox": [-1.728263, 48.108616, -1.728263, 48.108616]}, {"type": "Feature", "id": "accompagnement_digitalisation.3081", "geometry": {"type": "Point", "coordinates": [-1.693588, 48.114988]}, "geometry_name": "geom", "properties": {"structure": "ESRP EPNAK ", "adresse": "11 rue Édouard Vaillant", "code_postal": "35000", "ville": "RENNES", "etape": "FINI", "nb_etablissements": "1", "nb_salaries": "65", "secteurs": "Réadaptation professionnelle", "activites_structure": "<ul>\n<li>Accompagnement professionnel des personnes handicapées</li>\n<li>Reconversion professionnelle ou préparation d’un projet d’insertion</li>\n</ul>", "nom_projet": "Digitalisation des formations de l’ESRP EPNAK Rennes", "public_cible_projet": "Stagiaires avec RQTH (notifiés par la Maison Départementale des Personnes Handicapées).", "objectif_projet": "Déploiement d’une plateforme LMS pour l’accompagnement de nos stagiaires", "description_projet": "Dans le cadre de la digitalisation des formations à l’ESRP EPNAK Rennes, l’objectif est de favoriser la mise en place d’une plateforme pédagogique permettant d’individualiser les parcours de formation de nos stagiaires et de dispenser des formations à distance. \n\nLa finalité est d’améliorer l’accès à la formation de nos publics en situation de handicap et l’ouverture vers d’autres publics notamment éloignés de notre structure (pour des problématiques de mobilité géographique ou de santé).", "lieu_projet": "Rennes", "calendrier_projet": "De juin à novembre 2023"}, "bbox": [-1.693588, 48.114988, -1.693588, 48.114988]}, {"type": "Feature", "id": "accompagnement_digitalisation.3086", "geometry": {"type": "Point", "coordinates": [-1.426644, 48.265621]}, "geometry_name": "geom", "properties": {"structure": "EPLEFPA LA LANDE DE LA RENCONTRE", "adresse": "La Lande de la Rencontre BP 12", "code_postal": "35140", "ville": "Saint Aubin du Cormier", "etape": "FINI", "nb_etablissements": " ", "nb_salaries": " ", "secteurs": "Formation agricoles", "activites_structure": "<ul>\n<li>Formation par la voie d’apprentissage</li>\n<li>Formation professionnelle</li>\n<li>Formation professionnelle courte </li>\n</ul>", "nom_projet": " ", "public_cible_projet": " ", "objectif_projet": " ", "description_projet": " ", "lieu_projet": " ", "calendrier_projet": " "}, "bbox": [-1.426644, 48.265621, -1.426644, 48.265621]}, {"type": "Feature", "id": "accompagnement_digitalisation.3091", "geometry": {"type": "Point", "coordinates": [-1.675519, 48.114899]}, "geometry_name": "geom", "properties": {"structure": "Langue et Communication", "adresse": "35 rue Saint Melaine", "code_postal": "35000", "ville": "RENNES", "etape": "FINI", "nb_etablissements": "1", "nb_salaries": "15", "secteurs": "Formation Continue", "activites_structure": "<ul>\n<li>des cours de français général dynamiques, innovants et interactifs, alignés sur les niveaux du CECRL (Cadre Européen Commun de Référence pour les Langues)</li>\n<li>des actions spécifiques visant l’insertion socioprofessionnelle et l’autonomie sociale (ateliers de savoirs sociolinguistiques, actions d’apprentissage linguistique en partenariat avec les acteurs de la formation initiale ou continue, de la culture, de la santé, du logement social, du sport…)</li>\n<li>des formations de bénévoles, de professionnel·lles, de formateur·trices animant des cours de Français Langue Étrangère</li>\n<li>la mise en œuvre et la coordination du dispositif métropolitain PEOL (Plateforme d’Évaluation et d’Orientation Linguistiques)</li>\n<li>des prestations de conseils et des projets en ingénierie pédagogique </li>\n<li>l’animation de notre lieu « La ResSource », espace convivial et chaleureux proposant différents supports d’apprentissage, des conseils d’une formatrice professionnelle et une programmation évènementielle et culturelle</li>\n</ul>", "nom_projet": "Plateforme en ligne « Français en poche » (francaisenpoche.bzh) ", "public_cible_projet": "Public en apprentissage de la langue française en tant que langue étrangère, en vue d’une insertion socio-professionnelle", "objectif_projet": "Renouveler les offres de formation / accompagner au mieux les apprenant·es dans leur insertion professionnelle / permettre l’accès à des contenus de formation à distance / réduire la fracture numérique et l’illectronisme", "description_projet": "Via la Plateforme Moodle, Langue et Communication souhaite proposer, dans un premier temps, une formation FLE intensive et hybride, visant le niveau B1 du CECRL, se déroulant sur 6 semaines. Les supports en ligne offrent aux apprenants la possibilité de se préparer à la certification DELF : les séances sur support numérique intègrent donc des activités ayant pour objectifs de se familiariser avec le cadre de l’examen, mais aussi d’entrainer ses compétences linguistiques. Un tutorat est proposé pour prendre en main les outils, avec la possibilité de se rendre dans les locaux de l’organisme de formation pour effectuer la séance asynchrone sur un créneau dédié. ", "lieu_projet": "Rennes", "calendrier_projet": "Test effectués en octobre 2023 auprès d’une première cohorte pour mise en place en janvier 2024."}, "bbox": [-1.675519, 48.114899, -1.675519, 48.114899]}, {"type": "Feature", "id": "accompagnement_digitalisation.3095", "geometry": {"type": "Point", "coordinates": [-1.679818, 48.11536]}, "geometry_name": "geom", "properties": {"structure": "Skol an Emsav", "adresse": "8 contour Saint-Aubin", "code_postal": "35000", "ville": "RENNES", "etape": "FINI", "nb_etablissements": "1", "nb_salaries": "16", "secteurs": "Edition, animation et formation à la langue bretonne", "activites_structure": "<ul>\n<li> Formations professionnelles intensives de\n6 mois et 3 mois</li> \n<li>Formations hebdomadaires présentielles,\ndistancielles et hybride</li> \n<li>Formations externes</li> \n<li>Stages d’été</li> \n<li>Edition d’un journal d’information et d’un\njournal pédagogique en langue bretonne</li> \n<li>Visites de Rennes, club littéraire, diffusion\nde films en partenariat avec l’Arvor ….</li> \n</ul>", "nom_projet": "Digitalisation de la Formation", "public_cible_projet": "<ul>\n<li>L'équipe de salariés</li>\n<li>Les anciens élèves</li>\n</ul>", "objectif_projet": "<ul>\n<li>développement du digital dans les\nformations pour s’adapter aux besoins\némergents</li>\n<li>développer une communauté d’alumni et\ncréer du lien entre les apprenants</li>\n</ul>", "description_projet": "<ul>\n<li>Formation des salariés aux outils digitaux\net bonnes pratiques liées au digital</li> <li>Création d’une banque de ressources\npédagogiques en ligne</li>\n<li>Développement de contenus interactifs\npour tous types de formation</li>\n<li>Développement des formations hybrides</li>\n<li>Animation de communauté d’apprenants</li>\n</ul>", "lieu_projet": "Rennes", "calendrier_projet": "septembre-décembre 2023 :\n ˑlancement 1ere communauté\n ˑ indexage des premières ressources\n ˑ création de contenus pour les formation\n hybrides\n ˑ formation des salariés à certains\n outils/pratiques du digital\n\njanvier-décembre 2024 :\n ˑ déploiement des communautés\n ˑ mise en place de présentiel augmenté\n ˑ mise en place banque de ressources\n ˑ développement autres formations\n hybrides"}, "bbox": [-1.679818, 48.11536, -1.679818, 48.11536]}, {"type": "Feature", "id": "accompagnement_digitalisation.3096", "geometry": {"type": "Point", "coordinates": [-1.700737, 48.053216]}, "geometry_name": "geom", "properties": {"structure": "TALENDI Formation", "adresse": "Rue du Comte de Dion", "code_postal": "35230", "ville": "Noyal-Châtillon-sur-Seiche", "etape": "FINI", "nb_etablissements": " ", "nb_salaries": " ", "secteurs": " ", "activites_structure": " ", "nom_projet": " ", "public_cible_projet": " ", "objectif_projet": " ", "description_projet": " ", "lieu_projet": " ", "calendrier_projet": " "}, "bbox": [-1.700737, 48.053216, -1.700737, 48.053216]}], "totalFeatures": 22, "numberMatched": 22, "numberReturned": 22, "timeStamp": "2026-07-04T17:56:55.245Z", "crs": {"type": "name", "properties": {"name": "urn:ogc:def:crs:EPSG::4326"}}, "bbox": [-1.806295, 47.963753, -1.426644, 48.265621]}