{"type": "FeatureCollection", "features": [{"type": "Feature", "id": "aire_retournement_vn.110", "geometry": {"type": "Point", "coordinates": [-1.827403, 48.327135]}, "geometry_name": "geom", "properties": {"id": "110", "code_bief": "33C", "commune": "35337", "type": "AR", "ss_type": " ", "observation": null, "photo": null, "rive": "D"}, "bbox": [-1.827403, 48.327135, -1.827403, 48.327135]}, {"type": "Feature", "id": "aire_retournement_vn.135", "geometry": {"type": "Point", "coordinates": [-1.685688, 48.307569]}, "geometry_name": "geom", "properties": {"id": "135", "code_bief": "17C", "commune": "35195", "type": "AR", "ss_type": " ", "observation": null, "photo": null, "rive": "D"}, "bbox": [-1.685688, 48.307569, -1.685688, 48.307569]}, {"type": "Feature", "id": "aire_retournement_vn.144", "geometry": {"type": "Point", "coordinates": [-1.675149, 48.124359]}, "geometry_name": "geom", "properties": {"id": "144", "code_bief": "02C", "commune": "35238", "type": "AR", "ss_type": " ", "observation": null, "photo": null, "rive": "G"}, "bbox": [-1.675149, 48.124359, -1.675149, 48.124359]}, {"type": "Feature", "id": "aire_retournement_vn.151", "geometry": {"type": "Point", "coordinates": [-1.643778, 48.171212]}, "geometry_name": "geom", "properties": {"id": "151", "code_bief": "05C", "commune": "35024", "type": "AR", "ss_type": " ", "observation": null, "photo": null, "rive": "D"}, "bbox": [-1.643778, 48.171212, -1.643778, 48.171212]}], "totalFeatures": 4, "numberMatched": 4, "numberReturned": 4, "timeStamp": "2026-07-04T17:56:55.306Z", "crs": {"type": "name", "properties": {"name": "urn:ogc:def:crs:EPSG::4326"}}, "bbox": [-1.827403, 48.124359, -1.643778, 48.327135]}