{"type": "FeatureCollection", "features": [{"type": "Feature", "id": "maison_eclusiere_aap.ECL_IR12", "geometry": {"type": "Point", "coordinates": [-1.667036, 48.255258]}, "geometry_name": "geom", "properties": {"id": "ECL_IR12", "nomecluse": "Bouessay", "subdivision": "Vilaine - Canal d'Ille et Rance", "brigade": "Saint-Germain", "photo": "https://kartenn.region-bretagne.fr/img/vn/ecluse/ECL_IR12.jpg", "remarque": "", "activite": "Base de location de pénichettes et services aux randonneurs", "aap": "Appel à projet n°2", "site_web": "http://locaboat.com/fr/"}, "bbox": [-1.667036, 48.255258, -1.667036, 48.255258]}, {"type": "Feature", "id": "maison_eclusiere_aap.ECL_IR15", "geometry": {"type": "Point", "coordinates": [-1.67333, 48.296381]}, "geometry_name": "geom", "properties": {"id": "ECL_IR15", "nomecluse": "Ille", "subdivision": "Vilaine - Canal d'Ille et Rance", "brigade": "Saint-Germain", "photo": "https://kartenn.region-bretagne.fr/img/vn/ecluse/ECL_IR15.jpg", "remarque": "", "activite": "Crêperie", "aap": "Appel à projet n°1", "site_web": ""}, "bbox": [-1.67333, 48.296381, -1.67333, 48.296381]}, {"type": "Feature", "id": "maison_eclusiere_aap.ECL_IR23", "geometry": {"type": "Point", "coordinates": [-1.781775, 48.301417]}, "geometry_name": "geom", "properties": {"id": "ECL_IR23", "nomecluse": "La Péchetière", "subdivision": "Vilaine - Canal d'Ille et Rance", "brigade": "Evran", "photo": "https://kartenn.region-bretagne.fr/img/vn/ecluse/ECL_IR23.jpg", "remarque": "", "activite": "Maison de la pêche et de la nature", "aap": "Appel à projet n°1", "site_web": "http://federationpeche.com/35/"}, "bbox": [-1.781775, 48.301417, -1.781775, 48.301417]}, {"type": "Feature", "id": "maison_eclusiere_aap.ECL_IR29", "geometry": {"type": "Point", "coordinates": [-1.796183, 48.306425]}, "geometry_name": "geom", "properties": {"id": "ECL_IR29", "nomecluse": "Petite Madeleine", "subdivision": "Vilaine - Canal d'Ille et Rance", "brigade": "Evran", "photo": "https://kartenn.region-bretagne.fr/img/vn/ecluse/ECL_IR29.jpg", "remarque": "", "activite": "Hébergements insolites sur l'eau & guinguette", "aap": "Appel à projet n°1", "site_web": "http://illeflottante.com"}, "bbox": [-1.796183, 48.306425, -1.796183, 48.306425]}], "totalFeatures": 4, "numberMatched": 4, "numberReturned": 4, "timeStamp": "2026-07-04T17:57:02.228Z", "crs": {"type": "name", "properties": {"name": "urn:ogc:def:crs:EPSG::4326"}}, "bbox": [-1.796183, 48.255258, -1.667036, 48.306425]}