{"type": "FeatureCollection", "features": [{"type": "Feature", "id": "site_region_accessibilite.fid--17174f5a_19f2e433d8d_-4dca", "geometry": {"type": "Point", "coordinates": [-1.674648, 48.108688]}, "geometry_name": "geom", "properties": {"code_site": "0350024L", "url_registre": "https://bzh.s3.eu-central-3.ionoscloud.com/0350024L.pdf", "url_budget": "https://bretagne.bzh", "nom": "Lycée Emile Zola", "adresse": "2 Avenue Janvier", "code_postal": "35044", "ville": "RENNES", "reseau_lib": "Education nationale", "type_etablissement": "Lycée", "erp": "1", "remarque": "Date de mise à jour :  17/09/2025 14h", "courriel": "ce.0350024L@ac-rennes.fr", "telephone": "0299792300", "search_id": "accessibilite.0350024L", "accessibilite": "[{\"type\" : \"Accès piéton\", \"classe_h_mot\" : \"orange\", \"classe_h_vis\" : \"orange\", \"classe_h_aud\" : \"vert\", \"classe_h_cog\" : \"vert\", \"classe_h_mm\" : \"orange\", \"classe_h_mot_txt\" : \"Non accessible mais praticable\", \"classe_h_vis_txt\" : \"Non accessible mais praticable\", \"classe_h_aud_txt\" : \"Accessible\", \"classe_h_cog_txt\" : \"Accessible\", \"classe_h_mm_txt\" : \"Non accessible mais praticable\"}, {\"type\" : \"Accès transport\", \"classe_h_mot\" : \"vert\", \"classe_h_vis\" : \"vert\", \"classe_h_aud\" : \"vert\", \"classe_h_cog\" : \"vert\", \"classe_h_mm\" : \"vert\", \"classe_h_mot_txt\" : \"Accessible\", \"classe_h_vis_txt\" : \"Accessible\", \"classe_h_aud_txt\" : \"Accessible\", \"classe_h_cog_txt\" : \"Accessible\", \"classe_h_mm_txt\" : \"Accessible\"}, {\"type\" : \"Accès véhicule\", \"classe_h_mot\" : \"orange\", \"classe_h_vis\" : \"vert\", \"classe_h_aud\" : \"vert\", \"classe_h_cog\" : \"vert\", \"classe_h_mm\" : \"orange\", \"classe_h_mot_txt\" : \"Non accessible mais praticable\", \"classe_h_vis_txt\" : \"Accessible\", \"classe_h_aud_txt\" : \"Accessible\", \"classe_h_cog_txt\" : \"Accessible\", \"classe_h_mm_txt\" : \"Non accessible mais praticable\"}, {\"type\" : \"Exterieur\", \"classe_h_mot\" : \"vert\", \"classe_h_vis\" : \"vert\", \"classe_h_aud\" : \"vert\", \"classe_h_cog\" : \"vert\", \"classe_h_mm\" : \"vert\", \"classe_h_mot_txt\" : \"Accessible\", \"classe_h_vis_txt\" : \"Accessible\", \"classe_h_aud_txt\" : \"Accessible\", \"classe_h_cog_txt\" : \"Accessible\", \"classe_h_mm_txt\" : \"Accessible\"}]"}, "bbox": [-1.674648, 48.108688, -1.674648, 48.108688]}, {"type": "Feature", "id": "site_region_accessibilite.fid--17174f5a_19f2e433d8d_-4dc9", "geometry": {"type": "Point", "coordinates": [-1.67059, 48.117092]}, "geometry_name": "geom", "properties": {"code_site": "0350026N", "url_registre": "https://bzh.s3.eu-central-3.ionoscloud.com/0350026N.pdf", "url_budget": "https://bretagne.bzh", "nom": "Lycée Jean Macé", "adresse": "10, rue Jean Macé", "code_postal": "35704", "ville": "RENNES", "reseau_lib": "Education nationale", "type_etablissement": "Lycée", "erp": "2", "remarque": "Date de mise à jour : 25/06/2025 et 23/09", "courriel": "ce.0350026N@ac-rennes.fr", "telephone": "0299879130", "search_id": "accessibilite.0350026N", "accessibilite": "[{\"type\" : \"Accès piéton\", \"classe_h_mot\" : \"vert\", \"classe_h_vis\" : \"vert\", \"classe_h_aud\" : \"vert\", \"classe_h_cog\" : \"vert\", \"classe_h_mm\" : \"vert\", \"classe_h_mot_txt\" : \"Accessible\", \"classe_h_vis_txt\" : \"Accessible\", \"classe_h_aud_txt\" : \"Accessible\", \"classe_h_cog_txt\" : \"Accessible\", \"classe_h_mm_txt\" : \"Accessible\"}, {\"type\" : \"Accès transport\", \"classe_h_mot\" : \"orange\", \"classe_h_vis\" : \"orange\", \"classe_h_aud\" : \"vert\", \"classe_h_cog\" : \"vert\", \"classe_h_mm\" : \"orange\", \"classe_h_mot_txt\" : \"Non accessible mais praticable\", \"classe_h_vis_txt\" : \"Non accessible mais praticable\", \"classe_h_aud_txt\" : \"Accessible\", \"classe_h_cog_txt\" : \"Accessible\", \"classe_h_mm_txt\" : \"Non accessible mais praticable\"}, {\"type\" : \"Accès véhicule\", \"classe_h_mot\" : \"vert\", \"classe_h_vis\" : \"vert\", \"classe_h_aud\" : \"vert\", \"classe_h_cog\" : \"vert\", \"classe_h_mm\" : \"vert\", \"classe_h_mot_txt\" : \"Accessible\", \"classe_h_vis_txt\" : \"Accessible\", \"classe_h_aud_txt\" : \"Accessible\", \"classe_h_cog_txt\" : \"Accessible\", \"classe_h_mm_txt\" : \"Accessible\"}, {\"type\" : \"Exterieur\", \"classe_h_mot\" : \"orange\", \"classe_h_vis\" : \"rouge\", \"classe_h_aud\" : \"vert\", \"classe_h_cog\" : \"vert\", \"classe_h_mm\" : \"rouge\", \"classe_h_mot_txt\" : \"Non accessible mais praticable\", \"classe_h_vis_txt\" : \"Non accessible, non praticable\", \"classe_h_aud_txt\" : \"Accessible\", \"classe_h_cog_txt\" : \"Accessible\", \"classe_h_mm_txt\" : \"Non accessible, non praticable\"}]"}, "bbox": [-1.67059, 48.117092, -1.67059, 48.117092]}, {"type": "Feature", "id": "site_region_accessibilite.fid--17174f5a_19f2e433d8d_-4dc8", "geometry": {"type": "Point", "coordinates": [-1.688705, 48.084933]}, "geometry_name": "geom", "properties": {"code_site": "0350028R", "url_registre": "https://bzh.s3.eu-central-3.ionoscloud.com/0350028R.pdf", "url_budget": "https://bretagne.bzh", "nom": "Lycée Bréquigny", "adresse": "7, avenue Georges Graff", "code_postal": "35205", "ville": "RENNES", "reseau_lib": "Education nationale", "type_etablissement": "Lycée", "erp": "2", "remarque": "Travaux de revêtement en cours sur les extérieurs entre le bâtiment R (CDi) et E (Externat). Ce dernier bâtiment verra une cage d'escalier/ascenseur supprimée afin de faciliter l'accès à la restauration.\nEscaliers extérieurs (y compris les nouveaux accès au bâtiment R) sans contrastes.", "courriel": "ce.0350028R@ac-rennes.fr", "telephone": "0299868200", "search_id": "accessibilite.0350028R", "accessibilite": "[{\"type\" : \"Accès piéton\", \"classe_h_mot\" : \"vert\", \"classe_h_vis\" : \"vert\", \"classe_h_aud\" : \"vert\", \"classe_h_cog\" : \"vert\", \"classe_h_mm\" : \"vert\", \"classe_h_mot_txt\" : \"Accessible\", \"classe_h_vis_txt\" : \"Accessible\", \"classe_h_aud_txt\" : \"Accessible\", \"classe_h_cog_txt\" : \"Accessible\", \"classe_h_mm_txt\" : \"Accessible\"}, {\"type\" : \"Accès transport\", \"classe_h_mot\" : \"orange\", \"classe_h_vis\" : \"orange\", \"classe_h_aud\" : \"vert\", \"classe_h_cog\" : \"vert\", \"classe_h_mm\" : \"orange\", \"classe_h_mot_txt\" : \"Non accessible mais praticable\", \"classe_h_vis_txt\" : \"Non accessible mais praticable\", \"classe_h_aud_txt\" : \"Accessible\", \"classe_h_cog_txt\" : \"Accessible\", \"classe_h_mm_txt\" : \"Non accessible mais praticable\"}, {\"type\" : \"Accès véhicule\", \"classe_h_mot\" : \"orange\", \"classe_h_vis\" : \"vert\", \"classe_h_aud\" : \"vert\", \"classe_h_cog\" : \"vert\", \"classe_h_mm\" : \"orange\", \"classe_h_mot_txt\" : \"Non accessible mais praticable\", \"classe_h_vis_txt\" : \"Accessible\", \"classe_h_aud_txt\" : \"Accessible\", \"classe_h_cog_txt\" : \"Accessible\", \"classe_h_mm_txt\" : \"Non accessible mais praticable\"}, {\"type\" : \"Exterieur\", \"classe_h_mot\" : \"rouge\", \"classe_h_vis\" : \"rouge\", \"classe_h_aud\" : \"orange\", \"classe_h_cog\" : \"rouge\", \"classe_h_mm\" : \"rouge\", \"classe_h_mot_txt\" : \"Non accessible, non praticable\", \"classe_h_vis_txt\" : \"Non accessible, non praticable\", \"classe_h_aud_txt\" : \"Non accessible mais praticable\", \"classe_h_cog_txt\" : \"Non accessible, non praticable\", \"classe_h_mm_txt\" : \"Non accessible, non praticable\"}]"}, "bbox": [-1.688705, 48.084933, -1.688705, 48.084933]}, {"type": "Feature", "id": "site_region_accessibilite.fid--17174f5a_19f2e433d8d_-4dc7", "geometry": {"type": "Point", "coordinates": [-1.648877, 48.126788]}, "geometry_name": "geom", "properties": {"code_site": "0350029S", "url_registre": "https://bzh.s3.eu-central-3.ionoscloud.com/0350029S.pdf", "url_budget": "https://bretagne.bzh", "nom": "Lycée Joliot Curie", "adresse": "144, boulevard de Vitré", "code_postal": "35703", "ville": "RENNES", "reseau_lib": "Education nationale", "type_etablissement": "Lycée", "erp": "2", "remarque": "", "courriel": "ce.0350029S@ac-rennes.fr", "telephone": "0299288100", "search_id": "accessibilite.0350029S", "accessibilite": "[{\"type\" : \"Accès piéton\", \"classe_h_mot\" : \"vert\", \"classe_h_vis\" : \"vert\", \"classe_h_aud\" : \"vert\", \"classe_h_cog\" : \"vert\", \"classe_h_mm\" : \"vert\", \"classe_h_mot_txt\" : \"Accessible\", \"classe_h_vis_txt\" : \"Accessible\", \"classe_h_aud_txt\" : \"Accessible\", \"classe_h_cog_txt\" : \"Accessible\", \"classe_h_mm_txt\" : \"Accessible\"}, {\"type\" : \"Accès transport\", \"classe_h_mot\" : \"orange\", \"classe_h_vis\" : \"orange\", \"classe_h_aud\" : \"vert\", \"classe_h_cog\" : \"vert\", \"classe_h_mm\" : \"orange\", \"classe_h_mot_txt\" : \"Non accessible mais praticable\", \"classe_h_vis_txt\" : \"Non accessible mais praticable\", \"classe_h_aud_txt\" : \"Accessible\", \"classe_h_cog_txt\" : \"Accessible\", \"classe_h_mm_txt\" : \"Non accessible mais praticable\"}, {\"type\" : \"Accès véhicule\", \"classe_h_mot\" : \"rouge\", \"classe_h_vis\" : \"vert\", \"classe_h_aud\" : \"vert\", \"classe_h_cog\" : \"vert\", \"classe_h_mm\" : \"rouge\", \"classe_h_mot_txt\" : \"Non accessible, non praticable\", \"classe_h_vis_txt\" : \"Accessible\", \"classe_h_aud_txt\" : \"Accessible\", \"classe_h_cog_txt\" : \"Accessible\", \"classe_h_mm_txt\" : \"Non accessible, non praticable\"}, {\"type\" : \"Exterieur\", \"classe_h_mot\" : \"orange\", \"classe_h_vis\" : \"rouge\", \"classe_h_aud\" : \"orange\", \"classe_h_cog\" : \"rouge\", \"classe_h_mm\" : \"orange\", \"classe_h_mot_txt\" : \"Non accessible mais praticable\", \"classe_h_vis_txt\" : \"Non accessible, non praticable\", \"classe_h_aud_txt\" : \"Non accessible mais praticable\", \"classe_h_cog_txt\" : \"Non accessible, non praticable\", \"classe_h_mm_txt\" : \"Non accessible mais praticable\"}]"}, "bbox": [-1.648877, 48.126788, -1.648877, 48.126788]}, {"type": "Feature", "id": "site_region_accessibilite.fid--17174f5a_19f2e433d8d_-4dc6", "geometry": {"type": "Point", "coordinates": [-1.681118, 48.134539]}, "geometry_name": "geom", "properties": {"code_site": "0350030T", "url_registre": "https://bzh.s3.eu-central-3.ionoscloud.com/0350030T.pdf", "url_budget": "https://bretagne.bzh", "nom": "Lycée Pierre Mendès-France", "adresse": "34, rue Bahon Rault", "code_postal": "35069", "ville": "RENNES", "reseau_lib": "Education nationale", "type_etablissement": "Lycée", "erp": "3", "remarque": "Date de mise à jour : 23/09/2025 8h30", "courriel": "ce.0350030T@ac-rennes.fr", "telephone": "0299278282", "search_id": "accessibilite.0350030T", "accessibilite": "[{\"type\" : \"Accès piéton\", \"classe_h_mot\" : \"vert\", \"classe_h_vis\" : \"vert\", \"classe_h_aud\" : \"vert\", \"classe_h_cog\" : \"vert\", \"classe_h_mm\" : \"vert\", \"classe_h_mot_txt\" : \"Accessible\", \"classe_h_vis_txt\" : \"Accessible\", \"classe_h_aud_txt\" : \"Accessible\", \"classe_h_cog_txt\" : \"Accessible\", \"classe_h_mm_txt\" : \"Accessible\"}, {\"type\" : \"Accès transport\", \"classe_h_mot\" : \"orange\", \"classe_h_vis\" : \"orange\", \"classe_h_aud\" : \"vert\", \"classe_h_cog\" : \"vert\", \"classe_h_mm\" : \"orange\", \"classe_h_mot_txt\" : \"Non accessible mais praticable\", \"classe_h_vis_txt\" : \"Non accessible mais praticable\", \"classe_h_aud_txt\" : \"Accessible\", \"classe_h_cog_txt\" : \"Accessible\", \"classe_h_mm_txt\" : \"Non accessible mais praticable\"}, {\"type\" : \"Accès véhicule\", \"classe_h_mot\" : \"vert\", \"classe_h_vis\" : \"vert\", \"classe_h_aud\" : \"vert\", \"classe_h_cog\" : \"vert\", \"classe_h_mm\" : \"vert\", \"classe_h_mot_txt\" : \"Accessible\", \"classe_h_vis_txt\" : \"Accessible\", \"classe_h_aud_txt\" : \"Accessible\", \"classe_h_cog_txt\" : \"Accessible\", \"classe_h_mm_txt\" : \"Accessible\"}, {\"type\" : \"Exterieur\", \"classe_h_mot\" : \"orange\", \"classe_h_vis\" : \"vert\", \"classe_h_aud\" : \"vert\", \"classe_h_cog\" : \"vert\", \"classe_h_mm\" : \"vert\", \"classe_h_mot_txt\" : \"Non accessible mais praticable\", \"classe_h_vis_txt\" : \"Accessible\", \"classe_h_aud_txt\" : \"Accessible\", \"classe_h_cog_txt\" : \"Accessible\", \"classe_h_mm_txt\" : \"Accessible\"}]"}, "bbox": [-1.681118, 48.134539, -1.681118, 48.134539]}, {"type": "Feature", "id": "site_region_accessibilite.fid--17174f5a_19f2e433d8d_-4dc5", "geometry": {"type": "Point", "coordinates": [-1.688089, 48.0919]}, "geometry_name": "geom", "properties": {"code_site": "0350031U", "url_registre": "https://bzh.s3.eu-central-3.ionoscloud.com/0350031U.pdf", "url_budget": "https://bretagne.bzh", "nom": "LP Jean Jaurès", "adresse": "24, rue Victor Rault", "code_postal": "35205", "ville": "RENNES", "reseau_lib": "Education nationale", "type_etablissement": "Lycée", "erp": "3", "remarque": "", "courriel": "ce.0350031U@ac-rennes.fr", "telephone": "0299651566", "search_id": "accessibilite.0350031U", "accessibilite": "[{\"type\" : \"Accès piéton\", \"classe_h_mot\" : \"orange\", \"classe_h_vis\" : \"orange\", \"classe_h_aud\" : \"vert\", \"classe_h_cog\" : \"vert\", \"classe_h_mm\" : \"orange\", \"classe_h_mot_txt\" : \"Non accessible mais praticable\", \"classe_h_vis_txt\" : \"Non accessible mais praticable\", \"classe_h_aud_txt\" : \"Accessible\", \"classe_h_cog_txt\" : \"Accessible\", \"classe_h_mm_txt\" : \"Non accessible mais praticable\"}, {\"type\" : \"Accès transport\", \"classe_h_mot\" : \"rouge\", \"classe_h_vis\" : \"rouge\", \"classe_h_aud\" : \"rouge\", \"classe_h_cog\" : \"rouge\", \"classe_h_mm\" : \"rouge\", \"classe_h_mot_txt\" : \"Non accessible, non praticable\", \"classe_h_vis_txt\" : \"Non accessible, non praticable\", \"classe_h_aud_txt\" : \"Non accessible, non praticable\", \"classe_h_cog_txt\" : \"Non accessible, non praticable\", \"classe_h_mm_txt\" : \"Non accessible, non praticable\"}, {\"type\" : \"Accès véhicule\", \"classe_h_mot\" : \"orange\", \"classe_h_vis\" : \"orange\", \"classe_h_aud\" : \"orange\", \"classe_h_cog\" : \"orange\", \"classe_h_mm\" : \"orange\", \"classe_h_mot_txt\" : \"Non accessible mais praticable\", \"classe_h_vis_txt\" : \"Non accessible mais praticable\", \"classe_h_aud_txt\" : \"Non accessible mais praticable\", \"classe_h_cog_txt\" : \"Non accessible mais praticable\", \"classe_h_mm_txt\" : \"Non accessible mais praticable\"}, {\"type\" : \"Exterieur\", \"classe_h_mot\" : \"orange\", \"classe_h_vis\" : \"rouge\", \"classe_h_aud\" : \"orange\", \"classe_h_cog\" : \"rouge\", \"classe_h_mm\" : \"rouge\", \"classe_h_mot_txt\" : \"Non accessible mais praticable\", \"classe_h_vis_txt\" : \"Non accessible, non praticable\", \"classe_h_aud_txt\" : \"Non accessible mais praticable\", \"classe_h_cog_txt\" : \"Non accessible, non praticable\", \"classe_h_mm_txt\" : \"Non accessible, non praticable\"}]"}, "bbox": [-1.688089, 48.0919, -1.688089, 48.0919]}, {"type": "Feature", "id": "site_region_accessibilite.fid--17174f5a_19f2e433d8d_-4dc4", "geometry": {"type": "Point", "coordinates": [-1.631512, 48.125191]}, "geometry_name": "geom", "properties": {"code_site": "0350032V", "url_registre": "https://bzh.s3.eu-central-3.ionoscloud.com/0350032V.pdf", "url_budget": "https://bretagne.bzh", "nom": "LP Louis Guilloux", "adresse": "Avenue des Buttes de Coësmes", "code_postal": "35703", "ville": "RENNES", "reseau_lib": "Education nationale", "type_etablissement": "Lycée", "erp": "2", "remarque": "", "courriel": "ce.0350032V@ac-rennes.fr", "telephone": "0299845760", "search_id": "accessibilite.0350032V", "accessibilite": "[{\"type\" : \"Accès piéton\", \"classe_h_mot\" : \"vert\", \"classe_h_vis\" : \"vert\", \"classe_h_aud\" : \"vert\", \"classe_h_cog\" : \"vert\", \"classe_h_mm\" : \"vert\", \"classe_h_mot_txt\" : \"Accessible\", \"classe_h_vis_txt\" : \"Accessible\", \"classe_h_aud_txt\" : \"Accessible\", \"classe_h_cog_txt\" : \"Accessible\", \"classe_h_mm_txt\" : \"Accessible\"}, {\"type\" : \"Accès transport\", \"classe_h_mot\" : \"vert\", \"classe_h_vis\" : \"vert\", \"classe_h_aud\" : \"vert\", \"classe_h_cog\" : \"vert\", \"classe_h_mm\" : \"vert\", \"classe_h_mot_txt\" : \"Accessible\", \"classe_h_vis_txt\" : \"Accessible\", \"classe_h_aud_txt\" : \"Accessible\", \"classe_h_cog_txt\" : \"Accessible\", \"classe_h_mm_txt\" : \"Accessible\"}, {\"type\" : \"Accès véhicule\", \"classe_h_mot\" : \"orange\", \"classe_h_vis\" : \"vert\", \"classe_h_aud\" : \"vert\", \"classe_h_cog\" : \"vert\", \"classe_h_mm\" : \"orange\", \"classe_h_mot_txt\" : \"Non accessible mais praticable\", \"classe_h_vis_txt\" : \"Accessible\", \"classe_h_aud_txt\" : \"Accessible\", \"classe_h_cog_txt\" : \"Accessible\", \"classe_h_mm_txt\" : \"Non accessible mais praticable\"}, {\"type\" : \"Exterieur\", \"classe_h_mot\" : \"rouge\", \"classe_h_vis\" : \"rouge\", \"classe_h_aud\" : \"vert\", \"classe_h_cog\" : \"vert\", \"classe_h_mm\" : \"rouge\", \"classe_h_mot_txt\" : \"Non accessible, non praticable\", \"classe_h_vis_txt\" : \"Non accessible, non praticable\", \"classe_h_aud_txt\" : \"Accessible\", \"classe_h_cog_txt\" : \"Accessible\", \"classe_h_mm_txt\" : \"Non accessible, non praticable\"}]"}, "bbox": [-1.631512, 48.125191, -1.631512, 48.125191]}, {"type": "Feature", "id": "site_region_accessibilite.fid--17174f5a_19f2e433d8d_-4dc3", "geometry": {"type": "Point", "coordinates": [-1.825424, 48.332316]}, "geometry_name": "geom", "properties": {"code_site": "0350050P", "url_registre": "https://bzh.s3.eu-central-3.ionoscloud.com/0350050P.pdf", "url_budget": "https://bretagne.bzh", "nom": "LP Bel Air", "adresse": "7, rue Ernest Renan", "code_postal": "35190", "ville": "TINTENIAC", "reseau_lib": "Education nationale", "type_etablissement": "Lycée", "erp": "3", "remarque": "Date de mise à jour : 23/09 à 14h00", "courriel": "ce.0350050P@ac-rennes.fr", "telephone": "0299680234", "search_id": "accessibilite.0350050P", "accessibilite": "[{\"type\" : \"Accès piéton\", \"classe_h_mot\" : \"vert\", \"classe_h_vis\" : \"vert\", \"classe_h_aud\" : \"vert\", \"classe_h_cog\" : \"vert\", \"classe_h_mm\" : \"vert\", \"classe_h_mot_txt\" : \"Accessible\", \"classe_h_vis_txt\" : \"Accessible\", \"classe_h_aud_txt\" : \"Accessible\", \"classe_h_cog_txt\" : \"Accessible\", \"classe_h_mm_txt\" : \"Accessible\"}, {\"type\" : \"Accès transport\", \"classe_h_mot\" : \"vert\", \"classe_h_vis\" : \"orange\", \"classe_h_aud\" : \"vert\", \"classe_h_cog\" : \"vert\", \"classe_h_mm\" : \"vert\", \"classe_h_mot_txt\" : \"Accessible\", \"classe_h_vis_txt\" : \"Non accessible mais praticable\", \"classe_h_aud_txt\" : \"Accessible\", \"classe_h_cog_txt\" : \"Accessible\", \"classe_h_mm_txt\" : \"Accessible\"}, {\"type\" : \"Accès véhicule\", \"classe_h_mot\" : \"vert\", \"classe_h_vis\" : \"vert\", \"classe_h_aud\" : \"vert\", \"classe_h_cog\" : \"vert\", \"classe_h_mm\" : \"vert\", \"classe_h_mot_txt\" : \"Accessible\", \"classe_h_vis_txt\" : \"Accessible\", \"classe_h_aud_txt\" : \"Accessible\", \"classe_h_cog_txt\" : \"Accessible\", \"classe_h_mm_txt\" : \"Accessible\"}, {\"type\" : \"Exterieur\", \"classe_h_mot\" : \"orange\", \"classe_h_vis\" : \"vert\", \"classe_h_aud\" : \"vert\", \"classe_h_cog\" : \"vert\", \"classe_h_mm\" : \"orange\", \"classe_h_mot_txt\" : \"Non accessible mais praticable\", \"classe_h_vis_txt\" : \"Accessible\", \"classe_h_aud_txt\" : \"Accessible\", \"classe_h_cog_txt\" : \"Accessible\", \"classe_h_mm_txt\" : \"Non accessible mais praticable\"}]"}, "bbox": [-1.825424, 48.332316, -1.825424, 48.332316]}, {"type": "Feature", "id": "site_region_accessibilite.fid--17174f5a_19f2e433d8d_-4dc2", "geometry": {"type": "Point", "coordinates": [-1.807073, 48.099465]}, "geometry_name": "geom", "properties": {"code_site": "0350700W", "url_registre": "https://bzh.s3.eu-central-3.ionoscloud.com/0350700W.pdf", "url_budget": "https://bretagne.bzh", "nom": "Lycée Théodore Monod", "adresse": "55, avenue de la Bouvardière", "code_postal": "35651", "ville": "LE RHEU", "reseau_lib": "Agricole", "type_etablissement": "Lycée", "erp": "3", "remarque": "", "courriel": "legta.le-Rheu@educagri.fr", "telephone": "0299297345", "search_id": "accessibilite.0350700W", "accessibilite": "[{\"type\" : \"Accès piéton\", \"classe_h_mot\" : \"vert\", \"classe_h_vis\" : \"orange\", \"classe_h_aud\" : \"vert\", \"classe_h_cog\" : \"vert\", \"classe_h_mm\" : \"orange\", \"classe_h_mot_txt\" : \"Accessible\", \"classe_h_vis_txt\" : \"Non accessible mais praticable\", \"classe_h_aud_txt\" : \"Accessible\", \"classe_h_cog_txt\" : \"Accessible\", \"classe_h_mm_txt\" : \"Non accessible mais praticable\"}, {\"type\" : \"Accès transport\", \"classe_h_mot\" : \"orange\", \"classe_h_vis\" : \"orange\", \"classe_h_aud\" : \"vert\", \"classe_h_cog\" : \"vert\", \"classe_h_mm\" : \"orange\", \"classe_h_mot_txt\" : \"Non accessible mais praticable\", \"classe_h_vis_txt\" : \"Non accessible mais praticable\", \"classe_h_aud_txt\" : \"Accessible\", \"classe_h_cog_txt\" : \"Accessible\", \"classe_h_mm_txt\" : \"Non accessible mais praticable\"}, {\"type\" : \"Accès véhicule\", \"classe_h_mot\" : \"orange\", \"classe_h_vis\" : \"orange\", \"classe_h_aud\" : \"vert\", \"classe_h_cog\" : \"vert\", \"classe_h_mm\" : \"orange\", \"classe_h_mot_txt\" : \"Non accessible mais praticable\", \"classe_h_vis_txt\" : \"Non accessible mais praticable\", \"classe_h_aud_txt\" : \"Accessible\", \"classe_h_cog_txt\" : \"Accessible\", \"classe_h_mm_txt\" : \"Non accessible mais praticable\"}, {\"type\" : \"Exterieur\", \"classe_h_mot\" : \"orange\", \"classe_h_vis\" : \"rouge\", \"classe_h_aud\" : \"orange\", \"classe_h_cog\" : \"rouge\", \"classe_h_mm\" : \"orange\", \"classe_h_mot_txt\" : \"Non accessible mais praticable\", \"classe_h_vis_txt\" : \"Non accessible, non praticable\", \"classe_h_aud_txt\" : \"Non accessible mais praticable\", \"classe_h_cog_txt\" : \"Non accessible, non praticable\", \"classe_h_mm_txt\" : \"Non accessible mais praticable\"}]"}, "bbox": [-1.807073, 48.099465, -1.807073, 48.099465]}, {"type": "Feature", "id": "site_region_accessibilite.fid--17174f5a_19f2e433d8d_-4dc1", "geometry": {"type": "Point", "coordinates": [-1.649176, 48.123615]}, "geometry_name": "geom", "properties": {"code_site": "0350710G", "url_registre": "https://bzh.s3.eu-central-3.ionoscloud.com/0350710G.pdf", "url_budget": "https://bretagne.bzh", "nom": "Lycée Chateaubriand", "adresse": "136, boulevard de Vitré", "code_postal": "35703", "ville": "RENNES", "reseau_lib": "Education nationale", "type_etablissement": "Lycée", "erp": "2", "remarque": " </br>Paillassons à changer bâtiment B </br> </br>Paillassons à changer bâtiment B </br> </br>Paillassons à changer bâtiment B </br> </br>Paillassons à changer bâtiment B </br>", "courriel": "ce.0350710G@ac-rennes.fr", "telephone": "0299281900", "search_id": "accessibilite.0350710G", "accessibilite": "[{\"type\" : \"Accès piéton\", \"classe_h_mot\" : \"vert\", \"classe_h_vis\" : \"orange\", \"classe_h_aud\" : \"vert\", \"classe_h_cog\" : \"vert\", \"classe_h_mm\" : \"vert\", \"classe_h_mot_txt\" : \"Accessible\", \"classe_h_vis_txt\" : \"Non accessible mais praticable\", \"classe_h_aud_txt\" : \"Accessible\", \"classe_h_cog_txt\" : \"Accessible\", \"classe_h_mm_txt\" : \"Accessible\"}, {\"type\" : \"Accès transport\", \"classe_h_mot\" : \"orange\", \"classe_h_vis\" : \"vert\", \"classe_h_aud\" : \"vert\", \"classe_h_cog\" : \"vert\", \"classe_h_mm\" : \"vert\", \"classe_h_mot_txt\" : \"Non accessible mais praticable\", \"classe_h_vis_txt\" : \"Accessible\", \"classe_h_aud_txt\" : \"Accessible\", \"classe_h_cog_txt\" : \"Accessible\", \"classe_h_mm_txt\" : \"Accessible\"}, {\"type\" : \"Accès véhicule\", \"classe_h_mot\" : \"rouge\", \"classe_h_vis\" : \"vert\", \"classe_h_aud\" : \"vert\", \"classe_h_cog\" : \"vert\", \"classe_h_mm\" : \"rouge\", \"classe_h_mot_txt\" : \"Non accessible, non praticable\", \"classe_h_vis_txt\" : \"Accessible\", \"classe_h_aud_txt\" : \"Accessible\", \"classe_h_cog_txt\" : \"Accessible\", \"classe_h_mm_txt\" : \"Non accessible, non praticable\"}, {\"type\" : \"Exterieur\", \"classe_h_mot\" : \"rouge\", \"classe_h_vis\" : \"rouge\", \"classe_h_aud\" : \"rouge\", \"classe_h_cog\" : \"rouge\", \"classe_h_mm\" : \"rouge\", \"classe_h_mot_txt\" : \"Non accessible, non praticable\", \"classe_h_vis_txt\" : \"Non accessible, non praticable\", \"classe_h_aud_txt\" : \"Non accessible, non praticable\", \"classe_h_cog_txt\" : \"Non accessible, non praticable\", \"classe_h_mm_txt\" : \"Non accessible, non praticable\"}]"}, "bbox": [-1.649176, 48.123615, -1.649176, 48.123615]}, {"type": "Feature", "id": "site_region_accessibilite.fid--17174f5a_19f2e433d8d_-4dc0", "geometry": {"type": "Point", "coordinates": [-1.68417, 48.084816]}, "geometry_name": "geom", "properties": {"code_site": "0350747X", "url_registre": "https://bzh.s3.eu-central-3.ionoscloud.com/0350747X.pdf", "url_budget": "https://bretagne.bzh", "nom": "E.R.E.A.", "adresse": "26, Avenue du Canada", "code_postal": "35009", "ville": "RENNES", "reseau_lib": "Education nationale", "type_etablissement": "EREA", "erp": "1", "remarque": " </br>Sortie ascenseur securiser les gardes corps car ils ne respectent pas l abaque de détection </br> </br>Internat, luminosité couloirs insuffisantes </br> </br>Ressaut acces préauprevoir d utiliser la porte de droite pour sortir, ressaut 4cm à chanfreiner </br> </br>Cour, dégradation à repre'dre </br> </br>", "courriel": "ce.0350747X@ac-rennes.fr", "telephone": "0299509169", "search_id": "accessibilite.0350747X", "accessibilite": "[{\"type\" : \"Accès piéton\", \"classe_h_mot\" : \"orange\", \"classe_h_vis\" : \"vert\", \"classe_h_aud\" : \"vert\", \"classe_h_cog\" : \"vert\", \"classe_h_mm\" : \"vert\", \"classe_h_mot_txt\" : \"Non accessible mais praticable\", \"classe_h_vis_txt\" : \"Accessible\", \"classe_h_aud_txt\" : \"Accessible\", \"classe_h_cog_txt\" : \"Accessible\", \"classe_h_mm_txt\" : \"Accessible\"}, {\"type\" : \"Accès transport\", \"classe_h_mot\" : \"orange\", \"classe_h_vis\" : \"vert\", \"classe_h_aud\" : \"vert\", \"classe_h_cog\" : \"vert\", \"classe_h_mm\" : \"vert\", \"classe_h_mot_txt\" : \"Non accessible mais praticable\", \"classe_h_vis_txt\" : \"Accessible\", \"classe_h_aud_txt\" : \"Accessible\", \"classe_h_cog_txt\" : \"Accessible\", \"classe_h_mm_txt\" : \"Accessible\"}, {\"type\" : \"Accès véhicule\", \"classe_h_mot\" : \"orange\", \"classe_h_vis\" : \"vert\", \"classe_h_aud\" : \"vert\", \"classe_h_cog\" : \"vert\", \"classe_h_mm\" : \"orange\", \"classe_h_mot_txt\" : \"Non accessible mais praticable\", \"classe_h_vis_txt\" : \"Accessible\", \"classe_h_aud_txt\" : \"Accessible\", \"classe_h_cog_txt\" : \"Accessible\", \"classe_h_mm_txt\" : \"Non accessible mais praticable\"}, {\"type\" : \"Exterieur\", \"classe_h_mot\" : \"orange\", \"classe_h_vis\" : \"orange\", \"classe_h_aud\" : \"orange\", \"classe_h_cog\" : \"vert\", \"classe_h_mm\" : \"orange\", \"classe_h_mot_txt\" : \"Non accessible mais praticable\", \"classe_h_vis_txt\" : \"Non accessible mais praticable\", \"classe_h_aud_txt\" : \"Non accessible mais praticable\", \"classe_h_cog_txt\" : \"Accessible\", \"classe_h_mm_txt\" : \"Non accessible mais praticable\"}]"}, "bbox": [-1.68417, 48.084816, -1.68417, 48.084816]}, {"type": "Feature", "id": "site_region_accessibilite.fid--17174f5a_19f2e433d8d_-4dbf", "geometry": {"type": "Point", "coordinates": [-1.426466, 48.265265]}, "geometry_name": "geom", "properties": {"code_site": "0350940G", "url_registre": "https://bzh.s3.eu-central-3.ionoscloud.com/0350940G.pdf", "url_budget": "https://bretagne.bzh", "nom": "LP agricole", "adresse": "La Lande de la Rencontre", "code_postal": "35140", "ville": "ST AUBIN DU CORMIER", "reseau_lib": "Agricole", "type_etablissement": "Lycée", "erp": "3", "remarque": "", "courriel": "lpa.st-aubin@educagri.fr", "telephone": "0299451445", "search_id": "accessibilite.0350940G", "accessibilite": "[{\"type\" : \"Accès piéton\", \"classe_h_mot\" : \"orange\", \"classe_h_vis\" : \"vert\", \"classe_h_aud\" : \"vert\", \"classe_h_cog\" : \"vert\", \"classe_h_mm\" : \"orange\", \"classe_h_mot_txt\" : \"Non accessible mais praticable\", \"classe_h_vis_txt\" : \"Accessible\", \"classe_h_aud_txt\" : \"Accessible\", \"classe_h_cog_txt\" : \"Accessible\", \"classe_h_mm_txt\" : \"Non accessible mais praticable\"}, {\"type\" : \"Accès transport\", \"classe_h_mot\" : \"orange\", \"classe_h_vis\" : \"orange\", \"classe_h_aud\" : \"vert\", \"classe_h_cog\" : \"vert\", \"classe_h_mm\" : \"orange\", \"classe_h_mot_txt\" : \"Non accessible mais praticable\", \"classe_h_vis_txt\" : \"Non accessible mais praticable\", \"classe_h_aud_txt\" : \"Accessible\", \"classe_h_cog_txt\" : \"Accessible\", \"classe_h_mm_txt\" : \"Non accessible mais praticable\"}, {\"type\" : \"Accès véhicule\", \"classe_h_mot\" : \"rouge\", \"classe_h_vis\" : \"orange\", \"classe_h_aud\" : \"vert\", \"classe_h_cog\" : \"vert\", \"classe_h_mm\" : \"rouge\", \"classe_h_mot_txt\" : \"Non accessible, non praticable\", \"classe_h_vis_txt\" : \"Non accessible mais praticable\", \"classe_h_aud_txt\" : \"Accessible\", \"classe_h_cog_txt\" : \"Accessible\", \"classe_h_mm_txt\" : \"Non accessible, non praticable\"}, {\"type\" : \"Exterieur\", \"classe_h_mot\" : \"rouge\", \"classe_h_vis\" : \"rouge\", \"classe_h_aud\" : \"orange\", \"classe_h_cog\" : \"orange\", \"classe_h_mm\" : \"rouge\", \"classe_h_mot_txt\" : \"Non accessible, non praticable\", \"classe_h_vis_txt\" : \"Non accessible, non praticable\", \"classe_h_aud_txt\" : \"Non accessible mais praticable\", \"classe_h_cog_txt\" : \"Non accessible mais praticable\", \"classe_h_mm_txt\" : \"Non accessible, non praticable\"}]"}, "bbox": [-1.426466, 48.265265, -1.426466, 48.265265]}, {"type": "Feature", "id": "site_region_accessibilite.fid--17174f5a_19f2e433d8d_-4dbe", "geometry": {"type": "Point", "coordinates": [-1.659928, 48.107602]}, "geometry_name": "geom", "properties": {"code_site": "0351054F", "url_registre": "https://bzh.s3.eu-central-3.ionoscloud.com/0351054F.pdf", "url_budget": "https://bretagne.bzh", "nom": "Lycée Professionnel Charles Tillon", "adresse": "9, Allée Georges Palante", "code_postal": "35009", "ville": "RENNES", "reseau_lib": "Education nationale", "type_etablissement": "Lycée", "erp": "3", "remarque": "", "courriel": "ce.0351054F@ac-rennes.Fr", "telephone": "0299272100", "search_id": "accessibilite.0351054F", "accessibilite": "[{\"type\" : \"Accès piéton\", \"classe_h_mot\" : \"orange\", \"classe_h_vis\" : \"orange\", \"classe_h_aud\" : \"vert\", \"classe_h_cog\" : \"vert\", \"classe_h_mm\" : \"orange\", \"classe_h_mot_txt\" : \"Non accessible mais praticable\", \"classe_h_vis_txt\" : \"Non accessible mais praticable\", \"classe_h_aud_txt\" : \"Accessible\", \"classe_h_cog_txt\" : \"Accessible\", \"classe_h_mm_txt\" : \"Non accessible mais praticable\"}, {\"type\" : \"Accès transport\", \"classe_h_mot\" : \"vert\", \"classe_h_vis\" : \"vert\", \"classe_h_aud\" : \"vert\", \"classe_h_cog\" : \"vert\", \"classe_h_mm\" : \"vert\", \"classe_h_mot_txt\" : \"Accessible\", \"classe_h_vis_txt\" : \"Accessible\", \"classe_h_aud_txt\" : \"Accessible\", \"classe_h_cog_txt\" : \"Accessible\", \"classe_h_mm_txt\" : \"Accessible\"}, {\"type\" : \"Accès véhicule\", \"classe_h_mot\" : \"vert\", \"classe_h_vis\" : \"vert\", \"classe_h_aud\" : \"vert\", \"classe_h_cog\" : \"vert\", \"classe_h_mm\" : \"vert\", \"classe_h_mot_txt\" : \"Accessible\", \"classe_h_vis_txt\" : \"Accessible\", \"classe_h_aud_txt\" : \"Accessible\", \"classe_h_cog_txt\" : \"Accessible\", \"classe_h_mm_txt\" : \"Accessible\"}, {\"type\" : \"Exterieur\", \"classe_h_mot\" : \"orange\", \"classe_h_vis\" : \"rouge\", \"classe_h_aud\" : \"vert\", \"classe_h_cog\" : \"vert\", \"classe_h_mm\" : \"rouge\", \"classe_h_mot_txt\" : \"Non accessible mais praticable\", \"classe_h_vis_txt\" : \"Non accessible, non praticable\", \"classe_h_aud_txt\" : \"Accessible\", \"classe_h_cog_txt\" : \"Accessible\", \"classe_h_mm_txt\" : \"Non accessible, non praticable\"}]"}, "bbox": [-1.659928, 48.107602, -1.659928, 48.107602]}, {"type": "Feature", "id": "site_region_accessibilite.fid--17174f5a_19f2e433d8d_-4dbd", "geometry": {"type": "Point", "coordinates": [-1.694244, 48.122739]}, "geometry_name": "geom", "properties": {"code_site": "0351878B", "url_registre": "https://bzh.s3.eu-central-3.ionoscloud.com/0351878B.pdf", "url_budget": "https://bretagne.bzh", "nom": "LP Coëtlogon", "adresse": "Avenue de Coëtlogon", "code_postal": "35083", "ville": "RENNES", "reseau_lib": "Education nationale", "type_etablissement": "Lycée", "erp": "2", "remarque": " </br> </br>", "courriel": "ce.0351878B@ac-rennes.fr", "telephone": "0299546262", "search_id": "accessibilite.0351878B", "accessibilite": "[{\"type\" : \"Accès piéton\", \"classe_h_mot\" : \"rouge\", \"classe_h_vis\" : \"vert\", \"classe_h_aud\" : \"vert\", \"classe_h_cog\" : \"vert\", \"classe_h_mm\" : \"vert\", \"classe_h_mot_txt\" : \"Non accessible, non praticable\", \"classe_h_vis_txt\" : \"Accessible\", \"classe_h_aud_txt\" : \"Accessible\", \"classe_h_cog_txt\" : \"Accessible\", \"classe_h_mm_txt\" : \"Accessible\"}, {\"type\" : \"Accès transport\", \"classe_h_mot\" : \"rouge\", \"classe_h_vis\" : \"vert\", \"classe_h_aud\" : \"vert\", \"classe_h_cog\" : \"vert\", \"classe_h_mm\" : \"vert\", \"classe_h_mot_txt\" : \"Non accessible, non praticable\", \"classe_h_vis_txt\" : \"Accessible\", \"classe_h_aud_txt\" : \"Accessible\", \"classe_h_cog_txt\" : \"Accessible\", \"classe_h_mm_txt\" : \"Accessible\"}, {\"type\" : \"Accès véhicule\", \"classe_h_mot\" : \"rouge\", \"classe_h_vis\" : \"vert\", \"classe_h_aud\" : \"vert\", \"classe_h_cog\" : \"vert\", \"classe_h_mm\" : \"rouge\", \"classe_h_mot_txt\" : \"Non accessible, non praticable\", \"classe_h_vis_txt\" : \"Accessible\", \"classe_h_aud_txt\" : \"Accessible\", \"classe_h_cog_txt\" : \"Accessible\", \"classe_h_mm_txt\" : \"Non accessible, non praticable\"}, {\"type\" : \"Exterieur\", \"classe_h_mot\" : \"rouge\", \"classe_h_vis\" : \"rouge\", \"classe_h_aud\" : \"rouge\", \"classe_h_cog\" : \"vert\", \"classe_h_mm\" : \"rouge\", \"classe_h_mot_txt\" : \"Non accessible, non praticable\", \"classe_h_vis_txt\" : \"Non accessible, non praticable\", \"classe_h_aud_txt\" : \"Non accessible, non praticable\", \"classe_h_cog_txt\" : \"Accessible\", \"classe_h_mm_txt\" : \"Non accessible, non praticable\"}]"}, "bbox": [-1.694244, 48.122739, -1.694244, 48.122739]}, {"type": "Feature", "id": "site_region_accessibilite.fid--17174f5a_19f2e433d8d_-4dbc", "geometry": {"type": "Point", "coordinates": [-1.642603, 48.088373]}, "geometry_name": "geom", "properties": {"code_site": "0351907H", "url_registre": "https://bzh.s3.eu-central-3.ionoscloud.com/0351907H.pdf", "url_budget": "https://bretagne.bzh", "nom": "Lycée René Descartes", "adresse": "14, chemin de Ronde", "code_postal": "35204", "ville": "RENNES", "reseau_lib": "Education nationale", "type_etablissement": "Lycée", "erp": "2", "remarque": "Date de mise à jour : 18/09/2025 08h30:00", "courriel": "ce.0351907H@ac-rennes.fr", "telephone": "0299514964", "search_id": "accessibilite.0351907H", "accessibilite": "[{\"type\" : \"Accès piéton\", \"classe_h_mot\" : \"vert\", \"classe_h_vis\" : \"vert\", \"classe_h_aud\" : \"vert\", \"classe_h_cog\" : \"vert\", \"classe_h_mm\" : \"vert\", \"classe_h_mot_txt\" : \"Accessible\", \"classe_h_vis_txt\" : \"Accessible\", \"classe_h_aud_txt\" : \"Accessible\", \"classe_h_cog_txt\" : \"Accessible\", \"classe_h_mm_txt\" : \"Accessible\"}, {\"type\" : \"Accès transport\", \"classe_h_mot\" : \"orange\", \"classe_h_vis\" : \"orange\", \"classe_h_aud\" : \"orange\", \"classe_h_cog\" : \"orange\", \"classe_h_mm\" : \"orange\", \"classe_h_mot_txt\" : \"Non accessible mais praticable\", \"classe_h_vis_txt\" : \"Non accessible mais praticable\", \"classe_h_aud_txt\" : \"Non accessible mais praticable\", \"classe_h_cog_txt\" : \"Non accessible mais praticable\", \"classe_h_mm_txt\" : \"Non accessible mais praticable\"}, {\"type\" : \"Accès véhicule\", \"classe_h_mot\" : \"vert\", \"classe_h_vis\" : \"vert\", \"classe_h_aud\" : \"vert\", \"classe_h_cog\" : \"vert\", \"classe_h_mm\" : \"vert\", \"classe_h_mot_txt\" : \"Accessible\", \"classe_h_vis_txt\" : \"Accessible\", \"classe_h_aud_txt\" : \"Accessible\", \"classe_h_cog_txt\" : \"Accessible\", \"classe_h_mm_txt\" : \"Accessible\"}, {\"type\" : \"Exterieur\", \"classe_h_mot\" : \"orange\", \"classe_h_vis\" : \"orange\", \"classe_h_aud\" : \"orange\", \"classe_h_cog\" : \"orange\", \"classe_h_mm\" : \"orange\", \"classe_h_mot_txt\" : \"Non accessible mais praticable\", \"classe_h_vis_txt\" : \"Non accessible mais praticable\", \"classe_h_aud_txt\" : \"Non accessible mais praticable\", \"classe_h_cog_txt\" : \"Non accessible mais praticable\", \"classe_h_mm_txt\" : \"Non accessible mais praticable\"}]"}, "bbox": [-1.642603, 48.088373, -1.642603, 48.088373]}, {"type": "Feature", "id": "site_region_accessibilite.fid--17174f5a_19f2e433d8d_-4dbb", "geometry": {"type": "Point", "coordinates": [-1.690548, 48.125682]}, "geometry_name": "geom", "properties": {"code_site": "0352009U", "url_registre": "https://bzh.s3.eu-central-3.ionoscloud.com/0352009U.pdf", "url_budget": "https://bretagne.bzh", "nom": "Lycée Victor et Hélène Basch", "adresse": "5, avenue Charles Tillon", "code_postal": "35083", "ville": "RENNES", "reseau_lib": "Education nationale", "type_etablissement": "Lycée", "erp": "2", "remarque": "", "courriel": "ce.0352009U@ac-rennes.fr", "telephone": "0299544443", "search_id": "accessibilite.0352009U", "accessibilite": "[{\"type\" : \"Accès piéton\", \"classe_h_mot\" : \"vert\", \"classe_h_vis\" : \"orange\", \"classe_h_aud\" : \"vert\", \"classe_h_cog\" : \"vert\", \"classe_h_mm\" : \"vert\", \"classe_h_mot_txt\" : \"Accessible\", \"classe_h_vis_txt\" : \"Non accessible mais praticable\", \"classe_h_aud_txt\" : \"Accessible\", \"classe_h_cog_txt\" : \"Accessible\", \"classe_h_mm_txt\" : \"Accessible\"}, {\"type\" : \"Accès transport\", \"classe_h_mot\" : \"orange\", \"classe_h_vis\" : \"orange\", \"classe_h_aud\" : \"vert\", \"classe_h_cog\" : \"vert\", \"classe_h_mm\" : \"vert\", \"classe_h_mot_txt\" : \"Non accessible mais praticable\", \"classe_h_vis_txt\" : \"Non accessible mais praticable\", \"classe_h_aud_txt\" : \"Accessible\", \"classe_h_cog_txt\" : \"Accessible\", \"classe_h_mm_txt\" : \"Accessible\"}, {\"type\" : \"Accès véhicule\", \"classe_h_mot\" : \"orange\", \"classe_h_vis\" : \"vert\", \"classe_h_aud\" : \"vert\", \"classe_h_cog\" : \"vert\", \"classe_h_mm\" : \"orange\", \"classe_h_mot_txt\" : \"Non accessible mais praticable\", \"classe_h_vis_txt\" : \"Accessible\", \"classe_h_aud_txt\" : \"Accessible\", \"classe_h_cog_txt\" : \"Accessible\", \"classe_h_mm_txt\" : \"Non accessible mais praticable\"}, {\"type\" : \"Exterieur\", \"classe_h_mot\" : \"orange\", \"classe_h_vis\" : \"rouge\", \"classe_h_aud\" : \"orange\", \"classe_h_cog\" : \"rouge\", \"classe_h_mm\" : \"rouge\", \"classe_h_mot_txt\" : \"Non accessible mais praticable\", \"classe_h_vis_txt\" : \"Non accessible, non praticable\", \"classe_h_aud_txt\" : \"Non accessible mais praticable\", \"classe_h_cog_txt\" : \"Non accessible, non praticable\", \"classe_h_mm_txt\" : \"Non accessible, non praticable\"}]"}, "bbox": [-1.690548, 48.125682, -1.690548, 48.125682]}, {"type": "Feature", "id": "site_region_accessibilite.fid--17174f5a_19f2e433d8d_-4dba", "geometry": {"type": "Point", "coordinates": [-1.96287, 48.142524]}, "geometry_name": "geom", "properties": {"code_site": "0352235P", "url_registre": "https://bzh.s3.eu-central-3.ionoscloud.com/0352235P.pdf", "url_budget": "https://bretagne.bzh", "nom": "Lycée René Cassin", "adresse": "Route de Saint-Méen", "code_postal": "35160", "ville": "MONTFORT SUR MEU", "reseau_lib": "Education nationale", "type_etablissement": "Lycée", "erp": "2", "remarque": " </br>L'escalier du bâtiment annexe n'est pas suffisamment équipé </br> </br>L'accès à l'auditorium, depuis le hall, présente une marche (il est à préciser que l'accès par la cour était condamné le jour de la visite) </br> </br>Les sanitaires adaptés des étages du bâtiment principal ne posèdent pas tous les équipements réglementaires </br> </br>L'escalier du bâtiment annexe n'est pas suffisamment équipé </br> </br>L'accès à l'auditorium, depuis le hall, présente une marche (il est à préciser que l'accès par la cour était condamné le jour de la visite) </br> </br>Les sanitaires adaptés des étages du bâtiment principal ne posèdent pas tous les équipements réglementaires </br> </br>", "courriel": "ce.0352235P@ac-rennes.fr", "telephone": "0299093633", "search_id": "accessibilite.0352235P", "accessibilite": "[{\"type\" : \"Accès piéton\", \"classe_h_mot\" : \"vert\", \"classe_h_vis\" : \"rouge\", \"classe_h_aud\" : \"rouge\", \"classe_h_cog\" : \"vert\", \"classe_h_mm\" : \"vert\", \"classe_h_mot_txt\" : \"Accessible\", \"classe_h_vis_txt\" : \"Non accessible, non praticable\", \"classe_h_aud_txt\" : \"Non accessible, non praticable\", \"classe_h_cog_txt\" : \"Accessible\", \"classe_h_mm_txt\" : \"Accessible\"}, {\"type\" : \"Accès transport\", \"classe_h_mot\" : \"rouge\", \"classe_h_vis\" : \"vert\", \"classe_h_aud\" : \"vert\", \"classe_h_cog\" : \"vert\", \"classe_h_mm\" : \"vert\", \"classe_h_mot_txt\" : \"Non accessible, non praticable\", \"classe_h_vis_txt\" : \"Accessible\", \"classe_h_aud_txt\" : \"Accessible\", \"classe_h_cog_txt\" : \"Accessible\", \"classe_h_mm_txt\" : \"Accessible\"}, {\"type\" : \"Accès véhicule\", \"classe_h_mot\" : \"orange\", \"classe_h_vis\" : \"vert\", \"classe_h_aud\" : \"vert\", \"classe_h_cog\" : \"vert\", \"classe_h_mm\" : \"orange\", \"classe_h_mot_txt\" : \"Non accessible mais praticable\", \"classe_h_vis_txt\" : \"Accessible\", \"classe_h_aud_txt\" : \"Accessible\", \"classe_h_cog_txt\" : \"Accessible\", \"classe_h_mm_txt\" : \"Non accessible mais praticable\"}, {\"type\" : \"Exterieur\", \"classe_h_mot\" : \"rouge\", \"classe_h_vis\" : \"rouge\", \"classe_h_aud\" : \"rouge\", \"classe_h_cog\" : \"vert\", \"classe_h_mm\" : \"rouge\", \"classe_h_mot_txt\" : \"Non accessible, non praticable\", \"classe_h_vis_txt\" : \"Non accessible, non praticable\", \"classe_h_aud_txt\" : \"Non accessible, non praticable\", \"classe_h_cog_txt\" : \"Accessible\", \"classe_h_mm_txt\" : \"Non accessible, non praticable\"}]"}, "bbox": [-1.96287, 48.142524, -1.96287, 48.142524]}, {"type": "Feature", "id": "site_region_accessibilite.fid--17174f5a_19f2e433d8d_-4db9", "geometry": {"type": "Point", "coordinates": [-1.59939, 48.115998]}, "geometry_name": "geom", "properties": {"code_site": "0352304P", "url_registre": "https://bzh.s3.eu-central-3.ionoscloud.com/0352304P.pdf", "url_budget": "https://bretagne.bzh", "nom": "Lycée Sévigné", "adresse": "2, rue de la Chalotais", "code_postal": "35513", "ville": "CESSON SEVIGNE", "reseau_lib": "Education nationale", "type_etablissement": "Lycée", "erp": "2", "remarque": "", "courriel": "ce.0352304P@ac-rennes.fr", "telephone": "0299835252", "search_id": "accessibilite.0352304P", "accessibilite": "[{\"type\" : \"Accès piéton\", \"classe_h_mot\" : \"vert\", \"classe_h_vis\" : \"orange\", \"classe_h_aud\" : \"vert\", \"classe_h_cog\" : \"vert\", \"classe_h_mm\" : \"vert\", \"classe_h_mot_txt\" : \"Accessible\", \"classe_h_vis_txt\" : \"Non accessible mais praticable\", \"classe_h_aud_txt\" : \"Accessible\", \"classe_h_cog_txt\" : \"Accessible\", \"classe_h_mm_txt\" : \"Accessible\"}, {\"type\" : \"Accès transport\", \"classe_h_mot\" : \"vert\", \"classe_h_vis\" : \"vert\", \"classe_h_aud\" : \"vert\", \"classe_h_cog\" : \"vert\", \"classe_h_mm\" : \"vert\", \"classe_h_mot_txt\" : \"Accessible\", \"classe_h_vis_txt\" : \"Accessible\", \"classe_h_aud_txt\" : \"Accessible\", \"classe_h_cog_txt\" : \"Accessible\", \"classe_h_mm_txt\" : \"Accessible\"}, {\"type\" : \"Accès véhicule\", \"classe_h_mot\" : \"vert\", \"classe_h_vis\" : \"vert\", \"classe_h_aud\" : \"vert\", \"classe_h_cog\" : \"vert\", \"classe_h_mm\" : \"vert\", \"classe_h_mot_txt\" : \"Accessible\", \"classe_h_vis_txt\" : \"Accessible\", \"classe_h_aud_txt\" : \"Accessible\", \"classe_h_cog_txt\" : \"Accessible\", \"classe_h_mm_txt\" : \"Accessible\"}, {\"type\" : \"Exterieur\", \"classe_h_mot\" : \"vert\", \"classe_h_vis\" : \"rouge\", \"classe_h_aud\" : \"orange\", \"classe_h_cog\" : \"vert\", \"classe_h_mm\" : \"vert\", \"classe_h_mot_txt\" : \"Accessible\", \"classe_h_vis_txt\" : \"Non accessible, non praticable\", \"classe_h_aud_txt\" : \"Non accessible mais praticable\", \"classe_h_cog_txt\" : \"Accessible\", \"classe_h_mm_txt\" : \"Accessible\"}]"}, "bbox": [-1.59939, 48.115998, -1.59939, 48.115998]}, {"type": "Feature", "id": "site_region_accessibilite.fid--17174f5a_19f2e433d8d_-4db8", "geometry": {"type": "Point", "coordinates": [-1.691289, 47.848377]}, "geometry_name": "geom", "properties": {"code_site": "0352318E", "url_registre": "https://bzh.s3.eu-central-3.ionoscloud.com/0352318E.pdf", "url_budget": "https://bretagne.bzh", "nom": "Lycée Jean Brito", "adresse": "Le Bois Greffier", "code_postal": "35470", "ville": "BAIN DE BRETAGNE", "reseau_lib": "Education nationale", "type_etablissement": "Lycée", "erp": "2", "remarque": " </br>Ascenseur bâtiment A à mettre aux normes </br> </br>restauration poteau blanc à sécuriser </br> </br>3 marches à sécuriser au milieu de la cour </br> </br>absence de bande de guidage entre l'entrée principale des élèves et l'accueil </br> </br>", "courriel": "ce.0352318E@ac-rennes.fr", "telephone": "0299433131", "search_id": "accessibilite.0352318E", "accessibilite": "[{\"type\" : \"Accès piéton\", \"classe_h_mot\" : \"orange\", \"classe_h_vis\" : \"vert\", \"classe_h_aud\" : \"vert\", \"classe_h_cog\" : \"vert\", \"classe_h_mm\" : \"orange\", \"classe_h_mot_txt\" : \"Non accessible mais praticable\", \"classe_h_vis_txt\" : \"Accessible\", \"classe_h_aud_txt\" : \"Accessible\", \"classe_h_cog_txt\" : \"Accessible\", \"classe_h_mm_txt\" : \"Non accessible mais praticable\"}, {\"type\" : \"Accès transport\", \"classe_h_mot\" : \"orange\", \"classe_h_vis\" : \"vert\", \"classe_h_aud\" : \"vert\", \"classe_h_cog\" : \"vert\", \"classe_h_mm\" : \"vert\", \"classe_h_mot_txt\" : \"Non accessible mais praticable\", \"classe_h_vis_txt\" : \"Accessible\", \"classe_h_aud_txt\" : \"Accessible\", \"classe_h_cog_txt\" : \"Accessible\", \"classe_h_mm_txt\" : \"Accessible\"}, {\"type\" : \"Accès véhicule\", \"classe_h_mot\" : \"rouge\", \"classe_h_vis\" : \"vert\", \"classe_h_aud\" : \"vert\", \"classe_h_cog\" : \"vert\", \"classe_h_mm\" : \"rouge\", \"classe_h_mot_txt\" : \"Non accessible, non praticable\", \"classe_h_vis_txt\" : \"Accessible\", \"classe_h_aud_txt\" : \"Accessible\", \"classe_h_cog_txt\" : \"Accessible\", \"classe_h_mm_txt\" : \"Non accessible, non praticable\"}, {\"type\" : \"Exterieur\", \"classe_h_mot\" : \"rouge\", \"classe_h_vis\" : \"rouge\", \"classe_h_aud\" : \"rouge\", \"classe_h_cog\" : \"vert\", \"classe_h_mm\" : \"rouge\", \"classe_h_mot_txt\" : \"Non accessible, non praticable\", \"classe_h_vis_txt\" : \"Non accessible, non praticable\", \"classe_h_aud_txt\" : \"Non accessible, non praticable\", \"classe_h_cog_txt\" : \"Accessible\", \"classe_h_mm_txt\" : \"Non accessible, non praticable\"}]"}, "bbox": [-1.691289, 47.848377, -1.691289, 47.848377]}, {"type": "Feature", "id": "site_region_accessibilite.fid--17174f5a_19f2e433d8d_-4db7", "geometry": {"type": "Point", "coordinates": [-1.734792, 48.03325]}, "geometry_name": "geom", "properties": {"code_site": "0352686E", "url_registre": "https://bzh.s3.eu-central-3.ionoscloud.com/0352686E.pdf", "url_budget": "https://bretagne.bzh", "nom": "Lycée Anita Conti", "adresse": "Esplanade du Lycée", "code_postal": "35174", "ville": "BRUZ", "reseau_lib": "Education nationale", "type_etablissement": "Lycée", "erp": "2", "remarque": "Retirer les fermes porte des WC PMR </br>Ajouter des barres de rappel de porte pour cabines WC PMR </br>Savon dans les angles pour les wc à eloigner de plus de 40cm </br> </br>Accès self grille au sol NC et poignée de porte peu prehensible </br> </br>", "courriel": "ce.0352686E@ac-rennes.fr", "telephone": "0223501700", "search_id": "accessibilite.0352686E", "accessibilite": "[{\"type\" : \"Accès piéton\", \"classe_h_mot\" : \"orange\", \"classe_h_vis\" : \"vert\", \"classe_h_aud\" : \"vert\", \"classe_h_cog\" : \"vert\", \"classe_h_mm\" : \"orange\", \"classe_h_mot_txt\" : \"Non accessible mais praticable\", \"classe_h_vis_txt\" : \"Accessible\", \"classe_h_aud_txt\" : \"Accessible\", \"classe_h_cog_txt\" : \"Accessible\", \"classe_h_mm_txt\" : \"Non accessible mais praticable\"}, {\"type\" : \"Accès transport\", \"classe_h_mot\" : \"orange\", \"classe_h_vis\" : \"vert\", \"classe_h_aud\" : \"vert\", \"classe_h_cog\" : \"vert\", \"classe_h_mm\" : \"orange\", \"classe_h_mot_txt\" : \"Non accessible mais praticable\", \"classe_h_vis_txt\" : \"Accessible\", \"classe_h_aud_txt\" : \"Accessible\", \"classe_h_cog_txt\" : \"Accessible\", \"classe_h_mm_txt\" : \"Non accessible mais praticable\"}, {\"type\" : \"Accès véhicule\", \"classe_h_mot\" : \"orange\", \"classe_h_vis\" : \"vert\", \"classe_h_aud\" : \"vert\", \"classe_h_cog\" : \"vert\", \"classe_h_mm\" : \"orange\", \"classe_h_mot_txt\" : \"Non accessible mais praticable\", \"classe_h_vis_txt\" : \"Accessible\", \"classe_h_aud_txt\" : \"Accessible\", \"classe_h_cog_txt\" : \"Accessible\", \"classe_h_mm_txt\" : \"Non accessible mais praticable\"}, {\"type\" : \"Exterieur\", \"classe_h_mot\" : \"orange\", \"classe_h_vis\" : \"orange\", \"classe_h_aud\" : \"orange\", \"classe_h_cog\" : \"vert\", \"classe_h_mm\" : \"orange\", \"classe_h_mot_txt\" : \"Non accessible mais praticable\", \"classe_h_vis_txt\" : \"Non accessible mais praticable\", \"classe_h_aud_txt\" : \"Non accessible mais praticable\", \"classe_h_cog_txt\" : \"Accessible\", \"classe_h_mm_txt\" : \"Non accessible mais praticable\"}]"}, "bbox": [-1.734792, 48.03325, -1.734792, 48.03325]}, {"type": "Feature", "id": "site_region_accessibilite.fid--17174f5a_19f2e433d8d_-4db6", "geometry": {"type": "Point", "coordinates": [-1.507586, 48.205858]}, "geometry_name": "geom", "properties": {"code_site": "0352950S", "url_registre": "https://bzh.s3.eu-central-3.ionoscloud.com/0352950S.pdf", "url_budget": "https://bretagne.bzh", "nom": "LGT SIMONE VEIL", "adresse": "1, avenue de l'Europe", "code_postal": "35340", "ville": "LIFFRÉ", "reseau_lib": "Education nationale", "type_etablissement": "Lycée", "erp": "2", "remarque": "", "courriel": "ce.0352950S@ac-rennes.fr / dominique.bourreau@ac-rennes.fr", "telephone": "02 99 84 92 84", "search_id": "accessibilite.0352950S", "accessibilite": "[{\"type\" : null, \"classe_h_mot\" : null, \"classe_h_vis\" : null, \"classe_h_aud\" : null, \"classe_h_cog\" : null, \"classe_h_mm\" : null, \"classe_h_mot_txt\" : null, \"classe_h_vis_txt\" : null, \"classe_h_aud_txt\" : null, \"classe_h_cog_txt\" : null, \"classe_h_mm_txt\" : null}]"}, "bbox": [-1.507586, 48.205858, -1.507586, 48.205858]}, {"type": "Feature", "id": "site_region_accessibilite.fid--17174f5a_19f2e433d8d_-4db5", "geometry": {"type": "Point", "coordinates": [-1.673459, 48.112906]}, "geometry_name": "geom", "properties": {"code_site": "SIT01", "url_registre": "https://bzh.s3.eu-central-3.ionoscloud.com/SIT01.pdf", "url_budget": "https://bretagne.bzh", "nom": "BON PASTEUR / COURCY", "adresse": "5 rue Martenot", "code_postal": "35000", "ville": "Rennes", "reseau_lib": "tertiaire", "type_etablissement": "Bâtiment tertiaire", "erp": "3", "remarque": "", "courriel": null, "telephone": null, "search_id": "accessibilite.SIT01", "accessibilite": "[{\"type\" : \"Accès piéton\", \"classe_h_mot\" : \"orange\", \"classe_h_vis\" : \"vert\", \"classe_h_aud\" : \"vert\", \"classe_h_cog\" : \"vert\", \"classe_h_mm\" : \"orange\", \"classe_h_mot_txt\" : \"Non accessible mais praticable\", \"classe_h_vis_txt\" : \"Accessible\", \"classe_h_aud_txt\" : \"Accessible\", \"classe_h_cog_txt\" : \"Accessible\", \"classe_h_mm_txt\" : \"Non accessible mais praticable\"}, {\"type\" : \"Accès transport\", \"classe_h_mot\" : \"rouge\", \"classe_h_vis\" : \"vert\", \"classe_h_aud\" : \"vert\", \"classe_h_cog\" : \"vert\", \"classe_h_mm\" : \"vert\", \"classe_h_mot_txt\" : \"Non accessible, non praticable\", \"classe_h_vis_txt\" : \"Accessible\", \"classe_h_aud_txt\" : \"Accessible\", \"classe_h_cog_txt\" : \"Accessible\", \"classe_h_mm_txt\" : \"Accessible\"}, {\"type\" : \"Accès véhicule\", \"classe_h_mot\" : \"rouge\", \"classe_h_vis\" : \"vert\", \"classe_h_aud\" : \"vert\", \"classe_h_cog\" : \"vert\", \"classe_h_mm\" : \"rouge\", \"classe_h_mot_txt\" : \"Non accessible, non praticable\", \"classe_h_vis_txt\" : \"Accessible\", \"classe_h_aud_txt\" : \"Accessible\", \"classe_h_cog_txt\" : \"Accessible\", \"classe_h_mm_txt\" : \"Non accessible, non praticable\"}, {\"type\" : \"Salle des Assemblées\", \"classe_h_mot\" : \"rouge\", \"classe_h_vis\" : \"rouge\", \"classe_h_aud\" : \"rouge\", \"classe_h_cog\" : \"orange\", \"classe_h_mm\" : \"rouge\", \"classe_h_mot_txt\" : \"Non accessible, non praticable\", \"classe_h_vis_txt\" : \"Non accessible, non praticable\", \"classe_h_aud_txt\" : \"Non accessible, non praticable\", \"classe_h_cog_txt\" : \"Non accessible mais praticable\", \"classe_h_mm_txt\" : \"Non accessible, non praticable\"}]"}, "bbox": [-1.673459, 48.112906, -1.673459, 48.112906]}, {"type": "Feature", "id": "site_region_accessibilite.fid--17174f5a_19f2e433d8d_-4db4", "geometry": {"type": "Point", "coordinates": [-1.661878, 48.135278]}, "geometry_name": "geom", "properties": {"code_site": "SIT05", "url_registre": "https://bzh.s3.eu-central-3.ionoscloud.com/SIT05.pdf", "url_budget": "https://bretagne.bzh", "nom": "PATTON", "adresse": "283 avenue du Général Patton", "code_postal": "35000", "ville": "Rennes", "reseau_lib": "tertiaire", "type_etablissement": "Bâtiment tertiaire", "erp": "3", "remarque": "", "courriel": null, "telephone": null, "search_id": "accessibilite.SIT05", "accessibilite": "[{\"type\" : \"Accès piéton\", \"classe_h_mot\" : \"vert\", \"classe_h_vis\" : \"vert\", \"classe_h_aud\" : \"vert\", \"classe_h_cog\" : \"vert\", \"classe_h_mm\" : \"vert\", \"classe_h_mot_txt\" : \"Accessible\", \"classe_h_vis_txt\" : \"Accessible\", \"classe_h_aud_txt\" : \"Accessible\", \"classe_h_cog_txt\" : \"Accessible\", \"classe_h_mm_txt\" : \"Accessible\"}, {\"type\" : \"Accès transport\", \"classe_h_mot\" : \"orange\", \"classe_h_vis\" : \"orange\", \"classe_h_aud\" : \"vert\", \"classe_h_cog\" : \"vert\", \"classe_h_mm\" : \"orange\", \"classe_h_mot_txt\" : \"Non accessible mais praticable\", \"classe_h_vis_txt\" : \"Non accessible mais praticable\", \"classe_h_aud_txt\" : \"Accessible\", \"classe_h_cog_txt\" : \"Accessible\", \"classe_h_mm_txt\" : \"Non accessible mais praticable\"}, {\"type\" : \"Accès véhicule\", \"classe_h_mot\" : \"orange\", \"classe_h_vis\" : \"vert\", \"classe_h_aud\" : \"vert\", \"classe_h_cog\" : \"vert\", \"classe_h_mm\" : \"orange\", \"classe_h_mot_txt\" : \"Non accessible mais praticable\", \"classe_h_vis_txt\" : \"Accessible\", \"classe_h_aud_txt\" : \"Accessible\", \"classe_h_cog_txt\" : \"Accessible\", \"classe_h_mm_txt\" : \"Non accessible mais praticable\"}, {\"type\" : \"PATTON - Salle Anne de Bretagne\", \"classe_h_mot\" : \"vert\", \"classe_h_vis\" : \"vert\", \"classe_h_aud\" : \"vert\", \"classe_h_cog\" : \"vert\", \"classe_h_mm\" : \"vert\", \"classe_h_mot_txt\" : \"Accessible\", \"classe_h_vis_txt\" : \"Accessible\", \"classe_h_aud_txt\" : \"Accessible\", \"classe_h_cog_txt\" : \"Accessible\", \"classe_h_mm_txt\" : \"Accessible\"}]"}, "bbox": [-1.661878, 48.135278, -1.661878, 48.135278]}, {"type": "Feature", "id": "site_region_accessibilite.fid--17174f5a_19f2e433d8d_-4db3", "geometry": {"type": "Point", "coordinates": [-1.695685, 48.131106]}, "geometry_name": "geom", "properties": {"code_site": "SIT48", "url_registre": "https://bzh.s3.eu-central-3.ionoscloud.com/SIT48.pdf", "url_budget": "https://bretagne.bzh", "nom": "FRAC BRETAGNE", "adresse": "19 avenue André Mussat", "code_postal": "35000", "ville": "Rennes", "reseau_lib": "tertiaire", "type_etablissement": "Bâtiment tertiaire", "erp": "3", "remarque": "", "courriel": null, "telephone": null, "search_id": "accessibilite.SIT48", "accessibilite": "[{\"type\" : \"Accès piéton\", \"classe_h_mot\" : \"vert\", \"classe_h_vis\" : \"vert\", \"classe_h_aud\" : \"vert\", \"classe_h_cog\" : \"vert\", \"classe_h_mm\" : \"vert\", \"classe_h_mot_txt\" : \"Accessible\", \"classe_h_vis_txt\" : \"Accessible\", \"classe_h_aud_txt\" : \"Accessible\", \"classe_h_cog_txt\" : \"Accessible\", \"classe_h_mm_txt\" : \"Accessible\"}, {\"type\" : \"Accès transport\", \"classe_h_mot\" : \"vert\", \"classe_h_vis\" : \"vert\", \"classe_h_aud\" : \"vert\", \"classe_h_cog\" : \"vert\", \"classe_h_mm\" : \"vert\", \"classe_h_mot_txt\" : \"Accessible\", \"classe_h_vis_txt\" : \"Accessible\", \"classe_h_aud_txt\" : \"Accessible\", \"classe_h_cog_txt\" : \"Accessible\", \"classe_h_mm_txt\" : \"Accessible\"}, {\"type\" : \"Accès véhicule\", \"classe_h_mot\" : \"orange\", \"classe_h_vis\" : \"vert\", \"classe_h_aud\" : \"vert\", \"classe_h_cog\" : \"vert\", \"classe_h_mm\" : \"orange\", \"classe_h_mot_txt\" : \"Non accessible mais praticable\", \"classe_h_vis_txt\" : \"Accessible\", \"classe_h_aud_txt\" : \"Accessible\", \"classe_h_cog_txt\" : \"Accessible\", \"classe_h_mm_txt\" : \"Non accessible mais praticable\"}]"}, "bbox": [-1.695685, 48.131106, -1.695685, 48.131106]}, {"type": "Feature", "id": "site_region_accessibilite.fid--17174f5a_19f2e433d8d_-4db2", "geometry": {"type": "Point", "coordinates": [-1.662751, 48.098761]}, "geometry_name": "geom", "properties": {"code_site": "SIT61", "url_registre": "https://bzh.s3.eu-central-3.ionoscloud.com/SIT61.pdf", "url_budget": "https://bretagne.bzh", "nom": "Atalante", "adresse": "1c-1d Avenue Bellefontaine", "code_postal": "35000", "ville": "Rennes", "reseau_lib": null, "type_etablissement": null, "erp": null, "remarque": "", "courriel": null, "telephone": null, "search_id": "accessibilite.SIT61", "accessibilite": "[{\"type\" : \"Accès piéton\", \"classe_h_mot\" : \"vert\", \"classe_h_vis\" : \"orange\", \"classe_h_aud\" : \"vert\", \"classe_h_cog\" : \"vert\", \"classe_h_mm\" : \"vert\", \"classe_h_mot_txt\" : \"Accessible\", \"classe_h_vis_txt\" : \"Non accessible mais praticable\", \"classe_h_aud_txt\" : \"Accessible\", \"classe_h_cog_txt\" : \"Accessible\", \"classe_h_mm_txt\" : \"Accessible\"}, {\"type\" : \"Accès transport\", \"classe_h_mot\" : \"vert\", \"classe_h_vis\" : \"orange\", \"classe_h_aud\" : \"vert\", \"classe_h_cog\" : \"vert\", \"classe_h_mm\" : \"vert\", \"classe_h_mot_txt\" : \"Accessible\", \"classe_h_vis_txt\" : \"Non accessible mais praticable\", \"classe_h_aud_txt\" : \"Accessible\", \"classe_h_cog_txt\" : \"Accessible\", \"classe_h_mm_txt\" : \"Accessible\"}, {\"type\" : \"Accès véhicule\", \"classe_h_mot\" : \"orange\", \"classe_h_vis\" : \"vert\", \"classe_h_aud\" : \"vert\", \"classe_h_cog\" : \"vert\", \"classe_h_mm\" : \"orange\", \"classe_h_mot_txt\" : \"Non accessible mais praticable\", \"classe_h_vis_txt\" : \"Accessible\", \"classe_h_aud_txt\" : \"Accessible\", \"classe_h_cog_txt\" : \"Accessible\", \"classe_h_mm_txt\" : \"Non accessible mais praticable\"}]"}, "bbox": [-1.662751, 48.098761, -1.662751, 48.098761]}], "totalFeatures": 25, "numberMatched": 25, "numberReturned": 25, "timeStamp": "2026-07-04T17:56:55.176Z", "crs": {"type": "name", "properties": {"name": "urn:ogc:def:crs:EPSG::4326"}}, "bbox": [-1.96287, 47.848377, -1.426466, 48.332316]}