{"type": "FeatureCollection", "features": [{"type": "Feature", "id": "site-rbf.fid-15bb5cc_19f2d780169_40bb", "geometry": {"type": "Point", "coordinates": [-1.6092174, 47.99853286]}, "geometry_name": "geom", "properties": {"id": "3503203", "nom": "BOURGBARRE III", "types": "RBF", "etat": "Bon etat", "url": "https://geodesie.ign.fr/fiches/index.php?module=e&action=fichepdf&source=gp&sit_no=3503203&geo_cid=0&lambda=-1.6092174&phi=47.99853286"}}, {"type": "Feature", "id": "site-rbf.fid-15bb5cc_19f2d780169_40bc", "geometry": {"type": "Point", "coordinates": [-1.89536394, 48.22279461]}, "geometry_name": "geom", "properties": {"id": "3524501", "nom": "ROMILLE I", "types": "RBF", "etat": "Bon etat", "url": "https://geodesie.ign.fr/fiches/index.php?module=e&action=fichepdf&source=gp&sit_no=3524501&geo_cid=0&lambda=-1.89536394&phi=48.22279461"}}, {"type": "Feature", "id": "site-rbf.fid-15bb5cc_19f2d780169_40bd", "geometry": {"type": "Point", "coordinates": [-1.59961766, 48.0472662]}, "geometry_name": "geom", "properties": {"id": "3535201", "nom": "VERN-SUR-SEICHE I", "types": "RBF", "etat": "Bon etat", "url": "https://geodesie.ign.fr/fiches/index.php?module=e&action=fichepdf&source=gp&sit_no=3535201&geo_cid=0&lambda=-1.59961766&phi=48.0472662"}}, {"type": "Feature", "id": "site-rbf.fid-15bb5cc_19f2d780169_40be", "geometry": {"type": "Point", "coordinates": [-1.85408229, 48.00784838]}, "geometry_name": "geom", "properties": {"id": "3512301", "nom": "GOVEN I", "types": "RBF", "etat": "Bon etat", "url": "https://geodesie.ign.fr/fiches/index.php?module=e&action=fichepdf&source=gp&sit_no=3512301&geo_cid=0&lambda=-1.85408229&phi=48.00784838"}}, {"type": "Feature", "id": "site-rbf.fid-15bb5cc_19f2d780169_40bf", "geometry": {"type": "Point", "coordinates": [-1.3780526, 48.16389765]}, "geometry_name": "geom", "properties": {"id": "3503101", "nom": "LA BOUEXIERE I", "types": "RBF", "etat": "Bon etat", "url": "https://geodesie.ign.fr/fiches/index.php?module=e&action=fichepdf&source=gp&sit_no=3503101&geo_cid=0&lambda=-1.3780526&phi=48.16389765"}}, {"type": "Feature", "id": "site-rbf.fid-15bb5cc_19f2d780169_40c0", "geometry": {"type": "Point", "coordinates": [-1.66293295, 47.82039022]}, "geometry_name": "geom", "properties": {"id": "3501201", "nom": "BAIN-DE-BRETAGNE I", "types": "RBF", "etat": "Bon etat", "url": "https://geodesie.ign.fr/fiches/index.php?module=e&action=fichepdf&source=gp&sit_no=3501201&geo_cid=0&lambda=-1.66293295&phi=47.82039022"}}, {"type": "Feature", "id": "site-rbf.fid-15bb5cc_19f2d780169_40c1", "geometry": {"type": "Point", "coordinates": [-1.69713816, 48.22100208]}, "geometry_name": "geom", "properties": {"id": "3517304", "nom": "MELESSE IV", "types": "RBF", "etat": "Bon etat", "url": "https://geodesie.ign.fr/fiches/index.php?module=e&action=fichepdf&source=gp&sit_no=3517304&geo_cid=0&lambda=-1.69713816&phi=48.22100208"}}, {"type": "Feature", "id": "site-rbf.fid-15bb5cc_19f2d780169_40c2", "geometry": {"type": "Point", "coordinates": [-1.65691284, 48.25185249]}, "geometry_name": "geom", "properties": {"id": "35274A", "nom": "SAINT-GERMAIN-SUR-ILLE A", "types": "RBF", "etat": "Bon etat", "url": "https://geodesie.ign.fr/fiches/index.php?module=e&action=fichepdf&source=gp&sit_no=35274A&geo_cid=0&lambda=-1.65691284&phi=48.25185249"}}, {"type": "Feature", "id": "site-rbf.fid-15bb5cc_19f2d780169_40c3", "geometry": {"type": "Point", "coordinates": [-1.36913162, 48.19684147]}, "geometry_name": "geom", "properties": {"id": "3510102", "nom": "DOURDAIN II", "types": "RBF", "etat": "Bon etat", "url": "https://geodesie.ign.fr/fiches/index.php?module=e&action=fichepdf&source=gp&sit_no=3510102&geo_cid=0&lambda=-1.36913162&phi=48.19684147"}}, {"type": "Feature", "id": "site-rbf.fid-15bb5cc_19f2d780169_40c4", "geometry": {"type": "Point", "coordinates": [-1.9313543, 48.02974936]}, "geometry_name": "geom", "properties": {"id": "3531902", "nom": "SAINT-THURIAL II", "types": "RBF", "etat": "Bon etat", "url": "https://geodesie.ign.fr/fiches/index.php?module=e&action=fichepdf&source=gp&sit_no=3531902&geo_cid=0&lambda=-1.9313543&phi=48.02974936"}}, {"type": "Feature", "id": "site-rbf.fid-15bb5cc_19f2d780169_40c5", "geometry": {"type": "Point", "coordinates": [-1.74061631, 47.80500563]}, "geometry_name": "geom", "properties": {"id": "3520203", "nom": "LA NOE-BLANCHE III", "types": "RBF", "etat": "Bon etat", "url": "https://geodesie.ign.fr/fiches/index.php?module=e&action=fichepdf&source=gp&sit_no=3520203&geo_cid=0&lambda=-1.74061631&phi=47.80500563"}}], "totalFeatures": 11, "numberMatched": 11, "numberReturned": 11, "timeStamp": "2026-07-04T17:56:32.926Z", "crs": {"type": "name", "properties": {"name": "urn:ogc:def:crs:EPSG::4326"}}}