{"type": "FeatureCollection", "features": [{"type": "Feature", "id": "chef_lieu_d_arrondissement.30", "geometry": {"type": "Point", "coordinates": [-1.67437023, 48.13078217]}, "geometry_name": "geometrie", "properties": {"cleabs": "CHFL_ARD0000000000000353", "nom_officiel": "Rennes", "nom_officiel_en_majuscules": "RENNES", "nom_du_chef_lieu": "Rennes", "nom_du_chef_lieu_en_majuscules": "RENNES", "lien_vers_l_arrondissement": "ARR_DEP_0000000000000353", "code_insee_de_l_arrondissement": "353", "numero_de_l_arrondissement": "3", "code_insee_de_la_commune_siege": "35238"}}], "totalFeatures": 1, "numberMatched": 1, "numberReturned": 1, "timeStamp": "2026-07-04T17:54:20.729Z", "crs": {"type": "name", "properties": {"name": "urn:ogc:def:crs:EPSG::4326"}}}