{"type": "FeatureCollection", "features": [{"type": "Feature", "id": "N2000_Action.16", "geometry": {"type": "MultiPolygon", "coordinates": [[[[-1.6391, 48.3391], [-1.6382, 48.34], [-1.6382, 48.34], [-1.6378, 48.3417], [-1.637, 48.3417], [-1.637, 48.3417], [-1.6369, 48.3403], [-1.6369, 48.3402], [-1.6369, 48.3394], [-1.6379, 48.3394], [-1.638, 48.3394], [-1.6386, 48.3392], [-1.639, 48.3391], [-1.639, 48.3391], [-1.6391, 48.3391]]]]}, "geometry_name": "the_geom", "properties": {"ID_C": "RBRE070620DT0350027", "NumAction": "0001", "ID_A": "RBRE070620DT0350027_0001", "CodeAction": "N01Pi", "TxtAction": "Chantier lourd de restauration de milieux ouverts par débroussaillage", "Quantite": 0.4, "Unite": "ha", "NbInterv": 1, "MontantAct": 7464, "MontantCon": 5060, "CodeHab1": "6410", "TxtHab1": "Prairies à Molinia sur sols calcaires, tourbeux ou argilo-limoneux (Molinion caeruleae)", "CodeHab2": "", "TxtHab2": "", "CodeHab3": "", "TxtHab3": "", "CommentHab": "", "CodeEsp1": "1308", "TxtEsp1": "Barbastelle (Barbastella barbastellus)", "CodeEsp2": "1324", "TxtEsp2": "Grand Murin (Myotis myotis)", "CodeEsp3": "", "TxtEsp3": "", "CommentEsp": "", "Comment": ""}}, {"type": "Feature", "id": "N2000_Action.17", "geometry": {"type": "MultiPolygon", "coordinates": [[[[-1.6391, 48.3391], [-1.6382, 48.34], [-1.6382, 48.34], [-1.6378, 48.3417], [-1.637, 48.3417], [-1.637, 48.3417], [-1.6369, 48.3403], [-1.6369, 48.3402], [-1.6369, 48.3394], [-1.6379, 48.3394], [-1.638, 48.3394], [-1.6386, 48.3392], [-1.639, 48.3391], [-1.639, 48.3391], [-1.6391, 48.3391]]]]}, "geometry_name": "the_geom", "properties": {"ID_C": "RBRE070620DT0350027", "NumAction": "0002", "ID_A": "RBRE070620DT0350027_0002", "CodeAction": "N04R", "TxtAction": "Gestion par une fauche d’entretien des milieux ouverts", "Quantite": 0.4, "Unite": "ha", "NbInterv": 1, "MontantAct": 3000, "MontantCon": 32640, "CodeHab1": "6410", "TxtHab1": "Prairies à Molinia sur sols calcaires, tourbeux ou argilo-limoneux (Molinion caeruleae)", "CodeHab2": "", "TxtHab2": "", "CodeHab3": "", "TxtHab3": "", "CommentHab": "", "CodeEsp1": "1308", "TxtEsp1": "Barbastelle (Barbastella barbastellus)", "CodeEsp2": "1324", "TxtEsp2": "Grand Murin (Myotis myotis)", "CodeEsp3": "", "TxtEsp3": "", "CommentEsp": "", "Comment": ""}}, {"type": "Feature", "id": "N2000_Action.32", "geometry": {"type": "MultiPolygon", "coordinates": [[[[-1.5349, 48.1695], [-1.5357, 48.1701], [-1.5344, 48.1703], [-1.5338, 48.1704], [-1.5337, 48.1704], [-1.5337, 48.1704], [-1.5336, 48.1704], [-1.5335, 48.1703], [-1.5334, 48.1702], [-1.5332, 48.1699], [-1.5341, 48.1697], [-1.5348, 48.1695], [-1.5349, 48.1695]]], [[[-1.5467, 48.1691], [-1.5472, 48.1688], [-1.5487, 48.1698], [-1.5487, 48.1698], [-1.5486, 48.1699], [-1.5485, 48.1699], [-1.5485, 48.1699], [-1.5484, 48.1699], [-1.5484, 48.17], [-1.5484, 48.17], [-1.5483, 48.17], [-1.5483, 48.1701], [-1.5483, 48.1701], [-1.5483, 48.1701], [-1.5483, 48.1702], [-1.5483, 48.1702], [-1.5484, 48.1702], [-1.5485, 48.1702], [-1.5485, 48.1702], [-1.5487, 48.1702], [-1.5488, 48.1702], [-1.5489, 48.1702], [-1.549, 48.1702], [-1.5491, 48.1702], [-1.5491, 48.1702], [-1.5493, 48.1703], [-1.5497, 48.1706], [-1.5499, 48.1707], [-1.5499, 48.1709], [-1.55, 48.1711], [-1.5501, 48.1712], [-1.5502, 48.1712], [-1.5503, 48.1713], [-1.5503, 48.1716], [-1.5503, 48.1716], [-1.5503, 48.1717], [-1.5503, 48.1717], [-1.5502, 48.1718], [-1.5502, 48.1718], [-1.5502, 48.1718], [-1.5501, 48.1719], [-1.5499, 48.172], [-1.5498, 48.172], [-1.5497, 48.1721], [-1.5495, 48.1721], [-1.5494, 48.1721], [-1.5493, 48.1721], [-1.5491, 48.1721], [-1.5489, 48.1721], [-1.5488, 48.1721], [-1.5485, 48.172], [-1.5483, 48.1719], [-1.5481, 48.1719], [-1.5479, 48.1718], [-1.5479, 48.1718], [-1.5477, 48.1718], [-1.5475, 48.1718], [-1.5472, 48.1718], [-1.547, 48.1718], [-1.5469, 48.1718], [-1.5465, 48.1719], [-1.5466, 48.1702], [-1.5466, 48.1701], [-1.5467, 48.1701], [-1.5469, 48.1702], [-1.5471, 48.1702], [-1.5471, 48.1702], [-1.5471, 48.1703], [-1.5471, 48.1703], [-1.5471, 48.1703], [-1.5471, 48.1703], [-1.5471, 48.1702], [-1.5471, 48.1702], [-1.5469, 48.1702], [-1.5468, 48.1701], [-1.5466, 48.1701], [-1.5466, 48.1701], [-1.5466, 48.1693], [-1.5467, 48.1693], [-1.5467, 48.1693], [-1.5467, 48.1692], [-1.5467, 48.1692], [-1.5468, 48.1692], [-1.5468, 48.1691], [-1.5467, 48.1691]]], [[[-1.5266, 48.1775], [-1.5287, 48.179], [-1.5288, 48.1791], [-1.5296, 48.1796], [-1.527, 48.1813], [-1.5258, 48.182], [-1.5255, 48.1818], [-1.525, 48.1817], [-1.5248, 48.1818], [-1.5246, 48.1818], [-1.5244, 48.1818], [-1.5243, 48.1819], [-1.5242, 48.1819], [-1.524, 48.1821], [-1.524, 48.1822], [-1.5239, 48.1823], [-1.5239, 48.1823], [-1.5238, 48.1825], [-1.5238, 48.1826], [-1.5238, 48.1826], [-1.5239, 48.1828], [-1.524, 48.1829], [-1.524, 48.1829], [-1.524, 48.1831], [-1.5227, 48.1839], [-1.5226, 48.1838], [-1.5226, 48.1838], [-1.5226, 48.1837], [-1.5226, 48.1836], [-1.5226, 48.1835], [-1.5223, 48.1833], [-1.5222, 48.1833], [-1.5222, 48.1832], [-1.5222, 48.1832], [-1.5221, 48.1831], [-1.5221, 48.183], [-1.5221, 48.1829], [-1.5221, 48.1829], [-1.5222, 48.1828], [-1.5222, 48.1827], [-1.5222, 48.1826], [-1.5222, 48.1825], [-1.5222, 48.1824], [-1.5222, 48.1823], [-1.5221, 48.1821], [-1.5221, 48.1821], [-1.522, 48.182], [-1.5219, 48.1819], [-1.5218, 48.1817], [-1.5218, 48.1817], [-1.5218, 48.1816], [-1.5218, 48.1815], [-1.5218, 48.1814], [-1.5218, 48.1812], [-1.5219, 48.1812], [-1.5222, 48.1809], [-1.5223, 48.1807], [-1.5223, 48.1806], [-1.5224, 48.1806], [-1.5224, 48.1805], [-1.5224, 48.1804], [-1.5225, 48.1803], [-1.5226, 48.1802], [-1.5226, 48.1802], [-1.5226, 48.1802], [-1.5227, 48.1802], [-1.5228, 48.1802], [-1.5229, 48.1802], [-1.5231, 48.1802], [-1.5233, 48.1803], [-1.5235, 48.1803], [-1.5224, 48.1795], [-1.5228, 48.1792], [-1.5229, 48.1791], [-1.5229, 48.1791], [-1.5229, 48.179], [-1.523, 48.1787], [-1.523, 48.1781], [-1.523, 48.1779], [-1.523, 48.1778], [-1.5231, 48.1778], [-1.5231, 48.1778], [-1.5233, 48.178], [-1.5236, 48.1781], [-1.5239, 48.1783], [-1.5242, 48.1784], [-1.5251, 48.178], [-1.5254, 48.1778], [-1.5255, 48.1776], [-1.5257, 48.1775], [-1.5259, 48.1772], [-1.526, 48.1771], [-1.5266, 48.1775]]], [[[-1.5382, 48.1743], [-1.538, 48.1743], [-1.5379, 48.1742], [-1.5375, 48.174], [-1.5374, 48.174], [-1.5371, 48.1739], [-1.537, 48.1739], [-1.5365, 48.1738], [-1.5359, 48.1734], [-1.5352, 48.1728], [-1.5335, 48.1716], [-1.5342, 48.1714], [-1.5346, 48.1713], [-1.5346, 48.1713], [-1.5346, 48.1713], [-1.5347, 48.1713], [-1.5353, 48.1713], [-1.5355, 48.1713], [-1.5356, 48.1713], [-1.5362, 48.1712], [-1.5364, 48.1711], [-1.5365, 48.1711], [-1.5366, 48.1711], [-1.5369, 48.1712], [-1.5371, 48.1711], [-1.5399, 48.1732], [-1.5382, 48.1743], [-1.5382, 48.1743]]], [[[-1.6012, 48.1842], [-1.6009, 48.1841], [-1.598, 48.1831], [-1.5984, 48.1827], [-1.5987, 48.1826], [-1.5988, 48.1826], [-1.5988, 48.1826], [-1.599, 48.1825], [-1.5991, 48.1825], [-1.5994, 48.1825], [-1.5996, 48.1825], [-1.6004, 48.1823], [-1.6005, 48.1823], [-1.6006, 48.1823], [-1.6008, 48.1822], [-1.6015, 48.1818], [-1.6017, 48.1817], [-1.6018, 48.1817], [-1.602, 48.1817], [-1.6022, 48.1817], [-1.6029, 48.1817], [-1.603, 48.1817], [-1.603, 48.1817], [-1.6031, 48.1818], [-1.6031, 48.1819], [-1.6033, 48.1821], [-1.6034, 48.1822], [-1.6035, 48.1822], [-1.6036, 48.1823], [-1.6038, 48.1825], [-1.6039, 48.1826], [-1.604, 48.1827], [-1.6041, 48.1827], [-1.6042, 48.1829], [-1.6043, 48.1829], [-1.6043, 48.1829], [-1.6043, 48.1829], [-1.6044, 48.183], [-1.6044, 48.183], [-1.6045, 48.1831], [-1.6045, 48.1831], [-1.6045, 48.1832], [-1.6046, 48.1832], [-1.6046, 48.1833], [-1.6046, 48.1833], [-1.6046, 48.1834], [-1.6046, 48.1835], [-1.6047, 48.1836], [-1.6048, 48.1838], [-1.6048, 48.1838], [-1.6048, 48.1839], [-1.6048, 48.184], [-1.6048, 48.1842], [-1.6048, 48.1842], [-1.6049, 48.1843], [-1.6049, 48.1843], [-1.6048, 48.1844], [-1.6049, 48.1845], [-1.6049, 48.1846], [-1.6049, 48.1846], [-1.6049, 48.1847], [-1.6047, 48.1849], [-1.6046, 48.1851], [-1.6045, 48.1852], [-1.6045, 48.1852], [-1.6024, 48.1845], [-1.6012, 48.1842]]], [[[-1.6119, 48.1829], [-1.6128, 48.1836], [-1.6125, 48.1837], [-1.6121, 48.184], [-1.6118, 48.1838], [-1.6113, 48.1838], [-1.6113, 48.1838], [-1.6113, 48.1837], [-1.6113, 48.1837], [-1.6114, 48.1835], [-1.6119, 48.1829]]], [[[-1.5286, 48.1862], [-1.5287, 48.1863], [-1.5288, 48.1864], [-1.5289, 48.1864], [-1.5292, 48.1866], [-1.5293, 48.1866], [-1.5298, 48.1868], [-1.5299, 48.1869], [-1.53, 48.187], [-1.5303, 48.1873], [-1.5303, 48.1873], [-1.5304, 48.1874], [-1.5304, 48.1874], [-1.5306, 48.1874], [-1.531, 48.1875], [-1.5314, 48.1876], [-1.5318, 48.1877], [-1.532, 48.1878], [-1.5321, 48.1878], [-1.5322, 48.1879], [-1.5323, 48.1879], [-1.5324, 48.188], [-1.5324, 48.188], [-1.5325, 48.1881], [-1.5325, 48.1881], [-1.5325, 48.1884], [-1.5325, 48.1886], [-1.5325, 48.1887], [-1.5324, 48.1887], [-1.5324, 48.1888], [-1.5323, 48.1888], [-1.5323, 48.1888], [-1.5322, 48.1887], [-1.5321, 48.1886], [-1.532, 48.1886], [-1.532, 48.1886], [-1.532, 48.1886], [-1.5319, 48.1886], [-1.5318, 48.1886], [-1.5318, 48.1886], [-1.5317, 48.1887], [-1.5316, 48.1888], [-1.5316, 48.1888], [-1.5315, 48.1888], [-1.5313, 48.1887], [-1.531, 48.1886], [-1.5305, 48.1884], [-1.5297, 48.1882], [-1.529, 48.188], [-1.5284, 48.1878], [-1.5279, 48.1879], [-1.527, 48.1882], [-1.5268, 48.1882], [-1.5264, 48.1883], [-1.526, 48.1884], [-1.5257, 48.1885], [-1.5256, 48.1885], [-1.5254, 48.1888], [-1.5254, 48.1888], [-1.5251, 48.1893], [-1.5247, 48.1892], [-1.5243, 48.1891], [-1.524, 48.1891], [-1.524, 48.1891], [-1.524, 48.1891], [-1.524, 48.189], [-1.524, 48.189], [-1.5286, 48.1862]]], [[[-1.5778, 48.1949], [-1.5792, 48.1952], [-1.5792, 48.1952], [-1.5792, 48.1953], [-1.5792, 48.1953], [-1.5791, 48.1954], [-1.5791, 48.1954], [-1.5791, 48.1955], [-1.579, 48.1956], [-1.5787, 48.1957], [-1.5779, 48.1963], [-1.5777, 48.1965], [-1.5775, 48.1966], [-1.5772, 48.1968], [-1.5769, 48.1971], [-1.5767, 48.1973], [-1.5759, 48.1981], [-1.5756, 48.1979], [-1.5752, 48.1977], [-1.5751, 48.1973], [-1.5749, 48.1968], [-1.5747, 48.1966], [-1.5748, 48.1958], [-1.5748, 48.1955], [-1.5776, 48.1959], [-1.5776, 48.1953], [-1.5776, 48.1952], [-1.5777, 48.195], [-1.5778, 48.1949]]], [[[-1.5744, 48.1855], [-1.5764, 48.184], [-1.5764, 48.1841], [-1.5764, 48.1842], [-1.5764, 48.1844], [-1.5765, 48.1845], [-1.5766, 48.1846], [-1.5767, 48.1848], [-1.5767, 48.1848], [-1.5768, 48.1851], [-1.5768, 48.1852], [-1.5767, 48.1853], [-1.5767, 48.1853], [-1.5765, 48.1856], [-1.5765, 48.1856], [-1.5764, 48.1857], [-1.5764, 48.1858], [-1.5764, 48.1859], [-1.5764, 48.1859], [-1.5766, 48.1861], [-1.5767, 48.1863], [-1.5767, 48.1864], [-1.5767, 48.1864], [-1.5767, 48.1865], [-1.5766, 48.1865], [-1.5766, 48.1865], [-1.5765, 48.1865], [-1.5763, 48.1865], [-1.5758, 48.1861], [-1.5756, 48.186], [-1.5749, 48.1858], [-1.5748, 48.1857], [-1.5746, 48.1856], [-1.5744, 48.1855]]], [[[-1.6045, 48.1852], [-1.6046, 48.1851], [-1.6048, 48.1849], [-1.6049, 48.1847], [-1.6049, 48.1846], [-1.6049, 48.1845], [-1.6049, 48.1844], [-1.6049, 48.1843], [-1.6049, 48.1843], [-1.6048, 48.1842], [-1.6048, 48.1842], [-1.6048, 48.1841], [-1.6049, 48.184], [-1.6048, 48.1839], [-1.6048, 48.1839], [-1.6048, 48.1838], [-1.6051, 48.1837], [-1.6053, 48.1837], [-1.6056, 48.1835], [-1.6059, 48.1833], [-1.606, 48.1832], [-1.6063, 48.1831], [-1.6063, 48.1831], [-1.6064, 48.1831], [-1.6064, 48.1831], [-1.6065, 48.1833], [-1.6066, 48.1834], [-1.6052, 48.1854], [-1.6045, 48.1852]]], [[[-1.5565, 48.2084], [-1.5574, 48.2076], [-1.56, 48.209], [-1.5591, 48.2092], [-1.5583, 48.2094], [-1.558, 48.2095], [-1.5573, 48.2097], [-1.5573, 48.2096], [-1.557, 48.2089], [-1.5569, 48.2088], [-1.5569, 48.2087], [-1.5568, 48.2086], [-1.5568, 48.2086], [-1.5565, 48.2084]]], [[[-1.5322, 48.2207], [-1.5322, 48.2195], [-1.5322, 48.2183], [-1.5322, 48.2178], [-1.5323, 48.2178], [-1.5342, 48.2189], [-1.5343, 48.219], [-1.5344, 48.219], [-1.5348, 48.2193], [-1.5352, 48.2195], [-1.5359, 48.2199], [-1.5382, 48.2213], [-1.5382, 48.2213], [-1.5382, 48.2213], [-1.5382, 48.2214], [-1.5382, 48.2214], [-1.5382, 48.2214], [-1.5382, 48.2214], [-1.5383, 48.2215], [-1.5383, 48.2215], [-1.5384, 48.2215], [-1.5386, 48.2234], [-1.5386, 48.2234], [-1.5374, 48.2235], [-1.5355, 48.2237], [-1.5335, 48.2238], [-1.5321, 48.2239], [-1.5322, 48.2214], [-1.5322, 48.2207]]], [[[-1.5582, 48.2115], [-1.5574, 48.2097], [-1.5573, 48.2097], [-1.5578, 48.2096], [-1.56, 48.209], [-1.5601, 48.2091], [-1.56, 48.2091], [-1.5601, 48.2091], [-1.5601, 48.2092], [-1.5602, 48.2092], [-1.5604, 48.2091], [-1.5605, 48.2091], [-1.5608, 48.2091], [-1.5609, 48.2091], [-1.561, 48.2091], [-1.5611, 48.2091], [-1.5612, 48.2092], [-1.5615, 48.2093], [-1.5618, 48.2094], [-1.5618, 48.2095], [-1.562, 48.2096], [-1.562, 48.2096], [-1.5621, 48.2098], [-1.5622, 48.2098], [-1.5622, 48.2099], [-1.5624, 48.21], [-1.5626, 48.2103], [-1.5626, 48.2103], [-1.5627, 48.2105], [-1.5626, 48.2105], [-1.5622, 48.2107], [-1.5619, 48.2108], [-1.5616, 48.2109], [-1.5613, 48.2111], [-1.5611, 48.2112], [-1.5611, 48.2112], [-1.5609, 48.2113], [-1.5607, 48.2113], [-1.5606, 48.2114], [-1.5605, 48.2115], [-1.5605, 48.2115], [-1.5603, 48.2115], [-1.56, 48.2117], [-1.5599, 48.2118], [-1.5598, 48.2119], [-1.5597, 48.2119], [-1.5596, 48.212], [-1.5596, 48.212], [-1.5595, 48.212], [-1.5595, 48.212], [-1.5594, 48.212], [-1.5594, 48.212], [-1.5593, 48.212], [-1.5593, 48.212], [-1.5593, 48.212], [-1.5592, 48.212], [-1.5592, 48.212], [-1.5591, 48.212], [-1.5588, 48.2118], [-1.5584, 48.2116], [-1.5583, 48.2116], [-1.5582, 48.2116], [-1.5582, 48.2115]]], [[[-1.5556, 48.2107], [-1.5562, 48.21], [-1.5565, 48.2099], [-1.5573, 48.2097], [-1.5573, 48.2097], [-1.5574, 48.2099], [-1.558, 48.2113], [-1.5581, 48.2115], [-1.5581, 48.2115], [-1.5581, 48.2115], [-1.5581, 48.2115], [-1.558, 48.2115], [-1.5579, 48.2115], [-1.5579, 48.2115], [-1.5578, 48.2115], [-1.5578, 48.2115], [-1.5578, 48.2115], [-1.5577, 48.2116], [-1.5577, 48.2116], [-1.5576, 48.2117], [-1.5576, 48.2118], [-1.5575, 48.2118], [-1.5575, 48.2118], [-1.5575, 48.2116], [-1.5575, 48.2116], [-1.5568, 48.2111], [-1.5567, 48.211], [-1.5566, 48.211], [-1.5565, 48.2109], [-1.5565, 48.2109], [-1.5564, 48.2109], [-1.5563, 48.2109], [-1.5563, 48.2109], [-1.5562, 48.2109], [-1.5556, 48.2107], [-1.5556, 48.2107], [-1.5556, 48.2107]]], [[[-1.5604, 48.2051], [-1.5604, 48.2051], [-1.5606, 48.2049], [-1.5614, 48.2043], [-1.5614, 48.2043], [-1.5615, 48.2043], [-1.5616, 48.2043], [-1.5625, 48.2052], [-1.5625, 48.2052], [-1.5608, 48.206], [-1.5604, 48.2051]]], [[[-1.5645, 48.2071], [-1.564, 48.2074], [-1.5633, 48.2077], [-1.5626, 48.208], [-1.5625, 48.208], [-1.5624, 48.208], [-1.5624, 48.208], [-1.5623, 48.208], [-1.5622, 48.208], [-1.5622, 48.208], [-1.5622, 48.208], [-1.562, 48.2081], [-1.5618, 48.2082], [-1.5617, 48.2081], [-1.5616, 48.208], [-1.5613, 48.2072], [-1.561, 48.2065], [-1.5608, 48.206], [-1.5609, 48.2059], [-1.5626, 48.2052], [-1.5626, 48.2052], [-1.5629, 48.2055], [-1.5645, 48.2071]]]]}, "geometry_name": "the_geom", "properties": {"ID_C": "RBREETAT18DT0350001", "NumAction": "0001", "ID_A": "RBREETAT18DT0350001_0001", "CodeAction": "F05P", "TxtAction": "Travaux de marquage, d’abattage ou de taille sans enjeu de production", "Quantite": 100.01, "Unite": "ha", "NbInterv": 1, "MontantAct": 12001.2, "MontantCon": 3006.48, "CodeHab1": "", "TxtHab1": "", "CodeHab2": "", "TxtHab2": "", "CodeHab3": "", "TxtHab3": "", "CommentHab": "", "CodeEsp1": "1083", "TxtEsp1": "Lucane cerf-volant (Lucanus cervus)", "CodeEsp2": "1088", "TxtEsp2": "Grand Capricorne (Cerambyx cerdo)", "CodeEsp3": "1308", "TxtEsp3": "Barbastelle (Barbastella barbastellus)", "CommentEsp": "1323:Vespertilion de Bechstein ; 1324 : Grand Murin", "Comment": ""}}, {"type": "Feature", "id": "N2000_Action.70", "geometry": {"type": "MultiPolygon", "coordinates": [[[[-1.7512, 48.3031], [-1.7512, 48.3032], [-1.7549, 48.3068], [-1.7549, 48.3069], [-1.7557, 48.3076], [-1.7554, 48.3077], [-1.7552, 48.3079], [-1.7552, 48.3079], [-1.7551, 48.3079], [-1.7551, 48.308], [-1.755, 48.3081], [-1.755, 48.3081], [-1.755, 48.3081], [-1.755, 48.3082], [-1.755, 48.3083], [-1.7551, 48.3084], [-1.7551, 48.3085], [-1.7551, 48.3086], [-1.7551, 48.3086], [-1.7551, 48.3087], [-1.7551, 48.3088], [-1.7551, 48.3089], [-1.755, 48.3091], [-1.755, 48.3093], [-1.755, 48.3094], [-1.755, 48.3094], [-1.755, 48.3095], [-1.755, 48.3095], [-1.755, 48.3099], [-1.755, 48.3099], [-1.7548, 48.3101], [-1.7548, 48.3102], [-1.7548, 48.3103], [-1.7547, 48.3105], [-1.7547, 48.3106], [-1.7547, 48.3108], [-1.7547, 48.3108], [-1.7546, 48.311], [-1.7544, 48.3112], [-1.7544, 48.3113], [-1.7538, 48.3114], [-1.7532, 48.3116], [-1.7531, 48.3116], [-1.7529, 48.3116], [-1.7525, 48.3116], [-1.7524, 48.3116], [-1.7522, 48.3099], [-1.7522, 48.3098], [-1.7521, 48.3085], [-1.7518, 48.3085], [-1.7517, 48.3085], [-1.7515, 48.3085], [-1.7515, 48.3084], [-1.7514, 48.3084], [-1.7514, 48.3084], [-1.751, 48.3084], [-1.751, 48.3084], [-1.7508, 48.3083], [-1.7507, 48.3083], [-1.7507, 48.3083], [-1.7507, 48.3083], [-1.7507, 48.3083], [-1.7511, 48.3079], [-1.7511, 48.3078], [-1.751, 48.3077], [-1.7509, 48.3076], [-1.7509, 48.3075], [-1.7509, 48.3075], [-1.7509, 48.3074], [-1.751, 48.3074], [-1.751, 48.3073], [-1.751, 48.3073], [-1.751, 48.3073], [-1.751, 48.3072], [-1.7509, 48.3072], [-1.7509, 48.3071], [-1.7508, 48.3071], [-1.7508, 48.3071], [-1.7507, 48.3072], [-1.7507, 48.3072], [-1.7506, 48.3072], [-1.7506, 48.3074], [-1.7506, 48.3074], [-1.7506, 48.3075], [-1.7505, 48.3076], [-1.7504, 48.3076], [-1.7504, 48.3076], [-1.7505, 48.3078], [-1.7504, 48.308], [-1.7504, 48.308], [-1.7502, 48.3082], [-1.75, 48.3082], [-1.7499, 48.3081], [-1.7499, 48.3081], [-1.7499, 48.3081], [-1.7498, 48.3081], [-1.7497, 48.308], [-1.7496, 48.308], [-1.7493, 48.3077], [-1.7491, 48.3075], [-1.749, 48.3074], [-1.7486, 48.307], [-1.7483, 48.3066], [-1.7482, 48.3066], [-1.7481, 48.3065], [-1.748, 48.3063], [-1.7479, 48.3063], [-1.7477, 48.306], [-1.7476, 48.3057], [-1.7475, 48.3055], [-1.7473, 48.3052], [-1.7472, 48.3049], [-1.7472, 48.3049], [-1.748, 48.3045], [-1.7482, 48.3044], [-1.7484, 48.3044], [-1.7512, 48.3031]]]]}, "geometry_name": "the_geom", "properties": {"ID_C": "RBRE070620DT0350025", "NumAction": "0001", "ID_A": "RBRE070620DT0350025_0001", "CodeAction": "F01i", "TxtAction": "Création ou rétablissement de clairières ou de landes", "Quantite": 0.392, "Unite": "ha", "NbInterv": 1, "MontantAct": 2800, "MontantCon": 5220, "CodeHab1": "4020", "TxtHab1": "Landes humides atlantiques tempérées à Erica ciliaris et Erica tetralix", "CodeHab2": "6410", "TxtHab2": "Prairies à Molinia sur sols calcaires, tourbeux ou argilo-limoneux (Molinion caeruleae)", "CodeHab3": "", "TxtHab3": "", "CommentHab": "", "CodeEsp1": "", "TxtEsp1": "", "CodeEsp2": "", "TxtEsp2": "", "CodeEsp3": "", "TxtEsp3": "", "CommentEsp": "", "Comment": ""}}, {"type": "Feature", "id": "N2000_Action.71", "geometry": {"type": "MultiPolygon", "coordinates": [[[[-1.7512, 48.3031], [-1.7512, 48.3032], [-1.7549, 48.3068], [-1.7514, 48.3084], [-1.7514, 48.3084], [-1.751, 48.3084], [-1.751, 48.3084], [-1.7508, 48.3083], [-1.7507, 48.3083], [-1.7507, 48.3083], [-1.7507, 48.3083], [-1.7507, 48.3083], [-1.7511, 48.3079], [-1.7511, 48.3078], [-1.751, 48.3077], [-1.7509, 48.3076], [-1.7509, 48.3075], [-1.7509, 48.3075], [-1.7509, 48.3074], [-1.751, 48.3074], [-1.751, 48.3073], [-1.751, 48.3073], [-1.751, 48.3073], [-1.751, 48.3072], [-1.7509, 48.3072], [-1.7509, 48.3071], [-1.7508, 48.3071], [-1.7508, 48.3071], [-1.7507, 48.3072], [-1.7507, 48.3072], [-1.7506, 48.3072], [-1.7506, 48.3074], [-1.7506, 48.3074], [-1.7506, 48.3075], [-1.7505, 48.3076], [-1.7504, 48.3076], [-1.7504, 48.3076], [-1.7505, 48.3078], [-1.7504, 48.308], [-1.7504, 48.308], [-1.7502, 48.3082], [-1.75, 48.3082], [-1.7499, 48.3081], [-1.7499, 48.3081], [-1.7499, 48.3081], [-1.7498, 48.3081], [-1.7497, 48.308], [-1.7496, 48.308], [-1.7493, 48.3077], [-1.7491, 48.3075], [-1.749, 48.3074], [-1.7486, 48.307], [-1.7483, 48.3066], [-1.7482, 48.3066], [-1.7481, 48.3065], [-1.748, 48.3063], [-1.7479, 48.3063], [-1.7477, 48.306], [-1.7476, 48.3057], [-1.7475, 48.3055], [-1.7473, 48.3052], [-1.7472, 48.3049], [-1.7472, 48.3049], [-1.748, 48.3045], [-1.7482, 48.3044], [-1.7484, 48.3044], [-1.7512, 48.3031]]], [[[-1.7537, 48.3131], [-1.7549, 48.3132], [-1.7555, 48.3133], [-1.7559, 48.3134], [-1.7561, 48.3135], [-1.7565, 48.3136], [-1.7566, 48.3137], [-1.7569, 48.314], [-1.7552, 48.3157], [-1.7587, 48.3172], [-1.7588, 48.3174], [-1.7588, 48.3174], [-1.7588, 48.3175], [-1.7588, 48.3176], [-1.7588, 48.3183], [-1.7588, 48.3184], [-1.7587, 48.3186], [-1.7587, 48.3187], [-1.7586, 48.319], [-1.7586, 48.3191], [-1.7586, 48.3197], [-1.7586, 48.3197], [-1.7586, 48.3197], [-1.7585, 48.3198], [-1.7585, 48.3199], [-1.7585, 48.3199], [-1.7584, 48.32], [-1.7584, 48.32], [-1.7583, 48.32], [-1.7582, 48.3201], [-1.758, 48.3201], [-1.7578, 48.3201], [-1.7577, 48.3202], [-1.7573, 48.3203], [-1.7572, 48.3203], [-1.7571, 48.3203], [-1.7569, 48.3203], [-1.7569, 48.3203], [-1.7568, 48.3204], [-1.7567, 48.3204], [-1.7565, 48.3204], [-1.7564, 48.3204], [-1.756, 48.3204], [-1.7559, 48.3203], [-1.7557, 48.3203], [-1.7556, 48.3202], [-1.7556, 48.3202], [-1.7555, 48.3201], [-1.7552, 48.3199], [-1.7552, 48.3199], [-1.7551, 48.3198], [-1.755, 48.3198], [-1.7549, 48.3197], [-1.7547, 48.3196], [-1.7545, 48.3196], [-1.7543, 48.3195], [-1.7532, 48.3195], [-1.753, 48.3195], [-1.7525, 48.3194], [-1.7522, 48.3193], [-1.752, 48.3193], [-1.7519, 48.3193], [-1.7518, 48.3192], [-1.7518, 48.3192], [-1.7517, 48.3192], [-1.7516, 48.3191], [-1.7515, 48.3191], [-1.7514, 48.319], [-1.7512, 48.3188], [-1.7512, 48.3187], [-1.7511, 48.3187], [-1.751, 48.3186], [-1.7508, 48.3184], [-1.7506, 48.3184], [-1.7506, 48.3183], [-1.7505, 48.3183], [-1.7504, 48.3182], [-1.7504, 48.3181], [-1.7503, 48.318], [-1.7502, 48.3178], [-1.7501, 48.3178], [-1.7501, 48.3177], [-1.75, 48.3176], [-1.75, 48.3176], [-1.7499, 48.3175], [-1.7498, 48.3174], [-1.7497, 48.3171], [-1.7497, 48.317], [-1.7496, 48.3169], [-1.7496, 48.3168], [-1.7495, 48.3167], [-1.7494, 48.3167], [-1.7493, 48.3165], [-1.7492, 48.3165], [-1.7492, 48.3164], [-1.7492, 48.3164], [-1.749, 48.3162], [-1.7489, 48.3161], [-1.7489, 48.3161], [-1.7488, 48.3159], [-1.7485, 48.3156], [-1.7485, 48.3156], [-1.7485, 48.3155], [-1.7484, 48.3155], [-1.7483, 48.3153], [-1.7483, 48.3153], [-1.7482, 48.315], [-1.7482, 48.3149], [-1.7482, 48.3149], [-1.7481, 48.3148], [-1.7481, 48.3147], [-1.7481, 48.3147], [-1.7479, 48.3143], [-1.7479, 48.3143], [-1.7478, 48.3141], [-1.7477, 48.3139], [-1.7477, 48.3138], [-1.7477, 48.3137], [-1.7476, 48.3136], [-1.7476, 48.3136], [-1.7476, 48.3134], [-1.7476, 48.3134], [-1.7476, 48.3133], [-1.7481, 48.3132], [-1.7485, 48.3131], [-1.7489, 48.313], [-1.7495, 48.313], [-1.7508, 48.313], [-1.7515, 48.313], [-1.7533, 48.3131], [-1.7536, 48.3131], [-1.7537, 48.3131]], [[-1.7528, 48.3174], [-1.7529, 48.3174], [-1.7528, 48.3173], [-1.7528, 48.3173], [-1.7528, 48.3173], [-1.7528, 48.3173], [-1.7528, 48.3174], [-1.7528, 48.3174], [-1.7528, 48.3174]]]]}, "geometry_name": "the_geom", "properties": {"ID_C": "RBRE070620DT0350025", "NumAction": "0002", "ID_A": "RBRE070620DT0350025_0002", "CodeAction": "F02i", "TxtAction": "Création ou rétablissement de mares ou étangs forestiers", "Quantite": 6, "Unite": "unité", "NbInterv": 1, "MontantAct": 7250, "MontantCon": 7724.04, "CodeHab1": "", "TxtHab1": "", "CodeHab2": "", "TxtHab2": "", "CodeHab3": "", "TxtHab3": "", "CommentHab": "", "CodeEsp1": "1166", "TxtEsp1": "Triton crêté (Triturus cristatus)", "CodeEsp2": "", "TxtEsp2": "", "CodeEsp3": "", "TxtEsp3": "", "CommentEsp": "", "Comment": ""}}, {"type": "Feature", "id": "N2000_Action.72", "geometry": {"type": "MultiPolygon", "coordinates": [[[[-1.7512, 48.3031], [-1.7512, 48.3032], [-1.7549, 48.3068], [-1.7514, 48.3084], [-1.7514, 48.3084], [-1.751, 48.3084], [-1.751, 48.3084], [-1.7508, 48.3083], [-1.7507, 48.3083], [-1.7507, 48.3083], [-1.7507, 48.3083], [-1.7507, 48.3083], [-1.7511, 48.3079], [-1.7511, 48.3078], [-1.751, 48.3077], [-1.7509, 48.3076], [-1.7509, 48.3075], [-1.7509, 48.3075], [-1.7509, 48.3074], [-1.751, 48.3074], [-1.751, 48.3073], [-1.751, 48.3073], [-1.751, 48.3073], [-1.751, 48.3072], [-1.7509, 48.3072], [-1.7509, 48.3071], [-1.7508, 48.3071], [-1.7508, 48.3071], [-1.7507, 48.3072], [-1.7507, 48.3072], [-1.7506, 48.3072], [-1.7506, 48.3074], [-1.7506, 48.3074], [-1.7506, 48.3075], [-1.7505, 48.3076], [-1.7504, 48.3076], [-1.7504, 48.3076], [-1.7505, 48.3078], [-1.7504, 48.308], [-1.7504, 48.308], [-1.7502, 48.3082], [-1.75, 48.3082], [-1.7499, 48.3081], [-1.7499, 48.3081], [-1.7499, 48.3081], [-1.7498, 48.3081], [-1.7497, 48.308], [-1.7496, 48.308], [-1.7493, 48.3077], [-1.7491, 48.3075], [-1.749, 48.3074], [-1.7486, 48.307], [-1.7483, 48.3066], [-1.7482, 48.3066], [-1.7481, 48.3065], [-1.748, 48.3063], [-1.7479, 48.3063], [-1.7477, 48.306], [-1.7476, 48.3057], [-1.7475, 48.3055], [-1.7473, 48.3052], [-1.7472, 48.3049], [-1.7472, 48.3049], [-1.748, 48.3045], [-1.7482, 48.3044], [-1.7484, 48.3044], [-1.7512, 48.3031]]], [[[-1.7569, 48.314], [-1.7571, 48.3141], [-1.7572, 48.3143], [-1.7574, 48.3144], [-1.7576, 48.3146], [-1.7582, 48.3152], [-1.7584, 48.3153], [-1.7586, 48.3155], [-1.7585, 48.3159], [-1.7585, 48.3162], [-1.7586, 48.3166], [-1.7587, 48.3172], [-1.7587, 48.3172], [-1.7588, 48.3174], [-1.7588, 48.3174], [-1.7588, 48.3175], [-1.7588, 48.3176], [-1.7588, 48.3183], [-1.7588, 48.3184], [-1.7587, 48.3186], [-1.7587, 48.3187], [-1.7586, 48.319], [-1.7586, 48.3191], [-1.7586, 48.3197], [-1.7586, 48.3197], [-1.7507, 48.3161], [-1.7537, 48.3131], [-1.7549, 48.3132], [-1.7555, 48.3133], [-1.7559, 48.3134], [-1.7561, 48.3135], [-1.7565, 48.3136], [-1.7566, 48.3137], [-1.7569, 48.314]]]]}, "geometry_name": "the_geom", "properties": {"ID_C": "RBRE070620DT0350025", "NumAction": "0003", "ID_A": "RBRE070620DT0350025_0003", "CodeAction": "F12i", "TxtAction": "Dispositif favorisant le développement de bois sénescents", "Quantite": 84, "Unite": "unité", "NbInterv": 1, "MontantAct": 10620, "MontantCon": 5060, "CodeHab1": "", "TxtHab1": "", "CodeHab2": "", "TxtHab2": "", "CodeHab3": "", "TxtHab3": "", "CommentHab": "", "CodeEsp1": "1324", "TxtEsp1": "Grand Murin (Myotis myotis)", "CodeEsp2": "1323", "TxtEsp2": "Vespertilion de Bechstein (Myotis bechsteini)", "CodeEsp3": "1308", "TxtEsp3": "Barbastelle (Barbastella barbastellus)", "CommentEsp": "1088 : Grand Capricorne ; 1083 : Lucane cerf-volant (Lucanus cervus)", "Comment": ""}}, {"type": "Feature", "id": "N2000_Action.108", "geometry": {"type": "MultiPolygon", "coordinates": [[[[-1.9031, 47.9686], [-1.9031, 47.9687], [-1.9031, 47.9688], [-1.9032, 47.9689], [-1.9034, 47.969], [-1.9035, 47.9691], [-1.9037, 47.9692], [-1.9038, 47.9692], [-1.9038, 47.9692], [-1.9038, 47.9693], [-1.9039, 47.9694], [-1.9039, 47.9695], [-1.9039, 47.9696], [-1.9037, 47.9695], [-1.9036, 47.9695], [-1.9036, 47.9695], [-1.9033, 47.9695], [-1.9032, 47.9695], [-1.9032, 47.9694], [-1.9031, 47.9694], [-1.9034, 47.9692], [-1.9033, 47.9691], [-1.903, 47.9689], [-1.9028, 47.9688], [-1.9028, 47.9687], [-1.9027, 47.9687], [-1.9031, 47.9686]]], [[[-1.8896, 47.9932], [-1.8895, 47.9934], [-1.8893, 47.9937], [-1.8891, 47.9941], [-1.8891, 47.9941], [-1.8889, 47.9945], [-1.8888, 47.9947], [-1.8887, 47.9949], [-1.8889, 47.995], [-1.8891, 47.995], [-1.8891, 47.9951], [-1.8891, 47.9952], [-1.889, 47.9953], [-1.8888, 47.9955], [-1.8888, 47.9956], [-1.8887, 47.996], [-1.8891, 47.9961], [-1.8892, 47.9961], [-1.8891, 47.9963], [-1.8885, 47.996], [-1.8881, 47.9959], [-1.8879, 47.9958], [-1.8877, 47.9958], [-1.8874, 47.9956], [-1.8869, 47.9955], [-1.8863, 47.9953], [-1.8857, 47.995], [-1.885, 47.9948], [-1.8849, 47.9947], [-1.8842, 47.9945], [-1.8835, 47.9942], [-1.8832, 47.9941], [-1.883, 47.9941], [-1.8833, 47.994], [-1.884, 47.9939], [-1.8843, 47.9939], [-1.8845, 47.9938], [-1.8847, 47.9938], [-1.8848, 47.9938], [-1.8849, 47.9937], [-1.8851, 47.9936], [-1.8853, 47.9936], [-1.8855, 47.9935], [-1.8856, 47.9934], [-1.8858, 47.9933], [-1.8861, 47.9932], [-1.8861, 47.9932], [-1.8862, 47.9931], [-1.8865, 47.9929], [-1.8865, 47.9928], [-1.8866, 47.9928], [-1.8867, 47.9928], [-1.8868, 47.9927], [-1.8868, 47.9926], [-1.8869, 47.9926], [-1.8875, 47.9927], [-1.8882, 47.9927], [-1.8888, 47.9927], [-1.8889, 47.9927], [-1.889, 47.9927], [-1.8892, 47.9927], [-1.8894, 47.9927], [-1.8894, 47.9926], [-1.8896, 47.9925], [-1.8897, 47.9924], [-1.8898, 47.9923], [-1.8899, 47.9922], [-1.8899, 47.9921], [-1.89, 47.9921], [-1.89, 47.9923], [-1.8899, 47.9924], [-1.8899, 47.9924], [-1.8898, 47.9925], [-1.8898, 47.9926], [-1.8898, 47.9927], [-1.8898, 47.9928], [-1.8897, 47.993], [-1.8896, 47.9932]]], [[[-1.8953, 47.973], [-1.8954, 47.973], [-1.8961, 47.9737], [-1.896, 47.9738], [-1.8963, 47.9739], [-1.8962, 47.974], [-1.896, 47.9742], [-1.8958, 47.9745], [-1.896, 47.9746], [-1.8967, 47.9747], [-1.8959, 47.9753], [-1.8961, 47.9753], [-1.8964, 47.9752], [-1.8965, 47.9752], [-1.8969, 47.9748], [-1.897, 47.9748], [-1.8969, 47.9749], [-1.8967, 47.9751], [-1.8965, 47.9754], [-1.8958, 47.9754], [-1.8954, 47.9757], [-1.8953, 47.9758], [-1.895, 47.9758], [-1.8948, 47.9758], [-1.8942, 47.9759], [-1.8941, 47.976], [-1.8941, 47.9761], [-1.894, 47.9763], [-1.894, 47.9763], [-1.8939, 47.9764], [-1.8938, 47.9766], [-1.8938, 47.9767], [-1.8937, 47.977], [-1.8942, 47.9772], [-1.8947, 47.9773], [-1.8951, 47.9774], [-1.8955, 47.9774], [-1.8957, 47.978], [-1.8959, 47.9781], [-1.896, 47.9781], [-1.8962, 47.9782], [-1.8964, 47.9782], [-1.897, 47.9781], [-1.8971, 47.9781], [-1.8972, 47.9781], [-1.8973, 47.9781], [-1.8976, 47.9782], [-1.8976, 47.9782], [-1.8977, 47.9783], [-1.8978, 47.9784], [-1.8979, 47.9787], [-1.898, 47.9788], [-1.8981, 47.9788], [-1.8983, 47.9789], [-1.8987, 47.979], [-1.8988, 47.979], [-1.8988, 47.979], [-1.8989, 47.9791], [-1.899, 47.9792], [-1.8992, 47.9794], [-1.9, 47.98], [-1.9, 47.98], [-1.9003, 47.9802], [-1.9005, 47.9803], [-1.9008, 47.9804], [-1.9006, 47.9805], [-1.9006, 47.9804], [-1.9005, 47.9804], [-1.9001, 47.9802], [-1.8999, 47.98], [-1.899, 47.9793], [-1.8987, 47.9791], [-1.8979, 47.9788], [-1.8979, 47.9788], [-1.8978, 47.9788], [-1.8978, 47.9788], [-1.8978, 47.9787], [-1.8977, 47.9786], [-1.8977, 47.9784], [-1.8977, 47.9784], [-1.8976, 47.9783], [-1.8975, 47.9783], [-1.8975, 47.9783], [-1.8974, 47.9782], [-1.8973, 47.9782], [-1.8966, 47.9782], [-1.8965, 47.9782], [-1.8962, 47.9782], [-1.8961, 47.9782], [-1.896, 47.9782], [-1.8956, 47.9781], [-1.8955, 47.9776], [-1.8953, 47.9775], [-1.8951, 47.9775], [-1.8947, 47.9774], [-1.8946, 47.9774], [-1.8943, 47.9773], [-1.8939, 47.9771], [-1.8937, 47.977], [-1.8936, 47.977], [-1.8935, 47.9769], [-1.8936, 47.9768], [-1.8936, 47.9766], [-1.8936, 47.9765], [-1.8936, 47.9765], [-1.8936, 47.9764], [-1.8936, 47.9764], [-1.8939, 47.9762], [-1.894, 47.9761], [-1.894, 47.976], [-1.894, 47.9759], [-1.894, 47.9757], [-1.894, 47.9754], [-1.894, 47.9754], [-1.894, 47.9754], [-1.894, 47.9753], [-1.8939, 47.9753], [-1.8939, 47.9753], [-1.8939, 47.9753], [-1.8939, 47.9752], [-1.8939, 47.9751], [-1.8939, 47.9751], [-1.8939, 47.975], [-1.8938, 47.9749], [-1.8937, 47.9747], [-1.8936, 47.9746], [-1.8936, 47.9745], [-1.8936, 47.9745], [-1.8936, 47.9745], [-1.8936, 47.9744], [-1.8936, 47.9744], [-1.8937, 47.9743], [-1.8937, 47.9742], [-1.8939, 47.9741], [-1.894, 47.9741], [-1.8941, 47.9741], [-1.8943, 47.974], [-1.8944, 47.974], [-1.8944, 47.9739], [-1.8946, 47.9738], [-1.8947, 47.9737], [-1.8948, 47.9736], [-1.8948, 47.9735], [-1.8949, 47.9734], [-1.8949, 47.9733], [-1.8949, 47.9732], [-1.895, 47.9732], [-1.8951, 47.9731], [-1.8952, 47.973], [-1.8953, 47.973]]], [[[-1.9, 47.9751], [-1.8999, 47.9748], [-1.8999, 47.9747], [-1.8999, 47.9746], [-1.9, 47.9746], [-1.9005, 47.9746], [-1.9007, 47.9747], [-1.9008, 47.9747], [-1.9009, 47.9746], [-1.901, 47.9746], [-1.901, 47.9746], [-1.901, 47.9746], [-1.901, 47.9744], [-1.9009, 47.974], [-1.9008, 47.9737], [-1.9008, 47.9737], [-1.9008, 47.9735], [-1.9009, 47.9734], [-1.9008, 47.9732], [-1.9007, 47.9731], [-1.9007, 47.973], [-1.9007, 47.9728], [-1.9007, 47.9727], [-1.9007, 47.9727], [-1.9007, 47.9727], [-1.9006, 47.9727], [-1.9004, 47.9728], [-1.9007, 47.9718], [-1.8999, 47.9717], [-1.8999, 47.9717], [-1.8998, 47.9714], [-1.8998, 47.9713], [-1.8994, 47.9712], [-1.899, 47.9712], [-1.8989, 47.9712], [-1.8988, 47.9712], [-1.8983, 47.9711], [-1.8983, 47.9713], [-1.8983, 47.9714], [-1.8983, 47.9714], [-1.8983, 47.9715], [-1.8984, 47.9715], [-1.8984, 47.9716], [-1.898, 47.9714], [-1.8973, 47.9711], [-1.8972, 47.971], [-1.8971, 47.9707], [-1.8971, 47.9706], [-1.8972, 47.9705], [-1.8976, 47.9703], [-1.8981, 47.9701], [-1.8982, 47.9701], [-1.8984, 47.9699], [-1.8986, 47.9698], [-1.8987, 47.9697], [-1.8988, 47.9697], [-1.8988, 47.9696], [-1.8986, 47.9696], [-1.8987, 47.9695], [-1.8988, 47.9695], [-1.8988, 47.9695], [-1.899, 47.9695], [-1.8991, 47.9695], [-1.8991, 47.9695], [-1.8992, 47.9695], [-1.8992, 47.9695], [-1.8993, 47.9696], [-1.8995, 47.9696], [-1.8996, 47.9697], [-1.8998, 47.9697], [-1.9001, 47.9697], [-1.9003, 47.9697], [-1.9004, 47.9697], [-1.9005, 47.9697], [-1.9005, 47.9698], [-1.9006, 47.9698], [-1.9008, 47.9699], [-1.9008, 47.97], [-1.9009, 47.97], [-1.9009, 47.97], [-1.901, 47.9701], [-1.901, 47.9702], [-1.9009, 47.9703], [-1.9009, 47.9704], [-1.901, 47.9706], [-1.901, 47.9707], [-1.901, 47.9708], [-1.901, 47.9708], [-1.9011, 47.9708], [-1.9011, 47.9708], [-1.9011, 47.9708], [-1.901, 47.971], [-1.901, 47.9711], [-1.9008, 47.9712], [-1.9008, 47.9713], [-1.9007, 47.9713], [-1.9007, 47.9713], [-1.9008, 47.9714], [-1.9008, 47.9714], [-1.9008, 47.9714], [-1.9009, 47.9715], [-1.9009, 47.9715], [-1.9009, 47.9715], [-1.9011, 47.9716], [-1.9011, 47.9716], [-1.9011, 47.9716], [-1.9011, 47.9716], [-1.9012, 47.9715], [-1.9012, 47.9715], [-1.9013, 47.9715], [-1.9016, 47.9716], [-1.9017, 47.9716], [-1.9019, 47.9716], [-1.902, 47.9717], [-1.9019, 47.9718], [-1.9019, 47.9718], [-1.9018, 47.9718], [-1.9018, 47.9719], [-1.9019, 47.9719], [-1.9019, 47.9719], [-1.9019, 47.9719], [-1.902, 47.972], [-1.9019, 47.972], [-1.9019, 47.972], [-1.9017, 47.9721], [-1.9017, 47.9721], [-1.9016, 47.9722], [-1.9014, 47.9724], [-1.9014, 47.9724], [-1.9015, 47.9725], [-1.9015, 47.9725], [-1.9014, 47.9725], [-1.9014, 47.9726], [-1.9014, 47.9726], [-1.9015, 47.9727], [-1.9015, 47.9727], [-1.9015, 47.9727], [-1.9014, 47.9728], [-1.9013, 47.9728], [-1.9013, 47.9728], [-1.9013, 47.9729], [-1.9014, 47.9729], [-1.9014, 47.9731], [-1.9015, 47.9731], [-1.9016, 47.9733], [-1.9016, 47.9733], [-1.9016, 47.9734], [-1.9016, 47.9734], [-1.9016, 47.9734], [-1.9017, 47.9734], [-1.9017, 47.9734], [-1.9017, 47.9734], [-1.9016, 47.9735], [-1.9016, 47.9735], [-1.9015, 47.9737], [-1.9015, 47.9739], [-1.9015, 47.974], [-1.9015, 47.9741], [-1.9015, 47.9741], [-1.9015, 47.9741], [-1.9015, 47.9743], [-1.9015, 47.9743], [-1.9015, 47.9743], [-1.9015, 47.9744], [-1.9016, 47.9744], [-1.9017, 47.9744], [-1.9017, 47.9745], [-1.9017, 47.9746], [-1.9017, 47.9746], [-1.9017, 47.9746], [-1.9016, 47.9746], [-1.9017, 47.9746], [-1.9017, 47.9747], [-1.9017, 47.9747], [-1.9017, 47.9747], [-1.9017, 47.9747], [-1.9017, 47.9748], [-1.9017, 47.9748], [-1.9017, 47.9748], [-1.9009, 47.975], [-1.9, 47.9751]]], [[[-1.9032, 47.9745], [-1.9028, 47.9745], [-1.9027, 47.9746], [-1.9026, 47.9747], [-1.9025, 47.9748], [-1.9025, 47.9749], [-1.9026, 47.9751], [-1.9027, 47.9752], [-1.9027, 47.9752], [-1.9028, 47.9753], [-1.9028, 47.9755], [-1.9029, 47.9757], [-1.9029, 47.9758], [-1.9029, 47.9759], [-1.903, 47.976], [-1.9032, 47.9761], [-1.9033, 47.9761], [-1.9033, 47.9761], [-1.9038, 47.9763], [-1.9038, 47.9764], [-1.9045, 47.9764], [-1.9046, 47.9765], [-1.9044, 47.9766], [-1.9042, 47.9767], [-1.9042, 47.9767], [-1.9041, 47.9767], [-1.904, 47.9768], [-1.9039, 47.9769], [-1.904, 47.977], [-1.9042, 47.9771], [-1.9043, 47.9771], [-1.9045, 47.9773], [-1.9046, 47.9774], [-1.9046, 47.9774], [-1.9046, 47.9774], [-1.9047, 47.9775], [-1.9047, 47.9775], [-1.9047, 47.9776], [-1.9047, 47.9776], [-1.9047, 47.9777], [-1.9048, 47.9777], [-1.9047, 47.9778], [-1.9047, 47.9779], [-1.9047, 47.9779], [-1.9048, 47.9779], [-1.9048, 47.978], [-1.9048, 47.9781], [-1.9048, 47.9782], [-1.9049, 47.9782], [-1.9051, 47.9782], [-1.9051, 47.9783], [-1.9052, 47.9783], [-1.9052, 47.9784], [-1.9052, 47.9784], [-1.9052, 47.9785], [-1.9053, 47.9786], [-1.9054, 47.9786], [-1.9054, 47.9786], [-1.9054, 47.9787], [-1.9054, 47.9788], [-1.9054, 47.9789], [-1.9055, 47.979], [-1.9055, 47.979], [-1.9061, 47.9788], [-1.9062, 47.9788], [-1.9064, 47.9788], [-1.9067, 47.9787], [-1.9065, 47.9789], [-1.9063, 47.9791], [-1.9053, 47.9795], [-1.9052, 47.9795], [-1.9052, 47.9794], [-1.9052, 47.9794], [-1.9052, 47.9794], [-1.9052, 47.9793], [-1.9052, 47.9791], [-1.9052, 47.9791], [-1.9051, 47.9791], [-1.905, 47.9791], [-1.905, 47.979], [-1.9049, 47.979], [-1.905, 47.9789], [-1.9051, 47.9789], [-1.9051, 47.9788], [-1.9051, 47.9788], [-1.905, 47.9786], [-1.9049, 47.9784], [-1.9049, 47.9784], [-1.9049, 47.9784], [-1.9048, 47.9784], [-1.9048, 47.9784], [-1.9047, 47.9782], [-1.9046, 47.9781], [-1.9046, 47.9781], [-1.9046, 47.9781], [-1.9045, 47.9781], [-1.9045, 47.9781], [-1.9044, 47.9781], [-1.9044, 47.978], [-1.9044, 47.978], [-1.9044, 47.9779], [-1.9044, 47.9779], [-1.9044, 47.9778], [-1.9043, 47.9778], [-1.9043, 47.9778], [-1.9042, 47.9777], [-1.9041, 47.9777], [-1.9041, 47.9777], [-1.9041, 47.9776], [-1.9041, 47.9775], [-1.9041, 47.9775], [-1.904, 47.9775], [-1.9039, 47.9775], [-1.9037, 47.9774], [-1.9036, 47.9774], [-1.9036, 47.9774], [-1.9037, 47.9773], [-1.9037, 47.9773], [-1.9036, 47.9772], [-1.9036, 47.9772], [-1.9035, 47.9772], [-1.9035, 47.9771], [-1.9035, 47.9771], [-1.9035, 47.9771], [-1.9034, 47.9771], [-1.9028, 47.977], [-1.9027, 47.9769], [-1.9028, 47.9769], [-1.9028, 47.9768], [-1.9028, 47.9768], [-1.9028, 47.9768], [-1.9027, 47.9766], [-1.9026, 47.9766], [-1.9026, 47.9766], [-1.9024, 47.9764], [-1.9023, 47.9763], [-1.9023, 47.9762], [-1.9022, 47.9762], [-1.9022, 47.9762], [-1.9021, 47.9762], [-1.9021, 47.9762], [-1.9021, 47.9762], [-1.9021, 47.9761], [-1.9021, 47.9761], [-1.902, 47.9761], [-1.902, 47.976], [-1.902, 47.9759], [-1.9019, 47.9759], [-1.9018, 47.9759], [-1.9017, 47.9758], [-1.9017, 47.9758], [-1.9017, 47.9758], [-1.9016, 47.9757], [-1.9017, 47.9756], [-1.9017, 47.9756], [-1.9017, 47.9756], [-1.9016, 47.9755], [-1.9016, 47.9755], [-1.9017, 47.9753], [-1.9016, 47.9753], [-1.9016, 47.9753], [-1.9016, 47.9753], [-1.9015, 47.9752], [-1.9015, 47.9752], [-1.9016, 47.9752], [-1.9016, 47.9752], [-1.9016, 47.9752], [-1.9016, 47.9751], [-1.9016, 47.9751], [-1.9017, 47.975], [-1.9017, 47.975], [-1.9016, 47.975], [-1.9016, 47.9749], [-1.9016, 47.9749], [-1.9017, 47.9748], [-1.9017, 47.9748], [-1.9017, 47.9748], [-1.9017, 47.9747], [-1.9017, 47.9747], [-1.9017, 47.9747], [-1.9017, 47.9747], [-1.9017, 47.9746], [-1.9017, 47.9746], [-1.9017, 47.9746], [-1.9017, 47.9746], [-1.9018, 47.9746], [-1.9018, 47.9745], [-1.9017, 47.9744], [-1.9016, 47.9744], [-1.9016, 47.9744], [-1.9015, 47.9743], [-1.9015, 47.9743], [-1.9015, 47.9743], [-1.9015, 47.9742], [-1.9015, 47.9742], [-1.9016, 47.9741], [-1.9016, 47.9741], [-1.9015, 47.974], [-1.9015, 47.9739], [-1.9016, 47.9737], [-1.9016, 47.9736], [-1.9016, 47.9735], [-1.9017, 47.9735], [-1.9017, 47.9735], [-1.9017, 47.9734], [-1.9017, 47.9734], [-1.9017, 47.9734], [-1.9016, 47.9734], [-1.9016, 47.9733], [-1.9017, 47.9733], [-1.9016, 47.9733], [-1.9016, 47.9732], [-1.9016, 47.9731], [-1.9015, 47.9731], [-1.9015, 47.9731], [-1.9014, 47.9729], [-1.9014, 47.9729], [-1.9014, 47.9729], [-1.9013, 47.9729], [-1.9014, 47.9728], [-1.9014, 47.9728], [-1.9015, 47.9728], [-1.9015, 47.9727], [-1.9015, 47.9727], [-1.9014, 47.9726], [-1.9014, 47.9726], [-1.9015, 47.9725], [-1.9015, 47.9725], [-1.9015, 47.9725], [-1.9015, 47.9725], [-1.9015, 47.9724], [-1.9015, 47.9724], [-1.9015, 47.9724], [-1.9015, 47.9723], [-1.9016, 47.9722], [-1.9016, 47.9722], [-1.9017, 47.9721], [-1.9018, 47.9721], [-1.9019, 47.972], [-1.902, 47.972], [-1.902, 47.972], [-1.902, 47.9719], [-1.902, 47.9719], [-1.9019, 47.9719], [-1.9019, 47.9719], [-1.9019, 47.9718], [-1.9019, 47.9718], [-1.9019, 47.9718], [-1.902, 47.9718], [-1.902, 47.9717], [-1.9021, 47.9717], [-1.9023, 47.9717], [-1.9024, 47.9718], [-1.9031, 47.9739], [-1.9032, 47.9745]]], [[[-1.9012, 47.977], [-1.9011, 47.977], [-1.9007, 47.9769], [-1.9006, 47.9768], [-1.9003, 47.9769], [-1.9003, 47.9767], [-1.9003, 47.9766], [-1.9006, 47.9767], [-1.9014, 47.9764], [-1.9017, 47.9768], [-1.9012, 47.977]]]]}, "geometry_name": "the_geom", "properties": {"ID_C": "RBREETAT17DT0350002", "NumAction": "0001", "ID_A": "RBREETAT17DT0350002_0001", "CodeAction": "N01Pi", "TxtAction": "Chantier lourd de restauration de milieux ouverts par débroussaillage", "Quantite": 5.64, "Unite": "ha", "NbInterv": 1, "MontantAct": 25795.8, "MontantCon": 5524.32, "CodeHab1": "4030", "TxtHab1": "Landes sèches européennes", "CodeHab2": "8230", "TxtHab2": "Roches siliceuses avec végétation pionnière du Sedo-Scleranthion ou du Sedo albi-Veronicion dillenii", "CodeHab3": "", "TxtHab3": "", "CommentHab": "", "CodeEsp1": "A302", "TxtEsp1": "Fauvette pitchou (Sylvia undata)", "CodeEsp2": "A224", "TxtEsp2": "Engoulevent d'Europe (Caprimulgus europaeus)", "CodeEsp3": "A246", "TxtEsp3": "Alouette lulu (Lullula arborea)", "CommentEsp": "A082 : Busard St-Martin", "Comment": ""}}, {"type": "Feature", "id": "N2000_Action.109", "geometry": {"type": "MultiPolygon", "coordinates": [[[[-1.9, 47.9751], [-1.8999, 47.9748], [-1.8999, 47.9747], [-1.8999, 47.9746], [-1.9, 47.9746], [-1.9005, 47.9746], [-1.9007, 47.9747], [-1.9008, 47.9747], [-1.9009, 47.9746], [-1.901, 47.9746], [-1.901, 47.9746], [-1.901, 47.9746], [-1.901, 47.9744], [-1.9009, 47.974], [-1.9008, 47.9737], [-1.9008, 47.9737], [-1.9008, 47.9735], [-1.9009, 47.9734], [-1.9008, 47.9732], [-1.9007, 47.9731], [-1.9007, 47.973], [-1.9007, 47.9728], [-1.9007, 47.9727], [-1.9007, 47.9727], [-1.9007, 47.9727], [-1.9006, 47.9727], [-1.9004, 47.9728], [-1.9007, 47.9718], [-1.8999, 47.9717], [-1.8999, 47.9717], [-1.8998, 47.9714], [-1.8998, 47.9713], [-1.8994, 47.9712], [-1.899, 47.9712], [-1.8989, 47.9712], [-1.8988, 47.9712], [-1.8983, 47.9711], [-1.8983, 47.9713], [-1.8983, 47.9714], [-1.8983, 47.9714], [-1.8983, 47.9715], [-1.8984, 47.9715], [-1.8984, 47.9716], [-1.898, 47.9714], [-1.8973, 47.9711], [-1.8972, 47.971], [-1.8971, 47.9707], [-1.8971, 47.9706], [-1.8972, 47.9705], [-1.8976, 47.9703], [-1.8981, 47.9701], [-1.8982, 47.9701], [-1.8984, 47.9699], [-1.8986, 47.9698], [-1.8987, 47.9697], [-1.8988, 47.9697], [-1.8988, 47.9696], [-1.8986, 47.9696], [-1.8987, 47.9695], [-1.8988, 47.9695], [-1.8988, 47.9695], [-1.899, 47.9695], [-1.8991, 47.9695], [-1.8991, 47.9695], [-1.8992, 47.9695], [-1.8992, 47.9695], [-1.8993, 47.9696], [-1.8995, 47.9696], [-1.8996, 47.9697], [-1.8998, 47.9697], [-1.9001, 47.9697], [-1.9003, 47.9697], [-1.9004, 47.9697], [-1.9005, 47.9697], [-1.9005, 47.9698], [-1.9006, 47.9698], [-1.9008, 47.9699], [-1.9008, 47.97], [-1.9009, 47.97], [-1.9009, 47.97], [-1.901, 47.9701], [-1.901, 47.9702], [-1.9009, 47.9703], [-1.9009, 47.9704], [-1.901, 47.9706], [-1.901, 47.9707], [-1.901, 47.9708], [-1.901, 47.9708], [-1.9011, 47.9708], [-1.9011, 47.9708], [-1.9011, 47.9708], [-1.901, 47.971], [-1.901, 47.9711], [-1.9008, 47.9712], [-1.9008, 47.9713], [-1.9007, 47.9713], [-1.9007, 47.9713], [-1.9008, 47.9714], [-1.9008, 47.9714], [-1.9008, 47.9714], [-1.9009, 47.9715], [-1.9009, 47.9715], [-1.9009, 47.9715], [-1.9011, 47.9716], [-1.9011, 47.9716], [-1.9011, 47.9716], [-1.9011, 47.9716], [-1.9012, 47.9715], [-1.9012, 47.9715], [-1.9013, 47.9715], [-1.9016, 47.9716], [-1.9017, 47.9716], [-1.9019, 47.9716], [-1.902, 47.9717], [-1.9019, 47.9718], [-1.9019, 47.9718], [-1.9018, 47.9718], [-1.9018, 47.9719], [-1.9019, 47.9719], [-1.9019, 47.9719], [-1.9019, 47.9719], [-1.902, 47.972], [-1.9019, 47.972], [-1.9019, 47.972], [-1.9017, 47.9721], [-1.9017, 47.9721], [-1.9016, 47.9722], [-1.9014, 47.9724], [-1.9014, 47.9724], [-1.9015, 47.9725], [-1.9015, 47.9725], [-1.9014, 47.9725], [-1.9014, 47.9726], [-1.9014, 47.9726], [-1.9015, 47.9727], [-1.9015, 47.9727], [-1.9015, 47.9727], [-1.9014, 47.9728], [-1.9013, 47.9728], [-1.9013, 47.9728], [-1.9013, 47.9729], [-1.9014, 47.9729], [-1.9014, 47.9731], [-1.9015, 47.9731], [-1.9016, 47.9733], [-1.9016, 47.9733], [-1.9016, 47.9734], [-1.9016, 47.9734], [-1.9016, 47.9734], [-1.9017, 47.9734], [-1.9017, 47.9734], [-1.9017, 47.9734], [-1.9016, 47.9735], [-1.9016, 47.9735], [-1.9015, 47.9737], [-1.9015, 47.9739], [-1.9015, 47.974], [-1.9015, 47.9741], [-1.9015, 47.9741], [-1.9015, 47.9741], [-1.9015, 47.9743], [-1.9015, 47.9743], [-1.9015, 47.9743], [-1.9015, 47.9744], [-1.9016, 47.9744], [-1.9017, 47.9744], [-1.9017, 47.9745], [-1.9017, 47.9746], [-1.9017, 47.9746], [-1.9017, 47.9746], [-1.9016, 47.9746], [-1.9017, 47.9746], [-1.9017, 47.9747], [-1.9017, 47.9747], [-1.9017, 47.9747], [-1.9017, 47.9747], [-1.9017, 47.9748], [-1.9017, 47.9748], [-1.9017, 47.9748], [-1.9009, 47.975], [-1.9, 47.9751]]], [[[-1.8896, 47.9932], [-1.8895, 47.9934], [-1.8893, 47.9937], [-1.8891, 47.9941], [-1.8891, 47.9941], [-1.8889, 47.9945], [-1.8888, 47.9947], [-1.8887, 47.9949], [-1.8889, 47.995], [-1.8891, 47.995], [-1.8891, 47.9951], [-1.8891, 47.9952], [-1.889, 47.9953], [-1.8888, 47.9955], [-1.8888, 47.9956], [-1.8887, 47.996], [-1.8891, 47.9961], [-1.8892, 47.9961], [-1.8891, 47.9963], [-1.8885, 47.996], [-1.8881, 47.9959], [-1.8879, 47.9958], [-1.8877, 47.9958], [-1.8874, 47.9956], [-1.8869, 47.9955], [-1.8863, 47.9953], [-1.8857, 47.995], [-1.885, 47.9948], [-1.8849, 47.9947], [-1.8842, 47.9945], [-1.8835, 47.9942], [-1.8832, 47.9941], [-1.883, 47.9941], [-1.8833, 47.994], [-1.884, 47.9939], [-1.8843, 47.9939], [-1.8845, 47.9938], [-1.8847, 47.9938], [-1.8848, 47.9938], [-1.8849, 47.9937], [-1.8851, 47.9936], [-1.8853, 47.9936], [-1.8855, 47.9935], [-1.8856, 47.9934], [-1.8858, 47.9933], [-1.8861, 47.9932], [-1.8861, 47.9932], [-1.8862, 47.9931], [-1.8865, 47.9929], [-1.8865, 47.9928], [-1.8866, 47.9928], [-1.8867, 47.9928], [-1.8868, 47.9927], [-1.8868, 47.9926], [-1.8869, 47.9926], [-1.8875, 47.9927], [-1.8882, 47.9927], [-1.8888, 47.9927], [-1.8889, 47.9927], [-1.889, 47.9927], [-1.8892, 47.9927], [-1.8894, 47.9927], [-1.8894, 47.9926], [-1.8896, 47.9925], [-1.8897, 47.9924], [-1.8898, 47.9923], [-1.8899, 47.9922], [-1.8899, 47.9921], [-1.89, 47.9921], [-1.89, 47.9923], [-1.8899, 47.9924], [-1.8899, 47.9924], [-1.8898, 47.9925], [-1.8898, 47.9926], [-1.8898, 47.9927], [-1.8898, 47.9928], [-1.8897, 47.993], [-1.8896, 47.9932]], [[-1.8881, 47.9929], [-1.8879, 47.9929], [-1.8878, 47.9933], [-1.8875, 47.9942], [-1.8873, 47.9946], [-1.888, 47.9947], [-1.8883, 47.9933], [-1.8884, 47.9929], [-1.8883, 47.9929], [-1.8882, 47.9929], [-1.8881, 47.9929]]]]}, "geometry_name": "the_geom", "properties": {"ID_C": "RBREETAT17DT0350002", "NumAction": "0002", "ID_A": "RBREETAT17DT0350002_0002", "CodeAction": "N05R", "TxtAction": "Entretien de milieu ouvert", "Quantite": 2.86, "Unite": "ha", "NbInterv": 1, "MontantAct": 2469.5, "MontantCon": 5524.32, "CodeHab1": "4020", "TxtHab1": "Landes humides atlantiques tempérées à Erica ciliaris et Erica tetralix", "CodeHab2": "4030", "TxtHab2": "Landes sèches européennes", "CodeHab3": "6230", "TxtHab3": "Formations herbeuses à Nardus, riches en espèces, sur substrats siliceux des zones montagnardes (et des zones submontagnardes de l'Europe continentale)", "CommentHab": "", "CodeEsp1": "A302", "TxtEsp1": "Fauvette pitchou (Sylvia undata)", "CodeEsp2": "A224", "TxtEsp2": "Engoulevent d'Europe (Caprimulgus europaeus)", "CodeEsp3": "A246", "TxtEsp3": "Alouette lulu (Lullula arborea)", "CommentEsp": "A082 : Busard St-Martin", "Comment": ""}}, {"type": "Feature", "id": "N2000_Action.127", "geometry": {"type": "MultiPolygon", "coordinates": [[[[-1.5126, 48.2807], [-1.5112, 48.2806], [-1.5107, 48.2806], [-1.5108, 48.2796], [-1.5111, 48.2769], [-1.5111, 48.2769], [-1.5122, 48.2769], [-1.5129, 48.2769], [-1.5129, 48.2773], [-1.5126, 48.2807]]]]}, "geometry_name": "the_geom", "properties": {"ID_C": "RBRE070620DT0350026", "NumAction": "0001", "ID_A": "RBRE070620DT0350026_0001", "CodeAction": "F09i", "TxtAction": "Prise en charge de certains surcoûts d’investissement visant à réduire l’impact des dessertes en forêt", "Quantite": 1, "Unite": "unité", "NbInterv": 1, "MontantAct": 18148.8, "MontantCon": 5060, "CodeHab1": "", "TxtHab1": "", "CodeHab2": "", "TxtHab2": "", "CodeHab3": "", "TxtHab3": "", "CommentHab": "", "CodeEsp1": "1092", "TxtEsp1": "Ecrevisse à pieds blancs (Austropotamobius pallipes)", "CodeEsp2": "", "TxtEsp2": "", "CodeEsp3": "", "TxtEsp3": "", "CommentEsp": "", "Comment": ""}}, {"type": "Feature", "id": "N2000_Action.144", "geometry": {"type": "MultiPolygon", "coordinates": [[[[-1.5634, 48.1939], [-1.5636, 48.1937], [-1.5627, 48.1956], [-1.5626, 48.1958], [-1.5612, 48.1977], [-1.561, 48.1979], [-1.5608, 48.1981], [-1.5604, 48.1986], [-1.56, 48.1991], [-1.5599, 48.1992], [-1.5598, 48.1993], [-1.5595, 48.1994], [-1.5577, 48.2004], [-1.5576, 48.2003], [-1.5592, 48.1994], [-1.5594, 48.1994], [-1.5598, 48.1992], [-1.5608, 48.1979], [-1.5611, 48.1976], [-1.5612, 48.1975], [-1.5615, 48.1971], [-1.5626, 48.1956], [-1.5626, 48.1955], [-1.5631, 48.1944], [-1.5634, 48.1939]]], [[[-1.5329, 48.2295], [-1.5327, 48.2301], [-1.5326, 48.2302], [-1.5321, 48.2305], [-1.5321, 48.2304], [-1.5322, 48.2303], [-1.5323, 48.2302], [-1.5325, 48.2301], [-1.5326, 48.23], [-1.5327, 48.2295], [-1.5328, 48.2293], [-1.5329, 48.2291], [-1.5331, 48.2287], [-1.5332, 48.2286], [-1.5332, 48.2286], [-1.5334, 48.2284], [-1.5338, 48.228], [-1.5339, 48.228], [-1.5344, 48.2276], [-1.5347, 48.2274], [-1.5347, 48.2274], [-1.5348, 48.2273], [-1.5355, 48.227], [-1.5356, 48.2269], [-1.5358, 48.2267], [-1.5369, 48.2255], [-1.5375, 48.2247], [-1.5377, 48.2245], [-1.5382, 48.2239], [-1.5386, 48.2234], [-1.5386, 48.2234], [-1.5386, 48.2236], [-1.5364, 48.2262], [-1.536, 48.2266], [-1.5357, 48.227], [-1.5355, 48.2271], [-1.5348, 48.2274], [-1.534, 48.2281], [-1.5339, 48.2281], [-1.5338, 48.2282], [-1.5336, 48.2283], [-1.5335, 48.2285], [-1.5333, 48.2287], [-1.533, 48.2291], [-1.533, 48.2292], [-1.5329, 48.2293], [-1.5329, 48.2295]]], [[[-1.4567, 48.2757], [-1.4569, 48.2758], [-1.4567, 48.2758], [-1.4565, 48.2758], [-1.4563, 48.2759], [-1.4558, 48.2759], [-1.4552, 48.2759], [-1.455, 48.2759], [-1.4549, 48.2759], [-1.4548, 48.2759], [-1.4547, 48.2759], [-1.4543, 48.2758], [-1.4535, 48.2757], [-1.4532, 48.2757], [-1.4529, 48.2757], [-1.4526, 48.2757], [-1.452, 48.2757], [-1.4516, 48.2761], [-1.4512, 48.2765], [-1.4511, 48.2767], [-1.4489, 48.2792], [-1.4488, 48.2791], [-1.4501, 48.2776], [-1.4509, 48.2766], [-1.4519, 48.2756], [-1.4526, 48.2756], [-1.4535, 48.2756], [-1.4542, 48.2757], [-1.4547, 48.2758], [-1.4549, 48.2758], [-1.4551, 48.2758], [-1.4552, 48.2758], [-1.4552, 48.2758], [-1.4564, 48.2758], [-1.4567, 48.2757]]], [[[-1.4981, 48.2786], [-1.4985, 48.2787], [-1.4992, 48.2789], [-1.4994, 48.2789], [-1.5003, 48.279], [-1.5006, 48.279], [-1.5011, 48.279], [-1.5015, 48.2791], [-1.5019, 48.2792], [-1.5024, 48.2794], [-1.5026, 48.2794], [-1.5028, 48.2794], [-1.5029, 48.2793], [-1.5033, 48.279], [-1.5034, 48.2791], [-1.5029, 48.2794], [-1.5026, 48.2795], [-1.5023, 48.2795], [-1.5017, 48.2793], [-1.5014, 48.2792], [-1.5007, 48.2791], [-1.5003, 48.2791], [-1.5002, 48.2791], [-1.4992, 48.279], [-1.4984, 48.2788], [-1.4981, 48.2787], [-1.4974, 48.2786], [-1.4959, 48.2784], [-1.4956, 48.2784], [-1.4946, 48.2784], [-1.4938, 48.2783], [-1.4936, 48.2783], [-1.4928, 48.2784], [-1.4925, 48.2783], [-1.492, 48.2782], [-1.4916, 48.2781], [-1.4912, 48.278], [-1.4911, 48.278], [-1.4909, 48.278], [-1.4906, 48.278], [-1.4904, 48.2781], [-1.4902, 48.2781], [-1.49, 48.2782], [-1.4899, 48.2782], [-1.4896, 48.2782], [-1.4894, 48.2782], [-1.4891, 48.2782], [-1.4885, 48.2781], [-1.4877, 48.2781], [-1.4876, 48.2781], [-1.4873, 48.2782], [-1.4869, 48.2783], [-1.4868, 48.2783], [-1.4862, 48.2783], [-1.4848, 48.2784], [-1.4846, 48.2784], [-1.484, 48.2784], [-1.4833, 48.2782], [-1.4832, 48.2782], [-1.4832, 48.2782], [-1.4831, 48.2782], [-1.4829, 48.2779], [-1.4828, 48.2777], [-1.4827, 48.2775], [-1.4826, 48.2773], [-1.4825, 48.2772], [-1.4824, 48.2772], [-1.4821, 48.2771], [-1.4819, 48.2771], [-1.4812, 48.2769], [-1.4805, 48.277], [-1.479, 48.2772], [-1.4789, 48.2772], [-1.4787, 48.2772], [-1.4784, 48.2771], [-1.4776, 48.2772], [-1.477, 48.2772], [-1.4761, 48.2771], [-1.4759, 48.2771], [-1.4757, 48.2771], [-1.4754, 48.277], [-1.4751, 48.277], [-1.4751, 48.2769], [-1.4756, 48.277], [-1.4758, 48.277], [-1.4761, 48.277], [-1.4766, 48.277], [-1.4771, 48.2771], [-1.4776, 48.2771], [-1.4783, 48.2771], [-1.4786, 48.2771], [-1.479, 48.2771], [-1.4792, 48.2771], [-1.4805, 48.2769], [-1.4808, 48.2769], [-1.4811, 48.2769], [-1.4812, 48.2768], [-1.4819, 48.277], [-1.4825, 48.2771], [-1.4827, 48.2772], [-1.4827, 48.2773], [-1.4828, 48.2774], [-1.4828, 48.2775], [-1.4828, 48.2775], [-1.4831, 48.2779], [-1.4831, 48.278], [-1.4832, 48.2781], [-1.4833, 48.2781], [-1.4841, 48.2783], [-1.4848, 48.2783], [-1.4863, 48.2782], [-1.4869, 48.2782], [-1.4877, 48.278], [-1.4877, 48.278], [-1.4885, 48.278], [-1.4891, 48.2781], [-1.4893, 48.2781], [-1.4897, 48.2781], [-1.4902, 48.2781], [-1.4904, 48.278], [-1.4906, 48.2779], [-1.4913, 48.2779], [-1.492, 48.2781], [-1.4922, 48.2782], [-1.4924, 48.2782], [-1.4926, 48.2783], [-1.4927, 48.2783], [-1.4929, 48.2783], [-1.4937, 48.2783], [-1.4939, 48.2783], [-1.4943, 48.2783], [-1.4957, 48.2783], [-1.4959, 48.2783], [-1.4968, 48.2785], [-1.4981, 48.2786]]]]}, "geometry_name": "the_geom", "properties": {"ID_C": "RBREETAT17DT0350001", "NumAction": "0001", "ID_A": "RBREETAT17DT0350001_0001", "CodeAction": "N23Pi", "TxtAction": "Aménagements artificiels en faveur des espèces justifiant la désignation d’un site", "Quantite": 4, "Unite": "unité", "NbInterv": 1, "MontantAct": 3480.39, "MontantCon": 4224, "CodeHab1": "", "TxtHab1": "", "CodeHab2": "", "TxtHab2": "", "CodeHab3": "", "TxtHab3": "", "CommentHab": "", "CodeEsp1": "1303", "TxtEsp1": "Petit Rhinolphe (Rhinolophus hipposideros)", "CodeEsp2": "1323", "TxtEsp2": "Vespertilion de Bechstein (Myotis bechsteini)", "CodeEsp3": "1324", "TxtEsp3": "Grand Murin (Myotis myotis)", "CommentEsp": "", "Comment": ""}}, {"type": "Feature", "id": "N2000_Action.145", "geometry": {"type": "MultiPolygon", "coordinates": [[[[-1.5634, 48.1939], [-1.5636, 48.1937], [-1.5627, 48.1956], [-1.5626, 48.1958], [-1.5612, 48.1977], [-1.561, 48.1979], [-1.5608, 48.1981], [-1.5604, 48.1986], [-1.56, 48.1991], [-1.5599, 48.1992], [-1.5598, 48.1993], [-1.5595, 48.1994], [-1.5577, 48.2004], [-1.5576, 48.2003], [-1.5592, 48.1994], [-1.5594, 48.1994], [-1.5598, 48.1992], [-1.5608, 48.1979], [-1.5611, 48.1976], [-1.5612, 48.1975], [-1.5615, 48.1971], [-1.5626, 48.1956], [-1.5626, 48.1955], [-1.5631, 48.1944], [-1.5634, 48.1939]]], [[[-1.5329, 48.2295], [-1.5327, 48.2301], [-1.5326, 48.2302], [-1.5321, 48.2305], [-1.5321, 48.2304], [-1.5322, 48.2303], [-1.5323, 48.2302], [-1.5325, 48.2301], [-1.5326, 48.23], [-1.5327, 48.2295], [-1.5328, 48.2293], [-1.5329, 48.2291], [-1.5331, 48.2287], [-1.5332, 48.2286], [-1.5332, 48.2286], [-1.5334, 48.2284], [-1.5338, 48.228], [-1.5339, 48.228], [-1.5344, 48.2276], [-1.5347, 48.2274], [-1.5347, 48.2274], [-1.5348, 48.2273], [-1.5355, 48.227], [-1.5356, 48.2269], [-1.5358, 48.2267], [-1.5369, 48.2255], [-1.5375, 48.2247], [-1.5377, 48.2245], [-1.5382, 48.2239], [-1.5386, 48.2234], [-1.5386, 48.2234], [-1.5386, 48.2236], [-1.5364, 48.2262], [-1.536, 48.2266], [-1.5357, 48.227], [-1.5355, 48.2271], [-1.5348, 48.2274], [-1.534, 48.2281], [-1.5339, 48.2281], [-1.5338, 48.2282], [-1.5336, 48.2283], [-1.5335, 48.2285], [-1.5333, 48.2287], [-1.533, 48.2291], [-1.533, 48.2292], [-1.5329, 48.2293], [-1.5329, 48.2295]]], [[[-1.4567, 48.2757], [-1.4569, 48.2758], [-1.4567, 48.2758], [-1.4565, 48.2758], [-1.4563, 48.2759], [-1.4558, 48.2759], [-1.4552, 48.2759], [-1.455, 48.2759], [-1.4549, 48.2759], [-1.4548, 48.2759], [-1.4547, 48.2759], [-1.4543, 48.2758], [-1.4535, 48.2757], [-1.4532, 48.2757], [-1.4529, 48.2757], [-1.4526, 48.2757], [-1.452, 48.2757], [-1.4516, 48.2761], [-1.4512, 48.2765], [-1.4511, 48.2767], [-1.4489, 48.2792], [-1.4488, 48.2791], [-1.4501, 48.2776], [-1.4509, 48.2766], [-1.4519, 48.2756], [-1.4526, 48.2756], [-1.4535, 48.2756], [-1.4542, 48.2757], [-1.4547, 48.2758], [-1.4549, 48.2758], [-1.4551, 48.2758], [-1.4552, 48.2758], [-1.4552, 48.2758], [-1.4564, 48.2758], [-1.4567, 48.2757]]], [[[-1.4981, 48.2786], [-1.4985, 48.2787], [-1.4992, 48.2789], [-1.4994, 48.2789], [-1.5003, 48.279], [-1.5006, 48.279], [-1.5011, 48.279], [-1.5015, 48.2791], [-1.5019, 48.2792], [-1.5024, 48.2794], [-1.5026, 48.2794], [-1.5028, 48.2794], [-1.5029, 48.2793], [-1.5033, 48.279], [-1.5034, 48.2791], [-1.5029, 48.2794], [-1.5026, 48.2795], [-1.5023, 48.2795], [-1.5017, 48.2793], [-1.5014, 48.2792], [-1.5007, 48.2791], [-1.5003, 48.2791], [-1.5002, 48.2791], [-1.4992, 48.279], [-1.4984, 48.2788], [-1.4981, 48.2787], [-1.4974, 48.2786], [-1.4959, 48.2784], [-1.4956, 48.2784], [-1.4946, 48.2784], [-1.4938, 48.2783], [-1.4936, 48.2783], [-1.4928, 48.2784], [-1.4925, 48.2783], [-1.492, 48.2782], [-1.4916, 48.2781], [-1.4912, 48.278], [-1.4911, 48.278], [-1.4909, 48.278], [-1.4906, 48.278], [-1.4904, 48.2781], [-1.4902, 48.2781], [-1.49, 48.2782], [-1.4899, 48.2782], [-1.4896, 48.2782], [-1.4894, 48.2782], [-1.4891, 48.2782], [-1.4885, 48.2781], [-1.4877, 48.2781], [-1.4876, 48.2781], [-1.4873, 48.2782], [-1.4869, 48.2783], [-1.4868, 48.2783], [-1.4862, 48.2783], [-1.4848, 48.2784], [-1.4846, 48.2784], [-1.484, 48.2784], [-1.4833, 48.2782], [-1.4832, 48.2782], [-1.4832, 48.2782], [-1.4831, 48.2782], [-1.4829, 48.2779], [-1.4828, 48.2777], [-1.4827, 48.2775], [-1.4826, 48.2773], [-1.4825, 48.2772], [-1.4824, 48.2772], [-1.4821, 48.2771], [-1.4819, 48.2771], [-1.4812, 48.2769], [-1.4805, 48.277], [-1.479, 48.2772], [-1.4789, 48.2772], [-1.4787, 48.2772], [-1.4784, 48.2771], [-1.4776, 48.2772], [-1.477, 48.2772], [-1.4761, 48.2771], [-1.4759, 48.2771], [-1.4757, 48.2771], [-1.4754, 48.277], [-1.4751, 48.277], [-1.4751, 48.2769], [-1.4756, 48.277], [-1.4758, 48.277], [-1.4761, 48.277], [-1.4766, 48.277], [-1.4771, 48.2771], [-1.4776, 48.2771], [-1.4783, 48.2771], [-1.4786, 48.2771], [-1.479, 48.2771], [-1.4792, 48.2771], [-1.4805, 48.2769], [-1.4808, 48.2769], [-1.4811, 48.2769], [-1.4812, 48.2768], [-1.4819, 48.277], [-1.4825, 48.2771], [-1.4827, 48.2772], [-1.4827, 48.2773], [-1.4828, 48.2774], [-1.4828, 48.2775], [-1.4828, 48.2775], [-1.4831, 48.2779], [-1.4831, 48.278], [-1.4832, 48.2781], [-1.4833, 48.2781], [-1.4841, 48.2783], [-1.4848, 48.2783], [-1.4863, 48.2782], [-1.4869, 48.2782], [-1.4877, 48.278], [-1.4877, 48.278], [-1.4885, 48.278], [-1.4891, 48.2781], [-1.4893, 48.2781], [-1.4897, 48.2781], [-1.4902, 48.2781], [-1.4904, 48.278], [-1.4906, 48.2779], [-1.4913, 48.2779], [-1.492, 48.2781], [-1.4922, 48.2782], [-1.4924, 48.2782], [-1.4926, 48.2783], [-1.4927, 48.2783], [-1.4929, 48.2783], [-1.4937, 48.2783], [-1.4939, 48.2783], [-1.4943, 48.2783], [-1.4957, 48.2783], [-1.4959, 48.2783], [-1.4968, 48.2785], [-1.4981, 48.2786]]]]}, "geometry_name": "the_geom", "properties": {"ID_C": "RBREETAT17DT0350001", "NumAction": "0002", "ID_A": "RBREETAT17DT0350001_0002", "CodeAction": "N24Pi", "TxtAction": "Travaux de mise en défens et de fermeture ou d’aménagements des accès", "Quantite": 2, "Unite": "unité", "NbInterv": 1, "MontantAct": 1859.16, "MontantCon": 4224, "CodeHab1": "", "TxtHab1": "", "CodeHab2": "", "TxtHab2": "", "CodeHab3": "", "TxtHab3": "", "CommentHab": "", "CodeEsp1": "1303", "TxtEsp1": "Petit Rhinolphe (Rhinolophus hipposideros)", "CodeEsp2": "1323", "TxtEsp2": "Vespertilion de Bechstein (Myotis bechsteini)", "CodeEsp3": "1324", "TxtEsp3": "Grand Murin (Myotis myotis)", "CommentEsp": "", "Comment": ""}}], "totalFeatures": 11, "numberMatched": 11, "numberReturned": 11, "timeStamp": "2026-07-04T17:57:05.448Z", "crs": {"type": "name", "properties": {"name": "urn:ogc:def:crs:EPSG::4326"}}}