{"type": "FeatureCollection", "crs": {"type": "name", "properties": {"name": "urn:ogc:def:crs:OGC:1.3:CRS84"}}, "bbox": [-1.98983, 47.80849, -1.32844, 48.34564], "features": [{"type": "Feature", "properties": {"id_aero": "0005518323_E1", "nom_eolienne": "", "id_parc": "0005518323", "code_insee": "35082", "nom_com": "COESMES", "code_dept": "35", "code_reg": "53", "puissance": 3.0, "ht_totale": 178.5, "ht_mat_nac": 120.0, "d_rotor": 117.0, "cote_ngf": 73.0, "p_allumage": "Jour et Nuit", "p_allum_d": "", "type_feu": "Feux à éclats", "type_feu_d": "", "construct": "NORDEX", "modele": "N117/3000", "x": 368634.22, "y": 6762125.5, "epsg": "2154", "lib_proj": "Lambert-93", "date_maj": "2023/07/21 00:00:00"}, "bbox": [-1.43506, 47.87575, -1.43506, 47.87575], "geometry": {"type": "Point", "coordinates": [-1.43506, 47.87575]}}, {"type": "Feature", "properties": {"id_aero": "0005518323_E2", "nom_eolienne": "", "id_parc": "0005518323", "code_insee": "35082", "nom_com": "COESMES", "code_dept": "35", "code_reg": "53", "puissance": 3.0, "ht_totale": 178.5, "ht_mat_nac": 120.0, "d_rotor": 117.0, "cote_ngf": 75.0, "p_allumage": "Jour et Nuit", "p_allum_d": "", "type_feu": "Feux à éclats", "type_feu_d": "", "construct": "NORDEX", "modele": "N117/3000", "x": 368892.8, "y": 6761842.0, "epsg": "2154", "lib_proj": "Lambert-93", "date_maj": "2023/07/21 00:00:00"}, "bbox": [-1.43139, 47.87333, -1.43139, 47.87333], "geometry": {"type": "Point", "coordinates": [-1.43139, 47.87333]}}, {"type": "Feature", "properties": {"id_aero": "0005518323_E3", "nom_eolienne": "", "id_parc": "0005518323", "code_insee": "35082", "nom_com": "COESMES", "code_dept": "35", "code_reg": "53", "puissance": 3.0, "ht_totale": 178.5, "ht_mat_nac": 120.0, "d_rotor": 117.0, "cote_ngf": 79.0, "p_allumage": "Jour et Nuit", "p_allum_d": "", "type_feu": "Feux à éclats", "type_feu_d": "", "construct": "NORDEX", "modele": "N117/3000", "x": 369126.06, "y": 6761551.0, "epsg": "2154", "lib_proj": "Lambert-93", "date_maj": "2023/07/21 00:00:00"}, "bbox": [-1.42806, 47.87083, -1.42806, 47.87083], "geometry": {"type": "Point", "coordinates": [-1.42806, 47.87083]}}, {"type": "Feature", "properties": {"id_aero": "0005518323_E4", "nom_eolienne": "", "id_parc": "0005518323", "code_insee": "35082", "nom_com": "COESMES", "code_dept": "35", "code_reg": "53", "puissance": 3.0, "ht_totale": 178.5, "ht_mat_nac": 120.0, "d_rotor": 117.0, "cote_ngf": 84.0, "p_allumage": "Jour et Nuit", "p_allum_d": "", "type_feu": "Feux à éclats", "type_feu_d": "", "construct": "NORDEX", "modele": "N117/3000", "x": 369338.56, "y": 6761260.5, "epsg": "2154", "lib_proj": "Lambert-93", "date_maj": "2023/07/21 00:00:00"}, "bbox": [-1.425, 47.86833, -1.425, 47.86833], "geometry": {"type": "Point", "coordinates": [-1.425, 47.86833]}}, {"type": "Feature", "properties": {"id_aero": "0005518323_E5", "nom_eolienne": "", "id_parc": "0005518323", "code_insee": "35082", "nom_com": "COESMES", "code_dept": "35", "code_reg": "53", "puissance": 3.0, "ht_totale": 178.5, "ht_mat_nac": 120.0, "d_rotor": 117.0, "cote_ngf": 83.0, "p_allumage": "Jour et Nuit", "p_allum_d": "", "type_feu": "Feux à éclats", "type_feu_d": "", "construct": "NORDEX", "modele": "N117/3000", "x": 370587.88, "y": 6761283.5, "epsg": "2154", "lib_proj": "Lambert-93", "date_maj": "2023/07/21 00:00:00"}, "bbox": [-1.40833, 47.86917, -1.40833, 47.86917], "geometry": {"type": "Point", "coordinates": [-1.40833, 47.86917]}}, {"type": "Feature", "properties": {"id_aero": "0005518323_E6", "nom_eolienne": "", "id_parc": "0005518323", "code_insee": "35082", "nom_com": "COESMES", "code_dept": "35", "code_reg": "53", "puissance": 3.0, "ht_totale": 178.5, "ht_mat_nac": 120.0, "d_rotor": 117.0, "cote_ngf": 81.0, "p_allumage": "Jour et Nuit", "p_allum_d": "", "type_feu": "Feux à éclats", "type_feu_d": "", "construct": "NORDEX", "modele": "N117/3000", "x": 370698.5, "y": 6761030.0, "epsg": "2154", "lib_proj": "Lambert-93", "date_maj": "2023/07/21 00:00:00"}, "bbox": [-1.40667, 47.86694, -1.40667, 47.86694], "geometry": {"type": "Point", "coordinates": [-1.40667, 47.86694]}}, {"type": "Feature", "properties": {"id_aero": "0005519489_E4", "nom_eolienne": "E5 - 253865", "id_parc": "0005519489", "code_insee": "35233", "nom_com": "QUEBRIAC", "code_dept": "35", "code_reg": "53", "puissance": 2.0, "ht_totale": 150.0, "ht_mat_nac": 100.0, "d_rotor": 100.0, "cote_ngf": 232.0, "p_allumage": "Jour et Nuit", "p_allum_d": "", "type_feu": "Feux à éclats", "type_feu_d": "", "construct": "VESTAS", "modele": "V100-2.0MW", "x": 345232.0, "y": 6815308.0, "epsg": "2154", "lib_proj": "Lambert-93", "date_maj": "2025/05/08 00:00:00"}, "bbox": [-1.79067, 48.3412, -1.79067, 48.3412], "geometry": {"type": "Point", "coordinates": [-1.79067, 48.3412]}}, {"type": "Feature", "properties": {"id_aero": "0005518628_E1", "nom_eolienne": "E1", "id_parc": "0005518628", "code_insee": "35343", "nom_com": "TRESBOEUF", "code_dept": "35", "code_reg": "53", "puissance": 0.85, "ht_totale": 99.7, "ht_mat_nac": 74.25, "d_rotor": 53.0, "cote_ngf": 89.0, "p_allumage": "Jour et Nuit", "p_allum_d": "", "type_feu": "Feux à éclats", "type_feu_d": "", "construct": "ENERCON", "modele": "E-53", "x": 359577.34, "y": 6764140.5, "epsg": "2154", "lib_proj": "Lambert-93", "date_maj": "2024/10/23 00:00:00"}, "bbox": [-1.55756, 47.88922, -1.55756, 47.88922], "geometry": {"type": "Point", "coordinates": [-1.55756, 47.88922]}}, {"type": "Feature", "properties": {"id_aero": "0005503449_E1", "nom_eolienne": "", "id_parc": "0005503449", "code_insee": "35068", "nom_com": "CHATEAUBOURG", "code_dept": "35", "code_reg": "53", "puissance": 0.8, "ht_totale": 99.7, "ht_mat_nac": 73.0, "d_rotor": 53.0, "cote_ngf": 74.0, "p_allumage": "Jour et Nuit", "p_allum_d": "", "type_feu": "Feux à éclats", "type_feu_d": "", "construct": "ENERCON", "modele": "E-53", "x": 371155.0, "y": 6786614.0, "epsg": "2154", "lib_proj": "Lambert-93", "date_maj": "2024/10/23 00:00:00"}, "bbox": [-1.41971, 48.09705, -1.41971, 48.09705], "geometry": {"type": "Point", "coordinates": [-1.41971, 48.09705]}}, {"type": "Feature", "properties": {"id_aero": "0005517971_E1", "nom_eolienne": "", "id_parc": "0005517971", "code_insee": "35332", "nom_com": "TEILLAY", "code_dept": "35", "code_reg": "53", "puissance": 2.0, "ht_totale": 121.0, "ht_mat_nac": 83.5, "d_rotor": 97.0, "cote_ngf": 92.0, "p_allumage": "Jour et Nuit", "p_allum_d": "", "type_feu": "Feux à éclats", "type_feu_d": "", "construct": "SGRE", "modele": "G97-2MW", "x": 362231.22, "y": 6756354.0, "epsg": "2154", "lib_proj": "Lambert-93", "date_maj": "2023/07/21 00:00:00"}, "bbox": [-1.51616, 47.82062, -1.51616, 47.82062], "geometry": {"type": "Point", "coordinates": [-1.51616, 47.82062]}}, {"type": "Feature", "properties": {"id_aero": "0005517971_E4", "nom_eolienne": "", "id_parc": "0005517971", "code_insee": "35332", "nom_com": "TEILLAY", "code_dept": "35", "code_reg": "53", "puissance": 2.0, "ht_totale": 121.0, "ht_mat_nac": 83.5, "d_rotor": 97.0, "cote_ngf": 75.0, "p_allumage": "Jour et Nuit", "p_allum_d": "", "type_feu": "Feux à éclats", "type_feu_d": "", "construct": "SGRE", "modele": "G97-2MW", "x": 363962.16, "y": 6756512.0, "epsg": "2154", "lib_proj": "Lambert-93", "date_maj": "2023/07/21 00:00:00"}, "bbox": [-1.49318, 47.82293, -1.49318, 47.82293], "geometry": {"type": "Point", "coordinates": [-1.49318, 47.82293]}}, {"type": "Feature", "properties": {"id_aero": "0005517971_E2", "nom_eolienne": "", "id_parc": "0005517971", "code_insee": "35332", "nom_com": "TEILLAY", "code_dept": "35", "code_reg": "53", "puissance": 2.0, "ht_totale": 121.0, "ht_mat_nac": 83.5, "d_rotor": 97.0, "cote_ngf": 88.0, "p_allumage": "Jour et Nuit", "p_allum_d": "", "type_feu": "Feux à éclats", "type_feu_d": "", "construct": "SGRE", "modele": "G97-2MW", "x": 362890.97, "y": 6756362.0, "epsg": "2154", "lib_proj": "Lambert-93", "date_maj": "2023/07/21 00:00:00"}, "bbox": [-1.50736, 47.82104, -1.50736, 47.82104], "geometry": {"type": "Point", "coordinates": [-1.50736, 47.82104]}}, {"type": "Feature", "properties": {"id_aero": "0005517971_E3", "nom_eolienne": "", "id_parc": "0005517971", "code_insee": "35332", "nom_com": "TEILLAY", "code_dept": "35", "code_reg": "53", "puissance": 2.0, "ht_totale": 121.0, "ht_mat_nac": 83.5, "d_rotor": 97.0, "cote_ngf": 81.0, "p_allumage": "Jour et Nuit", "p_allum_d": "", "type_feu": "Feux à éclats", "type_feu_d": "", "construct": "SGRE", "modele": "G97-2MW", "x": 363393.78, "y": 6756564.5, "epsg": "2154", "lib_proj": "Lambert-93", "date_maj": "2023/07/21 00:00:00"}, "bbox": [-1.50081, 47.82311, -1.50081, 47.82311], "geometry": {"type": "Point", "coordinates": [-1.50081, 47.82311]}}, {"type": "Feature", "properties": {"id_aero": "0005520765_E3", "nom_eolienne": "0005520765_E3", "id_parc": "0005520765", "code_insee": "35167", "nom_com": "MARTIGNE-FERCHAUD", "code_dept": "35", "code_reg": "53", "puissance": 3.6, "ht_totale": 178.5, "ht_mat_nac": 120.0, "d_rotor": 117.0, "cote_ngf": 86.0, "p_allumage": "Jour et Nuit", "p_allum_d": "", "type_feu": "Feux à éclats", "type_feu_d": "", "construct": "NORDEX", "modele": "N117/3600", "x": 371384.0, "y": 6758142.0, "epsg": "2154", "lib_proj": "Lambert-93", "date_maj": "2025/02/08 00:00:00"}, "bbox": [-1.39536, 47.84134, -1.39536, 47.84134], "geometry": {"type": "Point", "coordinates": [-1.39536, 47.84134]}}, {"type": "Feature", "properties": {"id_aero": "0005520765_E4", "nom_eolienne": "0005520765_E4", "id_parc": "0005520765", "code_insee": "35167", "nom_com": "MARTIGNE-FERCHAUD", "code_dept": "35", "code_reg": "53", "puissance": 3.6, "ht_totale": 178.5, "ht_mat_nac": 120.0, "d_rotor": 117.0, "cote_ngf": 84.0, "p_allumage": "Jour et Nuit", "p_allum_d": "", "type_feu": "Feux à éclats", "type_feu_d": "", "construct": "NORDEX", "modele": "N117/3600", "x": 371780.0, "y": 6758330.0, "epsg": "2154", "lib_proj": "Lambert-93", "date_maj": "2025/02/08 00:00:00"}, "bbox": [-1.39022, 47.84322, -1.39022, 47.84322], "geometry": {"type": "Point", "coordinates": [-1.39022, 47.84322]}}, {"type": "Feature", "properties": {"id_aero": "0005520765_E2", "nom_eolienne": "0005520765_E2", "id_parc": "0005520765", "code_insee": "35167", "nom_com": "MARTIGNE-FERCHAUD", "code_dept": "35", "code_reg": "53", "puissance": 3.6, "ht_totale": 178.5, "ht_mat_nac": 120.0, "d_rotor": 117.0, "cote_ngf": 80.0, "p_allumage": "Jour et Nuit", "p_allum_d": "", "type_feu": "Feux à éclats", "type_feu_d": "", "construct": "NORDEX", "modele": "N117/3600", "x": 371394.0, "y": 6758739.0, "epsg": "2154", "lib_proj": "Lambert-93", "date_maj": "2025/02/08 00:00:00"}, "bbox": [-1.39567, 47.84671, -1.39567, 47.84671], "geometry": {"type": "Point", "coordinates": [-1.39567, 47.84671]}}, {"type": "Feature", "properties": {"id_aero": "0005520765_E1", "nom_eolienne": "0005520765_E1", "id_parc": "0005520765", "code_insee": "35082", "nom_com": "COESMES", "code_dept": "35", "code_reg": "53", "puissance": 3.6, "ht_totale": 178.5, "ht_mat_nac": 120.0, "d_rotor": 117.0, "cote_ngf": 75.0, "p_allumage": "Jour et Nuit", "p_allum_d": "", "type_feu": "Feux à éclats", "type_feu_d": "", "construct": "NORDEX", "modele": "N117/3600", "x": 371041.0, "y": 6758926.0, "epsg": "2154", "lib_proj": "Lambert-93", "date_maj": "2025/02/08 00:00:00"}, "bbox": [-1.40053, 47.84821, -1.40053, 47.84821], "geometry": {"type": "Point", "coordinates": [-1.40053, 47.84821]}}, {"type": "Feature", "properties": {"id_aero": "0006309777_E1", "nom_eolienne": "E1-89746", "id_parc": "0006309777", "code_insee": "44146", "nom_com": "ROUGE", "code_dept": "44", "code_reg": "52", "puissance": 3.0, "ht_totale": 149.5, "ht_mat_nac": 91.0, "d_rotor": 117.0, "cote_ngf": 100.08, "p_allumage": "Jour et Nuit", "p_allum_d": "", "type_feu": "Feux à éclats", "type_feu_d": "", "construct": "NORDEX", "modele": "N117/3000 Controlled", "x": 367661.62, "y": 6754785.0, "epsg": "2154", "lib_proj": "Lambert-93", "date_maj": "2023/07/21 00:00:00"}, "bbox": [-1.44252, 47.8093, -1.44252, 47.8093], "geometry": {"type": "Point", "coordinates": [-1.44252, 47.8093]}}, {"type": "Feature", "properties": {"id_aero": "0006309777_E2", "nom_eolienne": "E2-89747", "id_parc": "0006309777", "code_insee": "44146", "nom_com": "ROUGE", "code_dept": "44", "code_reg": "52", "puissance": 3.0, "ht_totale": 149.5, "ht_mat_nac": 91.0, "d_rotor": 117.0, "cote_ngf": 103.42, "p_allumage": "Jour", "p_allum_d": "", "type_feu": "Feux à éclats", "type_feu_d": "", "construct": "NORDEX", "modele": "N117/3000 Controlled", "x": 368002.56, "y": 6754729.0, "epsg": "2154", "lib_proj": "Lambert-93", "date_maj": "2023/07/21 00:00:00"}, "bbox": [-1.43793, 47.80897, -1.43793, 47.80897], "geometry": {"type": "Point", "coordinates": [-1.43793, 47.80897]}}, {"type": "Feature", "properties": {"id_aero": "0006309777_E3", "nom_eolienne": "E3-89748", "id_parc": "0006309777", "code_insee": "44146", "nom_com": "ROUGE", "code_dept": "44", "code_reg": "52", "puissance": 3.0, "ht_totale": 149.5, "ht_mat_nac": 91.0, "d_rotor": 117.0, "cote_ngf": 105.59, "p_allumage": "Jour et Nuit", "p_allum_d": "", "type_feu": "Feux à éclats", "type_feu_d": "", "construct": "NORDEX", "modele": "N117/3000 Controlled", "x": 368438.25, "y": 6754651.5, "epsg": "2154", "lib_proj": "Lambert-93", "date_maj": "2023/07/21 00:00:00"}, "bbox": [-1.43206, 47.80849, -1.43206, 47.80849], "geometry": {"type": "Point", "coordinates": [-1.43206, 47.80849]}}, {"type": "Feature", "properties": {"id_aero": "0005522404_E1", "nom_eolienne": "", "id_parc": "0005522404", "code_insee": "35001", "nom_com": "ACIGNE", "code_dept": "35", "code_reg": "53", "puissance": 3.6, "ht_totale": 180.0, "ht_mat_nac": 118.0, "d_rotor": 131.0, "cote_ngf": 82.0, "p_allumage": "Jour et Nuit", "p_allum_d": "", "type_feu": "Feux à éclats", "type_feu_d": "", "construct": "NORDEX", "modele": "N131/3600", "x": 362022.0, "y": 6794477.0, "epsg": "2154", "lib_proj": "Lambert-93", "date_maj": "2023/07/21 00:00:00"}, "bbox": [-1.54828, 48.16303, -1.54828, 48.16303], "geometry": {"type": "Point", "coordinates": [-1.54828, 48.16303]}}, {"type": "Feature", "properties": {"id_aero": "0005522404_E2", "nom_eolienne": "", "id_parc": "0005522404", "code_insee": "35001", "nom_com": "ACIGNE", "code_dept": "35", "code_reg": "53", "puissance": 3.6, "ht_totale": 180.0, "ht_mat_nac": 118.0, "d_rotor": 131.0, "cote_ngf": 81.0, "p_allumage": "Jour et Nuit", "p_allum_d": "", "type_feu": "Feux à éclats", "type_feu_d": "", "construct": "NORDEX", "modele": "N131/3600", "x": 362360.0, "y": 6794475.0, "epsg": "2154", "lib_proj": "Lambert-93", "date_maj": "2023/07/21 00:00:00"}, "bbox": [-1.54374, 48.16318, -1.54374, 48.16318], "geometry": {"type": "Point", "coordinates": [-1.54374, 48.16318]}}, {"type": "Feature", "properties": {"id_aero": "0005522404_E3", "nom_eolienne": "", "id_parc": "0005522404", "code_insee": "35001", "nom_com": "ACIGNE", "code_dept": "35", "code_reg": "53", "puissance": 3.6, "ht_totale": 180.0, "ht_mat_nac": 118.0, "d_rotor": 131.0, "cote_ngf": 47.0, "p_allumage": "Jour et Nuit", "p_allum_d": "", "type_feu": "Feux à éclats", "type_feu_d": "", "construct": "NORDEX", "modele": "N131/3600", "x": 363114.0, "y": 6793842.0, "epsg": "2154", "lib_proj": "Lambert-93", "date_maj": "2023/07/21 00:00:00"}, "bbox": [-1.53312, 48.15789, -1.53312, 48.15789], "geometry": {"type": "Point", "coordinates": [-1.53312, 48.15789]}}, {"type": "Feature", "properties": {"id_aero": "0005517897_E1", "nom_eolienne": "E1", "id_parc": "0005517897", "code_insee": "35218", "nom_com": "LE PETIT FOUGERAY", "code_dept": "35", "code_reg": "53", "puissance": 2.0, "ht_totale": 149.0, "ht_mat_nac": 100.0, "d_rotor": 100.0, "cote_ngf": 110.0, "p_allumage": "Jour et Nuit", "p_allum_d": "", "type_feu": "Feux à éclats", "type_feu_d": "", "construct": "VESTAS", "modele": "V100-2.0MW", "x": 354164.8, "y": 6769682.5, "epsg": "2154", "lib_proj": "Lambert-93", "date_maj": "2024/10/23 00:00:00"}, "bbox": [-1.63421, 47.93617, -1.63421, 47.93617], "geometry": {"type": "Point", "coordinates": [-1.63421, 47.93617]}}, {"type": "Feature", "properties": {"id_aero": "0005517897_E2", "nom_eolienne": "E2", "id_parc": "0005517897", "code_insee": "35218", "nom_com": "LE PETIT FOUGERAY", "code_dept": "35", "code_reg": "53", "puissance": 2.0, "ht_totale": 149.0, "ht_mat_nac": 100.0, "d_rotor": 100.0, "cote_ngf": 109.0, "p_allumage": "Jour et Nuit", "p_allum_d": "", "type_feu": "Feux à éclats", "type_feu_d": "", "construct": "VESTAS", "modele": "V100-2.0MW", "x": 354711.1, "y": 6769713.0, "epsg": "2154", "lib_proj": "Lambert-93", "date_maj": "2024/10/23 00:00:00"}, "bbox": [-1.62693, 47.93674, -1.62693, 47.93674], "geometry": {"type": "Point", "coordinates": [-1.62693, 47.93674]}}, {"type": "Feature", "properties": {"id_aero": "0005517897_E4", "nom_eolienne": "E4", "id_parc": "0005517897", "code_insee": "35218", "nom_com": "LE PETIT FOUGERAY", "code_dept": "35", "code_reg": "53", "puissance": 2.0, "ht_totale": 149.0, "ht_mat_nac": 100.0, "d_rotor": 100.0, "cote_ngf": 111.0, "p_allumage": "Jour et Nuit", "p_allum_d": "", "type_feu": "Feux à éclats", "type_feu_d": "", "construct": "VESTAS", "modele": "V100-2.0MW", "x": 354473.9, "y": 6769336.0, "epsg": "2154", "lib_proj": "Lambert-93", "date_maj": "2024/10/23 00:00:00"}, "bbox": [-1.62981, 47.93322, -1.62981, 47.93322], "geometry": {"type": "Point", "coordinates": [-1.62981, 47.93322]}}, {"type": "Feature", "properties": {"id_aero": "0005517897_E5", "nom_eolienne": "E5", "id_parc": "0005517897", "code_insee": "35218", "nom_com": "LE PETIT FOUGERAY", "code_dept": "35", "code_reg": "53", "puissance": 2.0, "ht_totale": 149.0, "ht_mat_nac": 100.0, "d_rotor": 100.0, "cote_ngf": 110.0, "p_allumage": "Jour et Nuit", "p_allum_d": "", "type_feu": "Feux à éclats", "type_feu_d": "", "construct": "VESTAS", "modele": "V100-2.0MW", "x": 354785.38, "y": 6769310.0, "epsg": "2154", "lib_proj": "Lambert-93", "date_maj": "2024/10/23 00:00:00"}, "bbox": [-1.62562, 47.93315, -1.62562, 47.93315], "geometry": {"type": "Point", "coordinates": [-1.62562, 47.93315]}}, {"type": "Feature", "properties": {"id_aero": "0005517897_E3", "nom_eolienne": "E3", "id_parc": "0005517897", "code_insee": "35218", "nom_com": "LE PETIT FOUGERAY", "code_dept": "35", "code_reg": "53", "puissance": 2.0, "ht_totale": 149.0, "ht_mat_nac": 100.0, "d_rotor": 100.0, "cote_ngf": 107.0, "p_allumage": "Jour et Nuit", "p_allum_d": "", "type_feu": "Feux à éclats", "type_feu_d": "", "construct": "VESTAS", "modele": "V110-2.0MW", "x": 353937.22, "y": 6769319.0, "epsg": "2154", "lib_proj": "Lambert-93", "date_maj": "2024/10/23 00:00:00"}, "bbox": [-1.63697, 47.93279, -1.63697, 47.93279], "geometry": {"type": "Point", "coordinates": [-1.63697, 47.93279]}}, {"type": "Feature", "properties": {"id_aero": "0005517867_E2", "nom_eolienne": "", "id_parc": "0005517867", "code_insee": "35239", "nom_com": "RETIERS", "code_dept": "35", "code_reg": "53", "puissance": 2.3, "ht_totale": 133.7, "ht_mat_nac": 100.7, "d_rotor": 71.0, "cote_ngf": 106.0, "p_allumage": "Jour et Nuit", "p_allum_d": "", "type_feu": "Feux à éclats", "type_feu_d": "", "construct": "ENERCON", "modele": "E-70 E4", "x": 375863.0, "y": 6762216.0, "epsg": "2154", "lib_proj": "Lambert-93", "date_maj": "2023/07/21 00:00:00"}, "bbox": [-1.33857, 47.88017, -1.33857, 47.88017], "geometry": {"type": "Point", "coordinates": [-1.33857, 47.88017]}}, {"type": "Feature", "properties": {"id_aero": "0005517867_E3", "nom_eolienne": "", "id_parc": "0005517867", "code_insee": "35239", "nom_com": "RETIERS", "code_dept": "35", "code_reg": "53", "puissance": 2.3, "ht_totale": 133.7, "ht_mat_nac": 100.7, "d_rotor": 71.0, "cote_ngf": 105.0, "p_allumage": "Jour et Nuit", "p_allum_d": "", "type_feu": "Feux à éclats", "type_feu_d": "", "construct": "ENERCON", "modele": "E-70 E4", "x": 376196.0, "y": 6762115.0, "epsg": "2154", "lib_proj": "Lambert-93", "date_maj": "2023/07/21 00:00:00"}, "bbox": [-1.33405, 47.87943, -1.33405, 47.87943], "geometry": {"type": "Point", "coordinates": [-1.33405, 47.87943]}}, {"type": "Feature", "properties": {"id_aero": "0005517867_E4", "nom_eolienne": "", "id_parc": "0005517867", "code_insee": "35239", "nom_com": "RETIERS", "code_dept": "35", "code_reg": "53", "puissance": 2.3, "ht_totale": 133.7, "ht_mat_nac": 100.7, "d_rotor": 71.0, "cote_ngf": 105.0, "p_allumage": "Jour et Nuit", "p_allum_d": "", "type_feu": "Feux à éclats", "type_feu_d": "", "construct": "ENERCON", "modele": "E-70 E4", "x": 376609.0, "y": 6761988.0, "epsg": "2154", "lib_proj": "Lambert-93", "date_maj": "2023/07/21 00:00:00"}, "bbox": [-1.32844, 47.87849, -1.32844, 47.87849], "geometry": {"type": "Point", "coordinates": [-1.32844, 47.87849]}}, {"type": "Feature", "properties": {"id_aero": "0005517867_E5", "nom_eolienne": "", "id_parc": "0005517867", "code_insee": "35167", "nom_com": "MARTIGNE-FERCHAUD", "code_dept": "35", "code_reg": "53", "puissance": 2.3, "ht_totale": 133.7, "ht_mat_nac": 100.7, "d_rotor": 71.0, "cote_ngf": 98.5, "p_allumage": "Jour et Nuit", "p_allum_d": "", "type_feu": "Feux à éclats", "type_feu_d": "", "construct": "ENERCON", "modele": "E-70 E4", "x": 376564.0, "y": 6761424.0, "epsg": "2154", "lib_proj": "Lambert-93", "date_maj": "2023/07/21 00:00:00"}, "bbox": [-1.32862, 47.8734, -1.32862, 47.8734], "geometry": {"type": "Point", "coordinates": [-1.32862, 47.8734]}}, {"type": "Feature", "properties": {"id_aero": "0005517867_E1", "nom_eolienne": "", "id_parc": "0005517867", "code_insee": "35167", "nom_com": "MARTIGNE-FERCHAUD", "code_dept": "35", "code_reg": "53", "puissance": 2.3, "ht_totale": 133.7, "ht_mat_nac": 100.7, "d_rotor": 71.0, "cote_ngf": 100.0, "p_allumage": "Jour et Nuit", "p_allum_d": "", "type_feu": "Feux à éclats", "type_feu_d": "", "construct": "ENERCON", "modele": "E-70 E4", "x": 376091.0, "y": 6761756.0, "epsg": "2154", "lib_proj": "Lambert-93", "date_maj": "2023/07/21 00:00:00"}, "bbox": [-1.33518, 47.87615, -1.33518, 47.87615], "geometry": {"type": "Point", "coordinates": [-1.33518, 47.87615]}}, {"type": "Feature", "properties": {"id_aero": "0006306606_E2", "nom_eolienne": "", "id_parc": "0006306606", "code_insee": "44200", "nom_com": "SOULVACHE", "code_dept": "44", "code_reg": "52", "puissance": 2.0, "ht_totale": 130.0, "ht_mat_nac": 90.0, "d_rotor": 100.0, "cote_ngf": 100.0, "p_allumage": "Jour et Nuit", "p_allum_d": "", "type_feu": "Feux à éclats", "type_feu_d": "", "construct": "VESTAS", "modele": "V100-2.0MW", "x": 366729.22, "y": 6755419.0, "epsg": "2154", "lib_proj": "Lambert-93", "date_maj": "2024/10/23 00:00:00"}, "bbox": [-1.45544, 47.81452, -1.45544, 47.81452], "geometry": {"type": "Point", "coordinates": [-1.45544, 47.81452]}}, {"type": "Feature", "properties": {"id_aero": "0006306606_E4", "nom_eolienne": "", "id_parc": "0006306606", "code_insee": "44200", "nom_com": "SOULVACHE", "code_dept": "44", "code_reg": "52", "puissance": 2.0, "ht_totale": 130.0, "ht_mat_nac": 90.0, "d_rotor": 100.0, "cote_ngf": 104.0, "p_allumage": "Jour et Nuit", "p_allum_d": "", "type_feu": "Feux à éclats", "type_feu_d": "", "construct": "VESTAS", "modele": "V100-2.0MW", "x": 367349.88, "y": 6755022.5, "epsg": "2154", "lib_proj": "Lambert-93", "date_maj": "2024/10/23 00:00:00"}, "bbox": [-1.44686, 47.81127, -1.44686, 47.81127], "geometry": {"type": "Point", "coordinates": [-1.44686, 47.81127]}}, {"type": "Feature", "properties": {"id_aero": "0006306606_E3", "nom_eolienne": "", "id_parc": "0006306606", "code_insee": "44200", "nom_com": "SOULVACHE", "code_dept": "44", "code_reg": "52", "puissance": 2.0, "ht_totale": 130.0, "ht_mat_nac": 90.0, "d_rotor": 100.0, "cote_ngf": 102.0, "p_allumage": "Jour et Nuit", "p_allum_d": "", "type_feu": "Feux à éclats", "type_feu_d": "", "construct": "VESTAS", "modele": "V100-2.0MW", "x": 367035.84, "y": 6755212.0, "epsg": "2154", "lib_proj": "Lambert-93", "date_maj": "2024/10/23 00:00:00"}, "bbox": [-1.45119, 47.81282, -1.45119, 47.81282], "geometry": {"type": "Point", "coordinates": [-1.45119, 47.81282]}}, {"type": "Feature", "properties": {"id_aero": "0006306606_E1", "nom_eolienne": "", "id_parc": "0006306606", "code_insee": "44200", "nom_com": "SOULVACHE", "code_dept": "44", "code_reg": "52", "puissance": 2.0, "ht_totale": 130.0, "ht_mat_nac": 90.0, "d_rotor": 100.0, "cote_ngf": 95.0, "p_allumage": "Jour et Nuit", "p_allum_d": "", "type_feu": "Feux à éclats", "type_feu_d": "", "construct": "VESTAS", "modele": "V100-2.0MW", "x": 366418.88, "y": 6755616.5, "epsg": "2154", "lib_proj": "Lambert-93", "date_maj": "2024/10/23 00:00:00"}, "bbox": [-1.45973, 47.81614, -1.45973, 47.81614], "geometry": {"type": "Point", "coordinates": [-1.45973, 47.81614]}}, {"type": "Feature", "properties": {"id_aero": "0100043784_E1", "nom_eolienne": "E1", "id_parc": "0100043784", "code_insee": "35332", "nom_com": "TEILLAY", "code_dept": "35", "code_reg": "53", "puissance": 4.5, "ht_totale": 165.0, "ht_mat_nac": 97.0, "d_rotor": 136.0, "cote_ngf": 86.5, "p_allumage": "Jour et Nuit", "p_allum_d": "", "type_feu": "Feux à éclats", "type_feu_d": "", "construct": "VESTAS", "modele": "V136", "x": 363205.0, "y": 6756074.0, "epsg": "2154", "lib_proj": "Lambert-93", "date_maj": "2024/10/23 00:00:00"}, "bbox": [-1.50295, 47.81861, -1.50295, 47.81861], "geometry": {"type": "Point", "coordinates": [-1.50295, 47.81861]}}, {"type": "Feature", "properties": {"id_aero": "0100043784_E2", "nom_eolienne": "E2", "id_parc": "0100043784", "code_insee": "35332", "nom_com": "TEILLAY", "code_dept": "35", "code_reg": "53", "puissance": 4.5, "ht_totale": 165.0, "ht_mat_nac": 97.0, "d_rotor": 136.0, "cote_ngf": 84.2, "p_allumage": "Jour et Nuit", "p_allum_d": "", "type_feu": "Feux à éclats", "type_feu_d": "", "construct": "VESTAS", "modele": "V136", "x": 364468.0, "y": 6756110.0, "epsg": "2154", "lib_proj": "Lambert-93", "date_maj": "2024/10/23 00:00:00"}, "bbox": [-1.48613, 47.81958, -1.48613, 47.81958], "geometry": {"type": "Point", "coordinates": [-1.48613, 47.81958]}}, {"type": "Feature", "properties": {"id_aero": "0005518628_E3", "nom_eolienne": "E3", "id_parc": "0005518628", "code_insee": "35343", "nom_com": "TRESBOEUF", "code_dept": "35", "code_reg": "53", "puissance": 0.85, "ht_totale": 99.7, "ht_mat_nac": 74.25, "d_rotor": 53.0, "cote_ngf": 96.0, "p_allumage": "Jour et Nuit", "p_allum_d": "", "type_feu": "Feux à éclats", "type_feu_d": "", "construct": "ENERCON", "modele": "E-53", "x": 359464.6, "y": 6764774.0, "epsg": "2154", "lib_proj": "Lambert-93", "date_maj": "2024/10/23 00:00:00"}, "bbox": [-1.55956, 47.89485, -1.55956, 47.89485], "geometry": {"type": "Point", "coordinates": [-1.55956, 47.89485]}}, {"type": "Feature", "properties": {"id_aero": "0005518628_E4", "nom_eolienne": "E4", "id_parc": "0005518628", "code_insee": "35343", "nom_com": "TRESBOEUF", "code_dept": "35", "code_reg": "53", "puissance": 0.85, "ht_totale": 99.7, "ht_mat_nac": 74.25, "d_rotor": 53.0, "cote_ngf": 101.0, "p_allumage": "Jour et Nuit", "p_allum_d": "", "type_feu": "Feux à éclats", "type_feu_d": "", "construct": "ENERCON", "modele": "E-53", "x": 359331.7, "y": 6765151.5, "epsg": "2154", "lib_proj": "Lambert-93", "date_maj": "2024/10/23 00:00:00"}, "bbox": [-1.56163, 47.89817, -1.56163, 47.89817], "geometry": {"type": "Point", "coordinates": [-1.56163, 47.89817]}}, {"type": "Feature", "properties": {"id_aero": "0005518628_E2", "nom_eolienne": "E2", "id_parc": "0005518628", "code_insee": "35343", "nom_com": "TRESBOEUF", "code_dept": "35", "code_reg": "53", "puissance": 0.85, "ht_totale": 99.7, "ht_mat_nac": 74.25, "d_rotor": 53.0, "cote_ngf": 88.0, "p_allumage": "Jour et Nuit", "p_allum_d": "", "type_feu": "Feux à éclats", "type_feu_d": "", "construct": "ENERCON", "modele": "E-53", "x": 359526.97, "y": 6764459.5, "epsg": "2154", "lib_proj": "Lambert-93", "date_maj": "2024/10/23 00:00:00"}, "bbox": [-1.55848, 47.89206, -1.55848, 47.89206], "geometry": {"type": "Point", "coordinates": [-1.55848, 47.89206]}}, {"type": "Feature", "properties": {"id_aero": "0005521294_E1", "nom_eolienne": "", "id_parc": "0005521294", "code_insee": "35187", "nom_com": "MONTERFIL", "code_dept": "35", "code_reg": "53", "puissance": 3.68, "ht_totale": 178.5, "ht_mat_nac": 122.0, "d_rotor": 117.0, "cote_ngf": 94.0, "p_allumage": "Jour et Nuit", "p_allum_d": "", "type_feu": "Feux à éclats", "type_feu_d": "", "construct": "NORDEX", "modele": "N117 3675", "x": 328412.0, "y": 6783178.0, "epsg": "2154", "lib_proj": "Lambert-93", "date_maj": "2024/10/23 00:00:00"}, "bbox": [-1.98983, 48.04328, -1.98983, 48.04328], "geometry": {"type": "Point", "coordinates": [-1.98983, 48.04328]}}, {"type": "Feature", "properties": {"id_aero": "0005521294_E2", "nom_eolienne": "", "id_parc": "0005521294", "code_insee": "35187", "nom_com": "MONTERFIL", "code_dept": "35", "code_reg": "53", "puissance": 3.68, "ht_totale": 178.5, "ht_mat_nac": 122.0, "d_rotor": 117.0, "cote_ngf": 110.0, "p_allumage": "Jour et Nuit", "p_allum_d": "", "type_feu": "Feux à éclats", "type_feu_d": "", "construct": "NORDEX", "modele": "N117 3675", "x": 328832.0, "y": 6783187.0, "epsg": "2154", "lib_proj": "Lambert-93", "date_maj": "2024/10/23 00:00:00"}, "bbox": [-1.98421, 48.0436, -1.98421, 48.0436], "geometry": {"type": "Point", "coordinates": [-1.98421, 48.0436]}}, {"type": "Feature", "properties": {"id_aero": "0005521294_E3", "nom_eolienne": "", "id_parc": "0005521294", "code_insee": "35187", "nom_com": "MONTERFIL", "code_dept": "35", "code_reg": "53", "puissance": 3.68, "ht_totale": 178.5, "ht_mat_nac": 122.0, "d_rotor": 117.0, "cote_ngf": 85.0, "p_allumage": "Jour et Nuit", "p_allum_d": "", "type_feu": "Feux à éclats", "type_feu_d": "", "construct": "NORDEX", "modele": "N117 3675", "x": 329226.0, "y": 6783346.0, "epsg": "2154", "lib_proj": "Lambert-93", "date_maj": "2024/10/23 00:00:00"}, "bbox": [-1.97907, 48.04525, -1.97907, 48.04525], "geometry": {"type": "Point", "coordinates": [-1.97907, 48.04525]}}, {"type": "Feature", "properties": {"id_aero": "0005519264_E2", "nom_eolienne": "E2", "id_parc": "0005519264", "code_insee": "35337", "nom_com": "TINTENIAC", "code_dept": "35", "code_reg": "53", "puissance": 3.0, "ht_totale": 150.0, "ht_mat_nac": 216.0, "d_rotor": 117.0, "cote_ngf": 71.0, "p_allumage": "Jour et Nuit", "p_allum_d": "", "type_feu": "Feux à éclats", "type_feu_d": "", "construct": "NORDEX", "modele": "N117/3000 Controlled", "x": 344494.0, "y": 6814207.0, "epsg": "2154", "lib_proj": "Lambert-93", "date_maj": "2025/03/06 00:00:00"}, "bbox": [-1.79971, 48.33091, -1.79971, 48.33091], "geometry": {"type": "Point", "coordinates": [-1.79971, 48.33091]}}, {"type": "Feature", "properties": {"id_aero": "0005519264_E3", "nom_eolienne": "E3", "id_parc": "0005519264", "code_insee": "35094", "nom_com": "DINGE", "code_dept": "35", "code_reg": "53", "puissance": 3.0, "ht_totale": 150.0, "ht_mat_nac": 230.0, "d_rotor": 117.0, "cote_ngf": 80.0, "p_allumage": "Jour et Nuit", "p_allum_d": "", "type_feu": "Feux à éclats", "type_feu_d": "", "construct": "NORDEX", "modele": "N117/3000 Controlled", "x": 345742.0, "y": 6815303.0, "epsg": "2154", "lib_proj": "Lambert-93", "date_maj": "2025/03/06 00:00:00"}, "bbox": [-1.7838, 48.34143, -1.7838, 48.34143], "geometry": {"type": "Point", "coordinates": [-1.7838, 48.34143]}}, {"type": "Feature", "properties": {"id_aero": "0005519264_E4", "nom_eolienne": "E4", "id_parc": "0005519264", "code_insee": "35337", "nom_com": "TINTENIAC", "code_dept": "35", "code_reg": "53", "puissance": 3.0, "ht_totale": 150.0, "ht_mat_nac": 227.0, "d_rotor": 117.0, "cote_ngf": 77.0, "p_allumage": "Jour et Nuit", "p_allum_d": "", "type_feu": "Feux à éclats", "type_feu_d": "", "construct": "NORDEX", "modele": "N117/3000 Controlled", "x": 345497.0, "y": 6814856.0, "epsg": "2154", "lib_proj": "Lambert-93", "date_maj": "2025/03/06 00:00:00"}, "bbox": [-1.78673, 48.33728, -1.78673, 48.33728], "geometry": {"type": "Point", "coordinates": [-1.78673, 48.33728]}}, {"type": "Feature", "properties": {"id_aero": "0005519264_E1", "nom_eolienne": "E1", "id_parc": "0005519264", "code_insee": "35337", "nom_com": "TINTENIAC", "code_dept": "35", "code_reg": "53", "puissance": 3.0, "ht_totale": 150.0, "ht_mat_nac": 206.5, "d_rotor": 117.0, "cote_ngf": 56.5, "p_allumage": "Jour et Nuit", "p_allum_d": "", "type_feu": "Feux à éclats", "type_feu_d": "", "construct": "NORDEX", "modele": "N117/3000 Controlled", "x": 343973.0, "y": 6814370.0, "epsg": "2154", "lib_proj": "Lambert-93", "date_maj": "2025/03/06 00:00:00"}, "bbox": [-1.80686, 48.33209, -1.80686, 48.33209], "geometry": {"type": "Point", "coordinates": [-1.80686, 48.33209]}}, {"type": "Feature", "properties": {"id_aero": "0005517854_E2", "nom_eolienne": "E2", "id_parc": "0005517854", "code_insee": "35221", "nom_com": "PLECHATEL", "code_dept": "35", "code_reg": "53", "puissance": 1.0, "ht_totale": 98.0, "ht_mat_nac": 68.0, "d_rotor": 64.0, "cote_ngf": 107.0, "p_allumage": "Jour et Nuit", "p_allum_d": "", "type_feu": "Feux à éclats", "type_feu_d": "", "construct": "winwind", "modele": "WWD1", "x": 344039.0, "y": 6761261.0, "epsg": "2154", "lib_proj": "Lambert-93", "date_maj": "2024/10/23 00:00:00"}, "bbox": [-1.76277, 47.8551, -1.76277, 47.8551], "geometry": {"type": "Point", "coordinates": [-1.76277, 47.8551]}}, {"type": "Feature", "properties": {"id_aero": "0005517854_E3", "nom_eolienne": "E3", "id_parc": "0005517854", "code_insee": "35221", "nom_com": "PLECHATEL", "code_dept": "35", "code_reg": "53", "puissance": 1.0, "ht_totale": 98.0, "ht_mat_nac": 68.0, "d_rotor": 64.0, "cote_ngf": 112.0, "p_allumage": "Jour et Nuit", "p_allum_d": "", "type_feu": "Feux fixes", "type_feu_d": "", "construct": "winwind", "modele": "wwd1", "x": 344191.0, "y": 6761164.0, "epsg": "2154", "lib_proj": "Lambert-93", "date_maj": "2024/10/23 00:00:00"}, "bbox": [-1.76067, 47.85431, -1.76067, 47.85431], "geometry": {"type": "Point", "coordinates": [-1.76067, 47.85431]}}, {"type": "Feature", "properties": {"id_aero": "0005517854_E4", "nom_eolienne": "E4", "id_parc": "0005517854", "code_insee": "35221", "nom_com": "PLECHATEL", "code_dept": "35", "code_reg": "53", "puissance": 1.0, "ht_totale": 98.0, "ht_mat_nac": 68.0, "d_rotor": 64.0, "cote_ngf": 110.0, "p_allumage": "Jour et Nuit", "p_allum_d": "", "type_feu": "Feux fixes", "type_feu_d": "", "construct": "Winwind", "modele": "WWD1", "x": 344357.0, "y": 6761047.0, "epsg": "2154", "lib_proj": "Lambert-93", "date_maj": "2024/10/23 00:00:00"}, "bbox": [-1.75836, 47.85335, -1.75836, 47.85335], "geometry": {"type": "Point", "coordinates": [-1.75836, 47.85335]}}, {"type": "Feature", "properties": {"id_aero": "0005517854_E1", "nom_eolienne": "E1", "id_parc": "0005517854", "code_insee": "35221", "nom_com": "PLECHATEL", "code_dept": "35", "code_reg": "53", "puissance": 1.0, "ht_totale": 98.0, "ht_mat_nac": 68.0, "d_rotor": 64.0, "cote_ngf": 100.0, "p_allumage": "Jour et Nuit", "p_allum_d": "", "type_feu": "Feux à éclats", "type_feu_d": "", "construct": "Winwind", "modele": "WWD1", "x": 343889.0, "y": 6761359.0, "epsg": "2154", "lib_proj": "Lambert-93", "date_maj": "2024/10/23 00:00:00"}, "bbox": [-1.76486, 47.8559, -1.76486, 47.8559], "geometry": {"type": "Point", "coordinates": [-1.76486, 47.8559]}}, {"type": "Feature", "properties": {"id_aero": "0005519489_E3", "nom_eolienne": "E4 - 253864", "id_parc": "0005519489", "code_insee": "35233", "nom_com": "QUEBRIAC", "code_dept": "35", "code_reg": "53", "puissance": 2.0, "ht_totale": 150.0, "ht_mat_nac": 100.0, "d_rotor": 100.0, "cote_ngf": 222.0, "p_allumage": "Jour et Nuit", "p_allum_d": "", "type_feu": "Feux à éclats", "type_feu_d": "", "construct": "VESTAS", "modele": "V100-2.0MW", "x": 344682.0, "y": 6815327.0, "epsg": "2154", "lib_proj": "Lambert-93", "date_maj": "2025/05/08 00:00:00"}, "bbox": [-1.7981, 48.34107, -1.7981, 48.34107], "geometry": {"type": "Point", "coordinates": [-1.7981, 48.34107]}}, {"type": "Feature", "properties": {"id_aero": "0005519489_E1", "nom_eolienne": "E1- 253862", "id_parc": "0005519489", "code_insee": "35233", "nom_com": "QUEBRIAC", "code_dept": "35", "code_reg": "53", "puissance": 2.0, "ht_totale": 150.0, "ht_mat_nac": 100.0, "d_rotor": 100.0, "cote_ngf": 225.0, "p_allumage": "Jour et Nuit", "p_allum_d": "", "type_feu": "Feux à éclats", "type_feu_d": "", "construct": "VESTAS", "modele": "V100-2.0MW", "x": 344837.0, "y": 6815792.0, "epsg": "2154", "lib_proj": "Lambert-93", "date_maj": "2025/05/08 00:00:00"}, "bbox": [-1.79639, 48.34533, -1.79639, 48.34533], "geometry": {"type": "Point", "coordinates": [-1.79639, 48.34533]}}, {"type": "Feature", "properties": {"id_aero": "0005519489_E2", "nom_eolienne": "E2 - 253863", "id_parc": "0005519489", "code_insee": "35233", "nom_com": "QUEBRIAC", "code_dept": "35", "code_reg": "53", "puissance": 2.0, "ht_totale": 150.0, "ht_mat_nac": 100.0, "d_rotor": 100.0, "cote_ngf": 228.0, "p_allumage": "Jour et Nuit", "p_allum_d": "", "type_feu": "Feux à éclats", "type_feu_d": "", "construct": "VESTAS", "modele": "V100-2.0MW", "x": 345232.0, "y": 6815802.0, "epsg": "2154", "lib_proj": "Lambert-93", "date_maj": "2025/05/08 00:00:00"}, "bbox": [-1.79108, 48.34564, -1.79108, 48.34564], "geometry": {"type": "Point", "coordinates": [-1.79108, 48.34564]}}, {"type": "Feature", "properties": {"id_aero": "0005521516_E1", "nom_eolienne": "", "id_parc": "0005521516", "code_insee": "35176", "nom_com": "GUIPRY-MESSAC", "code_dept": "35", "code_reg": "53", "puissance": 4.2, "ht_totale": 180.0, "ht_mat_nac": 112.0, "d_rotor": 136.0, "cote_ngf": 21.0, "p_allumage": "Jour et Nuit", "p_allum_d": "", "type_feu": "Feux à éclats", "type_feu_d": "", "construct": "VESTAS", "modele": "V136-4.2MW", "x": 342996.0, "y": 6757060.0, "epsg": "2154", "lib_proj": "Lambert-93", "date_maj": "2024/10/23 00:00:00"}, "bbox": [-1.7733, 47.81679, -1.7733, 47.81679], "geometry": {"type": "Point", "coordinates": [-1.7733, 47.81679]}}, {"type": "Feature", "properties": {"id_aero": "0005521516_E2", "nom_eolienne": "", "id_parc": "0005521516", "code_insee": "35202", "nom_com": "LA NOE-BLANCHE", "code_dept": "35", "code_reg": "53", "puissance": 4.2, "ht_totale": 180.0, "ht_mat_nac": 112.0, "d_rotor": 136.0, "cote_ngf": 24.0, "p_allumage": "Jour et Nuit", "p_allum_d": "", "type_feu": "Feux à éclats", "type_feu_d": "", "construct": "VESTAS", "modele": "V136-4.2MW", "x": 343469.0, "y": 6756731.0, "epsg": "2154", "lib_proj": "Lambert-93", "date_maj": "2024/10/23 00:00:00"}, "bbox": [-1.76673, 47.81409, -1.76673, 47.81409], "geometry": {"type": "Point", "coordinates": [-1.76673, 47.81409]}}, {"type": "Feature", "properties": {"id_aero": "0005521516_E3", "nom_eolienne": "", "id_parc": "0005521516", "code_insee": "35202", "nom_com": "LA NOE-BLANCHE", "code_dept": "35", "code_reg": "53", "puissance": 4.2, "ht_totale": 180.0, "ht_mat_nac": 112.0, "d_rotor": 136.0, "cote_ngf": 25.0, "p_allumage": "Jour et Nuit", "p_allum_d": "", "type_feu": "Feux à éclats", "type_feu_d": "", "construct": "VESTAS", "modele": "V136-4.2MW", "x": 343763.0, "y": 6756311.0, "epsg": "2154", "lib_proj": "Lambert-93", "date_maj": "2024/10/23 00:00:00"}, "bbox": [-1.76247, 47.81048, -1.76247, 47.81048], "geometry": {"type": "Point", "coordinates": [-1.76247, 47.81048]}}]}