{"type": "FeatureCollection", "crs": {"type": "name", "properties": {"name": "urn:ogc:def:crs:OGC:1.3:CRS84"}}, "bbox": [-2.01956, 47.80402, -1.32178, 48.35011], "features": [{"type": "Feature", "properties": {"id_parc": "0005503449", "nom_usuel": "OLGA", "puissance_parc": 0.8, "code_insee": "35068", "nom_commune": "CHATEAUBOURG", "code_dept": "35", "code_reg": "53", "dat_depot": "2008/07/28 00:00:00", "dat_daae": "2009/01/01 00:00:00", "dat_dlv_au": "2009/01/01 00:00:00", "dat_deb_c": "2010/12/13 00:00:00", "dat_mesv": "2011/04/23 00:00:00", "dat_deb_d": null, "etat_parc": "En exploitation", "sta_admin": "Autorisation", "sta_parc": "Autorisé", "dat_ap_cpl": null, "renouvellement": "Aucun", "nom_exploitant": "Exploitant anonymisé", "siret": "siret anonyme", "date_maj": null}, "bbox": [-1.42639, 48.09258, -1.41303, 48.10153], "geometry": {"type": "Polygon", "coordinates": [[[-1.41303, 48.09696], [-1.41319, 48.09609], [-1.41359, 48.09525], [-1.41424, 48.09449], [-1.41509, 48.09382], [-1.41612, 48.09328], [-1.41728, 48.09288], [-1.41854, 48.09264], [-1.41985, 48.09258], [-1.42115, 48.09268], [-1.4224, 48.09295], [-1.42354, 48.09338], [-1.42453, 48.09395], [-1.42534, 48.09464], [-1.42594, 48.09542], [-1.42629, 48.09627], [-1.42639, 48.09714], [-1.42624, 48.09801], [-1.42583, 48.09885], [-1.42519, 48.09961], [-1.42434, 48.10028], [-1.42331, 48.10082], [-1.42214, 48.10122], [-1.42088, 48.10146], [-1.41958, 48.10153], [-1.41828, 48.10142], [-1.41703, 48.10115], [-1.41589, 48.10072], [-1.41489, 48.10015], [-1.41408, 48.09946], [-1.41349, 48.09868], [-1.41313, 48.09783], [-1.41303, 48.09696]]]}}, {"type": "Feature", "properties": {"id_parc": "0005517790", "nom_usuel": "Eole MAXENT SARL", "puissance_parc": 6.0, "code_insee": "35169", "nom_commune": "MAXENT", "code_dept": "35", "code_reg": "53", "dat_depot": "2009/08/11 00:00:00", "dat_daae": null, "dat_dlv_au": null, "dat_deb_c": "2012/02/27 00:00:00", "dat_mesv": "2012/09/01 00:00:00", "dat_deb_d": null, "etat_parc": "", "sta_admin": "Autorisation", "sta_parc": "Autorisé", "dat_ap_cpl": null, "renouvellement": "Aucun", "nom_exploitant": "Exploitant anonymisé", "siret": "siret anonyme", "date_maj": null}, "bbox": [-2.01956, 47.97213, -1.99791, 47.98349], "geometry": {"type": "Polygon", "coordinates": [[[-2.01667, 47.97532], [-2.01767, 47.97589], [-2.01848, 47.97657], [-2.01908, 47.97735], [-2.01945, 47.97819], [-2.01956, 47.97907], [-2.01941, 47.97994], [-2.01902, 47.98078], [-2.01839, 47.98155], [-2.01755, 47.98222], [-2.01653, 47.98277], [-2.01537, 47.98317], [-2.01411, 47.98341], [-2.01281, 47.98349], [-2.01151, 47.98339], [-2.01026, 47.98313], [-2.0088, 47.98258], [-2.00759, 47.98224], [-2.00609, 47.98192], [-2.00469, 47.9814], [-2.00348, 47.98105], [-2.00194, 47.98072], [-2.0008, 47.9803], [-1.9998, 47.97973], [-1.99898, 47.97905], [-1.99838, 47.97827], [-1.99802, 47.97742], [-1.99791, 47.97655], [-1.99805, 47.97568], [-1.99845, 47.97484], [-1.99908, 47.97407], [-1.99992, 47.9734], [-2.00094, 47.97285], [-2.0021, 47.97245], [-2.00336, 47.97221], [-2.00466, 47.97213], [-2.00596, 47.97223], [-2.0072, 47.97249], [-2.00861, 47.97301], [-2.00981, 47.97336], [-2.01135, 47.97369], [-2.01282, 47.97423], [-2.01403, 47.97458], [-2.01552, 47.9749], [-2.01667, 47.97532]]]}}, {"type": "Feature", "properties": {"id_parc": "0005517854", "nom_usuel": "Parc Eolien de Pléchâtel", "puissance_parc": 4.0, "code_insee": "35221", "nom_commune": "PLECHATEL", "code_dept": "35", "code_reg": "53", "dat_depot": "2007/02/10 00:00:00", "dat_daae": "2007/02/14 00:00:00", "dat_dlv_au": "2007/02/14 00:00:00", "dat_deb_c": "2008/03/18 00:00:00", "dat_mesv": "2008/12/28 00:00:00", "dat_deb_d": null, "etat_parc": "En exploitation", "sta_admin": "Autorisation", "sta_parc": "Autorisé", "dat_ap_cpl": null, "renouvellement": "Aucun", "nom_exploitant": "Exploitant anonymisé", "siret": "siret anonyme", "date_maj": null}, "bbox": [-1.77151, 47.84887, -1.75171, 47.86037], "geometry": {"type": "Polygon", "coordinates": [[[-1.76963, 47.85278], [-1.77044, 47.85347], [-1.77104, 47.85425], [-1.7714, 47.85509], [-1.77151, 47.85597], [-1.77136, 47.85684], [-1.77096, 47.85768], [-1.77033, 47.85844], [-1.76948, 47.85911], [-1.76846, 47.85966], [-1.7673, 47.86006], [-1.76605, 47.8603], [-1.76475, 47.86037], [-1.76345, 47.86027], [-1.76221, 47.86], [-1.76062, 47.85941], [-1.76039, 47.8593], [-1.75842, 47.85857], [-1.75841, 47.85856], [-1.75688, 47.85799], [-1.75581, 47.85749], [-1.75457, 47.85703], [-1.75358, 47.85646], [-1.75277, 47.85577], [-1.75217, 47.85499], [-1.75181, 47.85415], [-1.75171, 47.85328], [-1.75186, 47.8524], [-1.75225, 47.85157], [-1.75289, 47.8508], [-1.75373, 47.85013], [-1.75475, 47.84959], [-1.75591, 47.84918], [-1.75717, 47.84894], [-1.75846, 47.84887], [-1.75976, 47.84897], [-1.761, 47.84924], [-1.76215, 47.84967], [-1.76321, 47.85016], [-1.76502, 47.85084], [-1.76503, 47.85085], [-1.76701, 47.85158], [-1.76724, 47.85169], [-1.76864, 47.85221], [-1.76963, 47.85278]]]}}, {"type": "Feature", "properties": {"id_parc": "0005517867", "nom_usuel": "Parc éolien Les Douves des Epinettes SAS", "puissance_parc": 11.5, "code_insee": "35167", "nom_commune": "MARTIGNE-FERCHAUD", "code_dept": "35", "code_reg": "53", "dat_depot": "2007/06/11 00:00:00", "dat_daae": "2008/01/01 00:00:00", "dat_dlv_au": "2008/01/01 00:00:00", "dat_deb_c": "2010/06/01 00:00:00", "dat_mesv": "2011/04/06 00:00:00", "dat_deb_d": null, "etat_parc": "En exploitation", "sta_admin": "Autorisation", "sta_parc": "Autorisé", "dat_ap_cpl": null, "renouvellement": "Aucun", "nom_exploitant": "Exploitant anonymisé", "siret": "siret anonyme", "date_maj": "2023/07/21 00:00:00"}, "bbox": [-1.34522, 47.86893, -1.32178, 47.88465], "geometry": {"type": "Polygon", "coordinates": [[[-1.34418, 47.87777], [-1.34477, 47.87855], [-1.34512, 47.8794], [-1.34522, 47.88027], [-1.34506, 47.88114], [-1.34466, 47.88198], [-1.34402, 47.88274], [-1.34317, 47.88341], [-1.34214, 47.88395], [-1.34098, 47.88435], [-1.33972, 47.88458], [-1.33842, 47.88465], [-1.33713, 47.88455], [-1.33538, 47.88416], [-1.33516, 47.8841], [-1.33388, 47.88391], [-1.33261, 47.8838], [-1.33126, 47.88351], [-1.33025, 47.88321], [-1.32896, 47.88302], [-1.32699, 47.88286], [-1.32576, 47.88259], [-1.32462, 47.88216], [-1.32363, 47.88159], [-1.32282, 47.8809], [-1.32223, 47.88012], [-1.32188, 47.87927], [-1.32178, 47.8784], [-1.32194, 47.87753], [-1.32213, 47.87714], [-1.32241, 47.87627], [-1.32244, 47.87539], [-1.32221, 47.87452], [-1.32207, 47.87418], [-1.32197, 47.87331], [-1.32213, 47.87244], [-1.32253, 47.8716], [-1.32317, 47.87084], [-1.32402, 47.87017], [-1.32505, 47.86963], [-1.32621, 47.86923], [-1.32747, 47.869], [-1.32877, 47.86893], [-1.33006, 47.86903], [-1.3313, 47.86931], [-1.33244, 47.86974], [-1.33348, 47.87034], [-1.33429, 47.87091], [-1.33537, 47.87142], [-1.33657, 47.87177], [-1.33786, 47.87206], [-1.339, 47.87249], [-1.33999, 47.87306], [-1.34079, 47.87375], [-1.34138, 47.87453], [-1.3416, 47.87506], [-1.34208, 47.87588], [-1.34278, 47.87663], [-1.34311, 47.87686], [-1.34418, 47.87777]]]}}, {"type": "Feature", "properties": {"id_parc": "0005517867", "nom_usuel": "Parc éolien Les Douves des Epinettes SAS", "puissance_parc": 11.5, "code_insee": "35239", "nom_commune": "RETIERS", "code_dept": "35", "code_reg": "53", "dat_depot": "2007/06/11 00:00:00", "dat_daae": "2008/01/01 00:00:00", "dat_dlv_au": "2008/01/01 00:00:00", "dat_deb_c": "2010/06/01 00:00:00", "dat_mesv": "2011/04/06 00:00:00", "dat_deb_d": null, "etat_parc": "En exploitation", "sta_admin": "Autorisation", "sta_parc": "Autorisé", "dat_ap_cpl": null, "renouvellement": "Aucun", "nom_exploitant": "Exploitant anonymisé", "siret": "siret anonyme", "date_maj": "2023/07/21 00:00:00"}, "bbox": [-1.34522, 47.86893, -1.32178, 47.88465], "geometry": {"type": "Polygon", "coordinates": [[[-1.34418, 47.87777], [-1.34477, 47.87855], [-1.34512, 47.8794], [-1.34522, 47.88027], [-1.34506, 47.88114], [-1.34466, 47.88198], [-1.34402, 47.88274], [-1.34317, 47.88341], [-1.34214, 47.88395], [-1.34098, 47.88435], [-1.33972, 47.88458], [-1.33842, 47.88465], [-1.33713, 47.88455], [-1.33538, 47.88416], [-1.33516, 47.8841], [-1.33388, 47.88391], [-1.33261, 47.8838], [-1.33126, 47.88351], [-1.33025, 47.88321], [-1.32896, 47.88302], [-1.32699, 47.88286], [-1.32576, 47.88259], [-1.32462, 47.88216], [-1.32363, 47.88159], [-1.32282, 47.8809], [-1.32223, 47.88012], [-1.32188, 47.87927], [-1.32178, 47.8784], [-1.32194, 47.87753], [-1.32213, 47.87714], [-1.32241, 47.87627], [-1.32244, 47.87539], [-1.32221, 47.87452], [-1.32207, 47.87418], [-1.32197, 47.87331], [-1.32213, 47.87244], [-1.32253, 47.8716], [-1.32317, 47.87084], [-1.32402, 47.87017], [-1.32505, 47.86963], [-1.32621, 47.86923], [-1.32747, 47.869], [-1.32877, 47.86893], [-1.33006, 47.86903], [-1.3313, 47.86931], [-1.33244, 47.86974], [-1.33348, 47.87034], [-1.33429, 47.87091], [-1.33537, 47.87142], [-1.33657, 47.87177], [-1.33786, 47.87206], [-1.339, 47.87249], [-1.33999, 47.87306], [-1.34079, 47.87375], [-1.34138, 47.87453], [-1.3416, 47.87506], [-1.34208, 47.87588], [-1.34278, 47.87663], [-1.34311, 47.87686], [-1.34418, 47.87777]]]}}, {"type": "Feature", "properties": {"id_parc": "0005517897", "nom_usuel": "Eole Petit Fougeray SARL", "puissance_parc": 10.0, "code_insee": "35218", "nom_commune": "LE PETIT FOUGERAY", "code_dept": "35", "code_reg": "53", "dat_depot": "2009/05/19 00:00:00", "dat_daae": "2009/05/20 00:00:00", "dat_dlv_au": "2009/05/20 00:00:00", "dat_deb_c": "2016/07/15 00:00:00", "dat_mesv": "2017/03/22 00:00:00", "dat_deb_d": null, "etat_parc": "En exploitation", "sta_admin": "Autorisation", "sta_parc": "Autorisé", "dat_ap_cpl": null, "renouvellement": "Aucun", "nom_exploitant": "Exploitant anonymisé", "siret": "siret anonyme", "date_maj": null}, "bbox": [-1.64363, 47.92831, -1.61896, 47.94121], "geometry": {"type": "Polygon", "coordinates": [[[-1.63709, 47.92831], [-1.63838, 47.92841], [-1.63963, 47.92868], [-1.64077, 47.92911], [-1.64176, 47.92968], [-1.64257, 47.93037], [-1.64317, 47.93115], [-1.64352, 47.93199], [-1.64363, 47.93287], [-1.64348, 47.93374], [-1.64308, 47.93457], [-1.64244, 47.93534], [-1.64191, 47.93576], [-1.64116, 47.93648], [-1.64064, 47.93729], [-1.64032, 47.93796], [-1.63968, 47.93873], [-1.63884, 47.93939], [-1.63781, 47.93994], [-1.63665, 47.94034], [-1.6354, 47.94058], [-1.63409, 47.94065], [-1.63286, 47.94055], [-1.63155, 47.94054], [-1.63026, 47.94069], [-1.62973, 47.94083], [-1.62811, 47.94114], [-1.62681, 47.94121], [-1.62552, 47.94111], [-1.62427, 47.94084], [-1.62313, 47.94041], [-1.62214, 47.93984], [-1.62133, 47.93916], [-1.62073, 47.93837], [-1.62038, 47.93753], [-1.62027, 47.93666], [-1.62004, 47.93579], [-1.61956, 47.93497], [-1.61942, 47.93479], [-1.61907, 47.93395], [-1.61896, 47.93307], [-1.61911, 47.9322], [-1.61952, 47.93137], [-1.62015, 47.9306], [-1.621, 47.92993], [-1.62202, 47.92939], [-1.62318, 47.92899], [-1.62444, 47.92875], [-1.62574, 47.92868], [-1.62732, 47.9288], [-1.62863, 47.92882], [-1.62993, 47.92875], [-1.6314, 47.92886], [-1.63271, 47.92888], [-1.634, 47.92872], [-1.63578, 47.92838], [-1.63709, 47.92831]]]}}, {"type": "Feature", "properties": {"id_parc": "0005517971", "nom_usuel": "Teillay Energies SAS", "puissance_parc": 8.0, "code_insee": "35332", "nom_commune": "TEILLAY", "code_dept": "35", "code_reg": "53", "dat_depot": "2005/12/13 00:00:00", "dat_daae": "2006/03/30 00:00:00", "dat_dlv_au": "2012/11/22 00:00:00", "dat_deb_c": "2017/01/04 00:00:00", "dat_mesv": "2018/09/21 00:00:00", "dat_deb_d": null, "etat_parc": "En exploitation", "sta_admin": "Autorisation", "sta_parc": "Autorisé", "dat_ap_cpl": null, "renouvellement": "Aucun", "nom_exploitant": "Exploitant anonymisé", "siret": "siret anonyme", "date_maj": null}, "bbox": [-1.5228, 47.81615, -1.48654, 47.82759], "geometry": {"type": "Polygon", "coordinates": [[[-1.51498, 47.81622], [-1.51628, 47.81615], [-1.51758, 47.81625], [-1.51882, 47.81652], [-1.51995, 47.81695], [-1.52094, 47.81752], [-1.52175, 47.81821], [-1.52234, 47.81899], [-1.5227, 47.81984], [-1.5228, 47.82071], [-1.52265, 47.82158], [-1.52225, 47.82242], [-1.52161, 47.82318], [-1.52076, 47.82385], [-1.51974, 47.82439], [-1.51858, 47.82479], [-1.51733, 47.82503], [-1.51603, 47.8251], [-1.51473, 47.825], [-1.51471, 47.82499], [-1.51343, 47.8248], [-1.51212, 47.82479], [-1.51083, 47.82494], [-1.50997, 47.82517], [-1.50811, 47.82552], [-1.50767, 47.82557], [-1.50646, 47.8259], [-1.50535, 47.82637], [-1.50439, 47.82688], [-1.50323, 47.82728], [-1.50198, 47.82752], [-1.50068, 47.82759], [-1.49938, 47.82749], [-1.49861, 47.82732], [-1.49733, 47.82713], [-1.49602, 47.82711], [-1.49473, 47.82727], [-1.49435, 47.82734], [-1.49305, 47.82741], [-1.49176, 47.82731], [-1.49052, 47.82703], [-1.48938, 47.82661], [-1.48839, 47.82604], [-1.48758, 47.82535], [-1.48699, 47.82456], [-1.48664, 47.82372], [-1.48654, 47.82285], [-1.48669, 47.82197], [-1.48709, 47.82114], [-1.48773, 47.82037], [-1.48858, 47.81971], [-1.4896, 47.81916], [-1.49076, 47.81876], [-1.49201, 47.81853], [-1.49331, 47.81846], [-1.49461, 47.81856], [-1.49538, 47.81873], [-1.49666, 47.81892], [-1.49796, 47.81893], [-1.49925, 47.81878], [-1.50005, 47.81863], [-1.50049, 47.81857], [-1.50171, 47.81825], [-1.50281, 47.81778], [-1.50377, 47.81727], [-1.50494, 47.81687], [-1.50619, 47.81663], [-1.50749, 47.81656], [-1.50878, 47.81666], [-1.50881, 47.81667], [-1.51009, 47.81686], [-1.5114, 47.81687], [-1.51269, 47.81672], [-1.51354, 47.81649], [-1.51498, 47.81622]]]}}, {"type": "Feature", "properties": {"id_parc": "0005518323", "nom_usuel": "Avel Breizh", "puissance_parc": 18.0, "code_insee": "35082", "nom_commune": "COESMES", "code_dept": "35", "code_reg": "53", "dat_depot": "2013/07/16 00:00:00", "dat_daae": "2014/10/28 00:00:00", "dat_dlv_au": "2014/12/09 00:00:00", "dat_deb_c": null, "dat_mesv": "2018/05/30 00:00:00", "dat_deb_d": null, "etat_parc": "En exploitation", "sta_admin": "Autorisation", "sta_parc": "Autorisé", "dat_ap_cpl": null, "renouvellement": "Aucun", "nom_exploitant": "Exploitant anonymisé", "siret": "siret anonyme", "date_maj": null}, "bbox": [-1.44171, 47.86247, -1.40002, 47.88023], "geometry": {"type": "Polygon", "coordinates": [[[-1.44066, 47.87334], [-1.44125, 47.87412], [-1.44161, 47.87497], [-1.44171, 47.87584], [-1.44155, 47.87671], [-1.44115, 47.87755], [-1.44051, 47.87831], [-1.43966, 47.87898], [-1.43864, 47.87952], [-1.43748, 47.87992], [-1.43622, 47.88016], [-1.43492, 47.88023], [-1.43363, 47.88012], [-1.43239, 47.87985], [-1.43125, 47.87942], [-1.43026, 47.87885], [-1.42933, 47.87805], [-1.42842, 47.87742], [-1.42779, 47.87712], [-1.42659, 47.87643], [-1.42561, 47.8756], [-1.4252, 47.87517], [-1.4243, 47.87453], [-1.42326, 47.87393], [-1.42233, 47.87315], [-1.42143, 47.87251], [-1.42035, 47.872], [-1.41915, 47.87165], [-1.41787, 47.87146], [-1.41656, 47.87144], [-1.41527, 47.8716], [-1.41405, 47.87192], [-1.41295, 47.87239], [-1.41191, 47.87294], [-1.41075, 47.87334], [-1.4095, 47.87357], [-1.4082, 47.87364], [-1.4069, 47.87354], [-1.40566, 47.87327], [-1.40452, 47.87284], [-1.40353, 47.87227], [-1.40273, 47.87158], [-1.4021, 47.87075], [-1.40168, 47.87003], [-1.40112, 47.86944], [-1.40047, 47.86857], [-1.40012, 47.86773], [-1.40002, 47.86685], [-1.40017, 47.86598], [-1.40057, 47.86515], [-1.40121, 47.86438], [-1.40206, 47.86371], [-1.40309, 47.86317], [-1.40425, 47.86277], [-1.4055, 47.86254], [-1.4068, 47.86247], [-1.4081, 47.86257], [-1.40934, 47.86285], [-1.41048, 47.86327], [-1.41147, 47.86385], [-1.41166, 47.86401], [-1.41256, 47.86464], [-1.41364, 47.86515], [-1.41484, 47.8655], [-1.41612, 47.86569], [-1.41743, 47.86571], [-1.41872, 47.86556], [-1.41994, 47.86524], [-1.42104, 47.86476], [-1.42142, 47.86456], [-1.42258, 47.86416], [-1.42384, 47.86393], [-1.42514, 47.86386], [-1.42643, 47.86396], [-1.42767, 47.86423], [-1.42881, 47.86466], [-1.4298, 47.86523], [-1.43061, 47.86592], [-1.43069, 47.86604], [-1.4314, 47.86678], [-1.43231, 47.86742], [-1.43285, 47.86773], [-1.43383, 47.86857], [-1.43424, 47.869], [-1.43515, 47.86964], [-1.43619, 47.87023], [-1.43712, 47.87103], [-1.43803, 47.87166], [-1.43866, 47.87196], [-1.43985, 47.87265], [-1.44066, 47.87334]]]}}, {"type": "Feature", "properties": {"id_parc": "0005518628", "nom_usuel": "Les Barbettes", "puissance_parc": 3.4, "code_insee": "35343", "nom_commune": "TRESBOEUF", "code_dept": "35", "code_reg": "53", "dat_depot": "2010/06/11 00:00:00", "dat_daae": "2010/09/01 00:00:00", "dat_dlv_au": "2013/07/10 00:00:00", "dat_deb_c": null, "dat_mesv": null, "dat_deb_d": null, "etat_parc": "En attente de construction", "sta_admin": "Autorisation", "sta_parc": "Autorisé", "dat_ap_cpl": null, "renouvellement": "Aucun", "nom_exploitant": "QUENEA'CH SARL", "siret": "50905869900018", "date_maj": null}, "bbox": [-1.56828, 47.88474, -1.55091, 47.90265], "geometry": {"type": "Polygon", "coordinates": [[[-1.56782, 47.89654], [-1.56818, 47.89738], [-1.56828, 47.89825], [-1.56813, 47.89913], [-1.56773, 47.89996], [-1.56709, 47.90073], [-1.56624, 47.90139], [-1.56522, 47.90194], [-1.56406, 47.90234], [-1.5628, 47.90258], [-1.5615, 47.90265], [-1.56021, 47.90254], [-1.55896, 47.90227], [-1.55783, 47.90185], [-1.55683, 47.90128], [-1.55602, 47.90059], [-1.55543, 47.89981], [-1.55495, 47.89866], [-1.55447, 47.89784], [-1.5541, 47.89745], [-1.55336, 47.89648], [-1.55301, 47.89564], [-1.55297, 47.89535], [-1.55274, 47.89448], [-1.5523, 47.89373], [-1.55193, 47.89285], [-1.55186, 47.89225], [-1.55163, 47.89139], [-1.5515, 47.89116], [-1.55101, 47.89001], [-1.55091, 47.88913], [-1.55106, 47.88826], [-1.55146, 47.88743], [-1.5521, 47.88666], [-1.55295, 47.88599], [-1.55397, 47.88545], [-1.55513, 47.88505], [-1.55639, 47.88481], [-1.55769, 47.88474], [-1.55898, 47.88484], [-1.56022, 47.88511], [-1.56136, 47.88554], [-1.56236, 47.88611], [-1.56317, 47.8868], [-1.56376, 47.88758], [-1.56411, 47.88842], [-1.56418, 47.88902], [-1.56442, 47.88988], [-1.56455, 47.89011], [-1.56503, 47.89126], [-1.56507, 47.89156], [-1.5653, 47.89242], [-1.56574, 47.89318], [-1.56624, 47.89436], [-1.56672, 47.89518], [-1.56709, 47.89557], [-1.56782, 47.89654]]]}}, {"type": "Feature", "properties": {"id_parc": "0005519264", "nom_usuel": "Eoliennes de La Lande", "puissance_parc": 12.0, "code_insee": "35094", "nom_commune": "DINGE", "code_dept": "35", "code_reg": "53", "dat_depot": "2015/04/01 00:00:00", "dat_daae": "2015/05/12 00:00:00", "dat_dlv_au": "2016/11/04 00:00:00", "dat_deb_c": "2023/09/18 00:00:00", "dat_mesv": "2024/09/25 00:00:00", "dat_deb_d": null, "etat_parc": "En exploitation", "sta_admin": "Autorisation", "sta_parc": "Autorisé", "dat_ap_cpl": null, "renouvellement": "Aucun", "nom_exploitant": "Exploitant anonymisé", "siret": "siret anonyme", "date_maj": null}, "bbox": [-1.81357, 48.32643, -1.77708, 48.34591], "geometry": {"type": "Polygon", "coordinates": [[[-1.80827, 48.32771], [-1.80953, 48.32798], [-1.81068, 48.3284], [-1.81168, 48.32897], [-1.8125, 48.32966], [-1.8131, 48.33044], [-1.81346, 48.33128], [-1.81357, 48.33216], [-1.81342, 48.33303], [-1.81302, 48.33386], [-1.81238, 48.33463], [-1.81153, 48.3353], [-1.8105, 48.33585], [-1.80933, 48.33625], [-1.80807, 48.33649], [-1.80676, 48.33656], [-1.80545, 48.33646], [-1.8042, 48.3362], [-1.80348, 48.33593], [-1.80227, 48.33558], [-1.80097, 48.3354], [-1.79965, 48.33538], [-1.79902, 48.33542], [-1.79772, 48.33557], [-1.79649, 48.3359], [-1.79538, 48.33638], [-1.79443, 48.33699], [-1.79368, 48.33772], [-1.79315, 48.33853], [-1.79289, 48.33906], [-1.79225, 48.33983], [-1.79189, 48.34011], [-1.79114, 48.34084], [-1.79062, 48.34165], [-1.79042, 48.34224], [-1.78996, 48.34321], [-1.78932, 48.34398], [-1.78847, 48.34465], [-1.78744, 48.34519], [-1.78627, 48.34559], [-1.785, 48.34584], [-1.78369, 48.34591], [-1.78238, 48.34581], [-1.78113, 48.34554], [-1.77998, 48.34511], [-1.77897, 48.34455], [-1.77816, 48.34386], [-1.77755, 48.34308], [-1.77719, 48.34224], [-1.77708, 48.34136], [-1.77723, 48.34049], [-1.77764, 48.33965], [-1.77827, 48.33889], [-1.77864, 48.3386], [-1.77939, 48.33788], [-1.77991, 48.33707], [-1.78011, 48.33647], [-1.78057, 48.33551], [-1.78121, 48.33474], [-1.78206, 48.33407], [-1.78309, 48.33352], [-1.78426, 48.33312], [-1.78553, 48.33288], [-1.78742, 48.33278], [-1.78872, 48.33262], [-1.78995, 48.33229], [-1.79106, 48.33182], [-1.79201, 48.3312], [-1.79277, 48.33048], [-1.79329, 48.32967], [-1.79355, 48.32913], [-1.79419, 48.32836], [-1.79504, 48.32769], [-1.79607, 48.32715], [-1.79724, 48.32675], [-1.7985, 48.32651], [-1.79981, 48.32643], [-1.80112, 48.32653], [-1.80238, 48.3268], [-1.80309, 48.32707], [-1.8043, 48.32742], [-1.8056, 48.3276], [-1.80692, 48.32761], [-1.80696, 48.32761], [-1.80827, 48.32771]]]}}, {"type": "Feature", "properties": {"id_parc": "0005519264", "nom_usuel": "Eoliennes de La Lande", "puissance_parc": 12.0, "code_insee": "35337", "nom_commune": "TINTENIAC", "code_dept": "35", "code_reg": "53", "dat_depot": "2015/04/01 00:00:00", "dat_daae": "2015/05/12 00:00:00", "dat_dlv_au": "2016/11/04 00:00:00", "dat_deb_c": "2023/09/18 00:00:00", "dat_mesv": "2024/09/25 00:00:00", "dat_deb_d": null, "etat_parc": "En exploitation", "sta_admin": "Autorisation", "sta_parc": "Autorisé", "dat_ap_cpl": null, "renouvellement": "Aucun", "nom_exploitant": "Exploitant anonymisé", "siret": "siret anonyme", "date_maj": null}, "bbox": [-1.81357, 48.32643, -1.77708, 48.34591], "geometry": {"type": "Polygon", "coordinates": [[[-1.80827, 48.32771], [-1.80953, 48.32798], [-1.81068, 48.3284], [-1.81168, 48.32897], [-1.8125, 48.32966], [-1.8131, 48.33044], [-1.81346, 48.33128], [-1.81357, 48.33216], [-1.81342, 48.33303], [-1.81302, 48.33386], [-1.81238, 48.33463], [-1.81153, 48.3353], [-1.8105, 48.33585], [-1.80933, 48.33625], [-1.80807, 48.33649], [-1.80676, 48.33656], [-1.80545, 48.33646], [-1.8042, 48.3362], [-1.80348, 48.33593], [-1.80227, 48.33558], [-1.80097, 48.3354], [-1.79965, 48.33538], [-1.79902, 48.33542], [-1.79772, 48.33557], [-1.79649, 48.3359], [-1.79538, 48.33638], [-1.79443, 48.33699], [-1.79368, 48.33772], [-1.79315, 48.33853], [-1.79289, 48.33906], [-1.79225, 48.33983], [-1.79189, 48.34011], [-1.79114, 48.34084], [-1.79062, 48.34165], [-1.79042, 48.34224], [-1.78996, 48.34321], [-1.78932, 48.34398], [-1.78847, 48.34465], [-1.78744, 48.34519], [-1.78627, 48.34559], [-1.785, 48.34584], [-1.78369, 48.34591], [-1.78238, 48.34581], [-1.78113, 48.34554], [-1.77998, 48.34511], [-1.77897, 48.34455], [-1.77816, 48.34386], [-1.77755, 48.34308], [-1.77719, 48.34224], [-1.77708, 48.34136], [-1.77723, 48.34049], [-1.77764, 48.33965], [-1.77827, 48.33889], [-1.77864, 48.3386], [-1.77939, 48.33788], [-1.77991, 48.33707], [-1.78011, 48.33647], [-1.78057, 48.33551], [-1.78121, 48.33474], [-1.78206, 48.33407], [-1.78309, 48.33352], [-1.78426, 48.33312], [-1.78553, 48.33288], [-1.78742, 48.33278], [-1.78872, 48.33262], [-1.78995, 48.33229], [-1.79106, 48.33182], [-1.79201, 48.3312], [-1.79277, 48.33048], [-1.79329, 48.32967], [-1.79355, 48.32913], [-1.79419, 48.32836], [-1.79504, 48.32769], [-1.79607, 48.32715], [-1.79724, 48.32675], [-1.7985, 48.32651], [-1.79981, 48.32643], [-1.80112, 48.32653], [-1.80238, 48.3268], [-1.80309, 48.32707], [-1.8043, 48.32742], [-1.8056, 48.3276], [-1.80692, 48.32761], [-1.80696, 48.32761], [-1.80827, 48.32771]]]}}, {"type": "Feature", "properties": {"id_parc": "0005519489", "nom_usuel": "IEL Exploitation 9 - QUEBRIAC", "puissance_parc": 8.0, "code_insee": "35233", "nom_commune": "QUEBRIAC", "code_dept": "35", "code_reg": "53", "dat_depot": "2014/11/06 00:00:00", "dat_daae": "2019/07/18 00:00:00", "dat_dlv_au": "2019/11/13 00:00:00", "dat_deb_c": "2024/07/10 00:00:00", "dat_mesv": "2025/03/27 00:00:00", "dat_deb_d": null, "etat_parc": "En exploitation", "sta_admin": "Autorisation", "sta_parc": "Autorisé", "dat_ap_cpl": null, "renouvellement": "Aucun", "nom_exploitant": "Exploitant anonymisé", "siret": "siret anonyme", "date_maj": null}, "bbox": [-1.80481, 48.33659, -1.78396, 48.35011], "geometry": {"type": "Polygon", "coordinates": [[[-1.80316, 48.34505], [-1.80295, 48.34627], [-1.80255, 48.34711], [-1.80191, 48.34787], [-1.80106, 48.34854], [-1.80003, 48.34909], [-1.79886, 48.34949], [-1.7976, 48.34973], [-1.79628, 48.34981], [-1.79563, 48.34976], [-1.79431, 48.34974], [-1.79301, 48.3499], [-1.79228, 48.35004], [-1.79097, 48.35011], [-1.78966, 48.35001], [-1.78841, 48.34974], [-1.78726, 48.34932], [-1.78625, 48.34875], [-1.78543, 48.34806], [-1.78483, 48.34728], [-1.78447, 48.34644], [-1.78436, 48.34556], [-1.78456, 48.3444], [-1.78458, 48.34352], [-1.78435, 48.34265], [-1.78407, 48.342], [-1.78396, 48.34113], [-1.78411, 48.34026], [-1.78451, 48.33942], [-1.78515, 48.33865], [-1.786, 48.33798], [-1.78703, 48.33744], [-1.7882, 48.33704], [-1.78947, 48.3368], [-1.79078, 48.33672], [-1.79216, 48.33683], [-1.79331, 48.33699], [-1.79463, 48.33701], [-1.79593, 48.33685], [-1.79689, 48.33667], [-1.7982, 48.33659], [-1.79951, 48.33669], [-1.80076, 48.33696], [-1.80191, 48.33739], [-1.80292, 48.33795], [-1.80374, 48.33864], [-1.80434, 48.33942], [-1.8047, 48.34026], [-1.80481, 48.34114], [-1.80466, 48.34201], [-1.80426, 48.34285], [-1.80397, 48.34319], [-1.80344, 48.344], [-1.80317, 48.34486], [-1.80316, 48.34505]]]}}, {"type": "Feature", "properties": {"id_parc": "0005520765", "nom_usuel": "FEEOLE", "puissance_parc": 14.4, "code_insee": "35082", "nom_commune": "COESMES", "code_dept": "35", "code_reg": "53", "dat_depot": "2016/09/20 00:00:00", "dat_daae": "2017/08/11 00:00:00", "dat_dlv_au": "2018/07/17 00:00:00", "dat_deb_c": "2024/09/02 00:00:00", "dat_mesv": null, "dat_deb_d": null, "etat_parc": "En construction", "sta_admin": "Autorisation", "sta_parc": "Autorisé", "dat_ap_cpl": null, "renouvellement": "Aucun", "nom_exploitant": "Exploitant anonymisé", "siret": "siret anonyme", "date_maj": null}, "bbox": [-1.40717, 47.83686, -1.38357, 47.85269], "geometry": {"type": "Polygon", "coordinates": [[[-1.39639, 47.85176], [-1.39593, 47.85154], [-1.39473, 47.85118], [-1.393, 47.85081], [-1.39187, 47.85038], [-1.39088, 47.84981], [-1.39002, 47.84908], [-1.3894, 47.84842], [-1.38849, 47.84778], [-1.38742, 47.84728], [-1.38641, 47.84689], [-1.38542, 47.84632], [-1.38461, 47.84563], [-1.38402, 47.84485], [-1.38367, 47.84401], [-1.38357, 47.84313], [-1.38372, 47.84226], [-1.38413, 47.84143], [-1.38477, 47.84066], [-1.38562, 47.83999], [-1.38664, 47.83945], [-1.3878, 47.83905], [-1.38834, 47.83895], [-1.38956, 47.83863], [-1.39067, 47.83816], [-1.39179, 47.83756], [-1.39295, 47.83717], [-1.3942, 47.83693], [-1.3955, 47.83686], [-1.3968, 47.83697], [-1.39803, 47.83724], [-1.39917, 47.83767], [-1.40016, 47.83824], [-1.40097, 47.83893], [-1.40156, 47.83971], [-1.40191, 47.84056], [-1.40202, 47.84147], [-1.40224, 47.84234], [-1.40272, 47.84316], [-1.40343, 47.8439], [-1.40433, 47.84454], [-1.40532, 47.84511], [-1.40613, 47.8458], [-1.40672, 47.84658], [-1.40707, 47.84743], [-1.40717, 47.8483], [-1.40702, 47.84917], [-1.40662, 47.85001], [-1.40598, 47.85077], [-1.40513, 47.85144], [-1.4041, 47.85198], [-1.40294, 47.85238], [-1.40169, 47.85262], [-1.40039, 47.85269], [-1.39909, 47.85258], [-1.39785, 47.85231], [-1.39639, 47.85176]]]}}, {"type": "Feature", "properties": {"id_parc": "0005520765", "nom_usuel": "FEEOLE", "puissance_parc": 14.4, "code_insee": "35167", "nom_commune": "MARTIGNE-FERCHAUD", "code_dept": "35", "code_reg": "53", "dat_depot": "2016/09/20 00:00:00", "dat_daae": "2017/08/11 00:00:00", "dat_dlv_au": "2018/07/17 00:00:00", "dat_deb_c": "2024/09/02 00:00:00", "dat_mesv": null, "dat_deb_d": null, "etat_parc": "En construction", "sta_admin": "Autorisation", "sta_parc": "Autorisé", "dat_ap_cpl": null, "renouvellement": "Aucun", "nom_exploitant": "Exploitant anonymisé", "siret": "siret anonyme", "date_maj": null}, "bbox": [-1.40717, 47.83686, -1.38357, 47.85269], "geometry": {"type": "Polygon", "coordinates": [[[-1.39639, 47.85176], [-1.39593, 47.85154], [-1.39473, 47.85118], [-1.393, 47.85081], [-1.39187, 47.85038], [-1.39088, 47.84981], [-1.39002, 47.84908], [-1.3894, 47.84842], [-1.38849, 47.84778], [-1.38742, 47.84728], [-1.38641, 47.84689], [-1.38542, 47.84632], [-1.38461, 47.84563], [-1.38402, 47.84485], [-1.38367, 47.84401], [-1.38357, 47.84313], [-1.38372, 47.84226], [-1.38413, 47.84143], [-1.38477, 47.84066], [-1.38562, 47.83999], [-1.38664, 47.83945], [-1.3878, 47.83905], [-1.38834, 47.83895], [-1.38956, 47.83863], [-1.39067, 47.83816], [-1.39179, 47.83756], [-1.39295, 47.83717], [-1.3942, 47.83693], [-1.3955, 47.83686], [-1.3968, 47.83697], [-1.39803, 47.83724], [-1.39917, 47.83767], [-1.40016, 47.83824], [-1.40097, 47.83893], [-1.40156, 47.83971], [-1.40191, 47.84056], [-1.40202, 47.84147], [-1.40224, 47.84234], [-1.40272, 47.84316], [-1.40343, 47.8439], [-1.40433, 47.84454], [-1.40532, 47.84511], [-1.40613, 47.8458], [-1.40672, 47.84658], [-1.40707, 47.84743], [-1.40717, 47.8483], [-1.40702, 47.84917], [-1.40662, 47.85001], [-1.40598, 47.85077], [-1.40513, 47.85144], [-1.4041, 47.85198], [-1.40294, 47.85238], [-1.40169, 47.85262], [-1.40039, 47.85269], [-1.39909, 47.85258], [-1.39785, 47.85231], [-1.39639, 47.85176]]]}}, {"type": "Feature", "properties": {"id_parc": "0005521294", "nom_usuel": "SNC FERME EOLIENNE DE MONTERFIL", "puissance_parc": 11.04, "code_insee": "35187", "nom_commune": "MONTERFIL", "code_dept": "35", "code_reg": "53", "dat_depot": "2017/11/14 00:00:00", "dat_daae": "2018/12/17 00:00:00", "dat_dlv_au": "2020/01/21 00:00:00", "dat_deb_c": "2021/10/04 00:00:00", "dat_mesv": "2023/01/10 00:00:00", "dat_deb_d": null, "etat_parc": "En exploitation", "sta_admin": "Autorisation", "sta_parc": "Autorisé", "dat_ap_cpl": null, "renouvellement": "Aucun", "nom_exploitant": "SNC FERME EOLIENNE DE MONTERFIL", "siret": "83069451900018", "date_maj": null}, "bbox": [-1.9965, 48.03881, -1.97239, 48.04973], "geometry": {"type": "Polygon", "coordinates": [[[-1.98861, 48.03888], [-1.98992, 48.03881], [-1.99122, 48.0389], [-1.99246, 48.03917], [-1.99361, 48.03959], [-1.99461, 48.04016], [-1.99543, 48.04084], [-1.99603, 48.04162], [-1.99639, 48.04247], [-1.9965, 48.04334], [-1.99636, 48.04421], [-1.99596, 48.04505], [-1.99533, 48.04582], [-1.99449, 48.04649], [-1.99346, 48.04704], [-1.9923, 48.04744], [-1.99104, 48.04768], [-1.98974, 48.04776], [-1.98887, 48.04769], [-1.98755, 48.04768], [-1.98626, 48.04784], [-1.98538, 48.04801], [-1.98416, 48.04834], [-1.98306, 48.04882], [-1.9827, 48.04901], [-1.98154, 48.04941], [-1.98028, 48.04965], [-1.97898, 48.04973], [-1.97768, 48.04963], [-1.97643, 48.04937], [-1.97529, 48.04894], [-1.97429, 48.04838], [-1.97347, 48.04769], [-1.97287, 48.04691], [-1.9725, 48.04607], [-1.97239, 48.04519], [-1.97254, 48.04432], [-1.97294, 48.04348], [-1.97357, 48.04272], [-1.97441, 48.04205], [-1.97543, 48.0415], [-1.9766, 48.04109], [-1.9779, 48.04084], [-1.97912, 48.04052], [-1.98022, 48.04004], [-1.98058, 48.03985], [-1.98174, 48.03944], [-1.983, 48.0392], [-1.9843, 48.03913], [-1.98517, 48.03919], [-1.98649, 48.0392], [-1.98778, 48.03904], [-1.98861, 48.03888]]]}}, {"type": "Feature", "properties": {"id_parc": "0005521516", "nom_usuel": "SAS PARC EOLIEN DE LA SAUSSINAIS", "puissance_parc": 12.6, "code_insee": "35176", "nom_commune": "GUIPRY-MESSAC", "code_dept": "35", "code_reg": "53", "dat_depot": "2018/06/12 00:00:00", "dat_daae": "2019/03/20 00:00:00", "dat_dlv_au": "2019/12/09 00:00:00", "dat_deb_c": null, "dat_mesv": null, "dat_deb_d": null, "etat_parc": "En attente de construction", "sta_admin": "Autorisation", "sta_parc": "Autorisé", "dat_ap_cpl": null, "renouvellement": "Aucun", "nom_exploitant": "SAS PARCS EOLIENS DE L'OUEST", "siret": "83317316400017", "date_maj": null}, "bbox": [-1.77995, 47.806, -1.75582, 47.82127], "geometry": {"type": "Polygon", "coordinates": [[[-1.77708, 47.81311], [-1.77808, 47.81368], [-1.77889, 47.81436], [-1.77948, 47.81514], [-1.77984, 47.81599], [-1.77995, 47.81686], [-1.7798, 47.81773], [-1.7794, 47.81857], [-1.77877, 47.81934], [-1.77793, 47.82001], [-1.77691, 47.82055], [-1.77575, 47.82095], [-1.7745, 47.82119], [-1.7732, 47.82127], [-1.7719, 47.82117], [-1.77066, 47.8209], [-1.76952, 47.82047], [-1.76843, 47.81985], [-1.7677, 47.81934], [-1.76662, 47.81884], [-1.76542, 47.81849], [-1.76409, 47.8182], [-1.76295, 47.81777], [-1.76195, 47.81721], [-1.76114, 47.81652], [-1.76046, 47.81562], [-1.75975, 47.81488], [-1.75884, 47.81424], [-1.75769, 47.81359], [-1.75688, 47.81291], [-1.75629, 47.81212], [-1.75593, 47.81128], [-1.75582, 47.81041], [-1.75597, 47.80953], [-1.75637, 47.8087], [-1.757, 47.80793], [-1.75785, 47.80726], [-1.75887, 47.80672], [-1.76002, 47.80632], [-1.76128, 47.80607], [-1.76257, 47.806], [-1.76387, 47.8061], [-1.76511, 47.80637], [-1.76625, 47.8068], [-1.76724, 47.80736], [-1.76805, 47.80805], [-1.76874, 47.80895], [-1.76945, 47.80969], [-1.77036, 47.81033], [-1.7716, 47.81103], [-1.77233, 47.81154], [-1.77341, 47.81204], [-1.77461, 47.81239], [-1.77594, 47.81268], [-1.77708, 47.81311]]]}}, {"type": "Feature", "properties": {"id_parc": "0005521516", "nom_usuel": "SAS PARC EOLIEN DE LA SAUSSINAIS", "puissance_parc": 12.6, "code_insee": "35202", "nom_commune": "LA NOE-BLANCHE", "code_dept": "35", "code_reg": "53", "dat_depot": "2018/06/12 00:00:00", "dat_daae": "2019/03/20 00:00:00", "dat_dlv_au": "2019/12/09 00:00:00", "dat_deb_c": null, "dat_mesv": null, "dat_deb_d": null, "etat_parc": "En attente de construction", "sta_admin": "Autorisation", "sta_parc": "Autorisé", "dat_ap_cpl": null, "renouvellement": "Aucun", "nom_exploitant": "SAS PARCS EOLIENS DE L'OUEST", "siret": "83317316400017", "date_maj": null}, "bbox": [-1.77995, 47.806, -1.75582, 47.82127], "geometry": {"type": "Polygon", "coordinates": [[[-1.77708, 47.81311], [-1.77808, 47.81368], [-1.77889, 47.81436], [-1.77948, 47.81514], [-1.77984, 47.81599], [-1.77995, 47.81686], [-1.7798, 47.81773], [-1.7794, 47.81857], [-1.77877, 47.81934], [-1.77793, 47.82001], [-1.77691, 47.82055], [-1.77575, 47.82095], [-1.7745, 47.82119], [-1.7732, 47.82127], [-1.7719, 47.82117], [-1.77066, 47.8209], [-1.76952, 47.82047], [-1.76843, 47.81985], [-1.7677, 47.81934], [-1.76662, 47.81884], [-1.76542, 47.81849], [-1.76409, 47.8182], [-1.76295, 47.81777], [-1.76195, 47.81721], [-1.76114, 47.81652], [-1.76046, 47.81562], [-1.75975, 47.81488], [-1.75884, 47.81424], [-1.75769, 47.81359], [-1.75688, 47.81291], [-1.75629, 47.81212], [-1.75593, 47.81128], [-1.75582, 47.81041], [-1.75597, 47.80953], [-1.75637, 47.8087], [-1.757, 47.80793], [-1.75785, 47.80726], [-1.75887, 47.80672], [-1.76002, 47.80632], [-1.76128, 47.80607], [-1.76257, 47.806], [-1.76387, 47.8061], [-1.76511, 47.80637], [-1.76625, 47.8068], [-1.76724, 47.80736], [-1.76805, 47.80805], [-1.76874, 47.80895], [-1.76945, 47.80969], [-1.77036, 47.81033], [-1.7716, 47.81103], [-1.77233, 47.81154], [-1.77341, 47.81204], [-1.77461, 47.81239], [-1.77594, 47.81268], [-1.77708, 47.81311]]]}}, {"type": "Feature", "properties": {"id_parc": "0005522404", "nom_usuel": "PARC EOLIEN LES AILES DU CHEVRE", "puissance_parc": 10.8, "code_insee": "35001", "nom_commune": "ACIGNE", "code_dept": "35", "code_reg": "53", "dat_depot": "2020/10/01 00:00:00", "dat_daae": null, "dat_dlv_au": null, "dat_deb_c": null, "dat_mesv": null, "dat_deb_d": null, "etat_parc": "", "sta_admin": "Autorisation", "sta_parc": "En instruction", "dat_ap_cpl": null, "renouvellement": "Aucun", "nom_exploitant": "Parc éolien Les ailes du Chevré SAS", "siret": "84143276800015", "date_maj": "2023/07/21 00:00:00"}, "bbox": [-1.55496, 48.15341, -1.52643, 48.16766], "geometry": {"type": "Polygon", "coordinates": [[[-1.5484, 48.15855], [-1.5497, 48.15865], [-1.55095, 48.15892], [-1.5521, 48.15935], [-1.55309, 48.15992], [-1.55391, 48.16061], [-1.5545, 48.16139], [-1.55486, 48.16224], [-1.55496, 48.16311], [-1.55481, 48.16398], [-1.55441, 48.16482], [-1.55377, 48.16558], [-1.55292, 48.16625], [-1.55189, 48.16679], [-1.55072, 48.16719], [-1.54946, 48.16743], [-1.54815, 48.1675], [-1.54752, 48.16745], [-1.5462, 48.16744], [-1.54493, 48.16759], [-1.54361, 48.16766], [-1.54231, 48.16756], [-1.54106, 48.16729], [-1.53991, 48.16686], [-1.53892, 48.16629], [-1.5381, 48.1656], [-1.53744, 48.16472], [-1.53672, 48.16398], [-1.53581, 48.16335], [-1.53473, 48.16284], [-1.53352, 48.16249], [-1.53223, 48.1623], [-1.53169, 48.16226], [-1.53044, 48.16199], [-1.5293, 48.16156], [-1.5283, 48.16099], [-1.52749, 48.1603], [-1.52689, 48.15952], [-1.52654, 48.15868], [-1.52643, 48.1578], [-1.52659, 48.15693], [-1.52699, 48.15609], [-1.52763, 48.15533], [-1.52848, 48.15466], [-1.52951, 48.15412], [-1.53068, 48.15372], [-1.53194, 48.15348], [-1.53325, 48.15341], [-1.53455, 48.15351], [-1.5358, 48.15378], [-1.53694, 48.15421], [-1.53794, 48.15478], [-1.53875, 48.15547], [-1.5394, 48.15631], [-1.54011, 48.15706], [-1.54102, 48.15769], [-1.5421, 48.1582], [-1.54331, 48.15855], [-1.5446, 48.15874], [-1.54592, 48.15875], [-1.54697, 48.15863], [-1.5484, 48.15855]]]}}, {"type": "Feature", "properties": {"id_parc": "0006306606", "nom_usuel": "Eoliennes de Soulvache SAS", "puissance_parc": 8.0, "code_insee": "44200", "nom_commune": "SOULVACHE", "code_dept": "44", "code_reg": "52", "dat_depot": "2007/04/24 00:00:00", "dat_daae": "2007/08/08 00:00:00", "dat_dlv_au": "2008/05/06 00:00:00", "dat_deb_c": "2014/08/26 00:00:00", "dat_mesv": "2015/04/01 00:00:00", "dat_deb_d": null, "etat_parc": "En exploitation", "sta_admin": "Autorisation", "sta_parc": "Autorisé", "dat_ap_cpl": null, "renouvellement": "Aucun", "nom_exploitant": "VSB Energies Nouvelles", "siret": "79514618200022", "date_maj": null}, "bbox": [-1.46637, 47.8068, -1.44022, 47.82061], "geometry": {"type": "Polygon", "coordinates": [[[-1.46353, 47.81247], [-1.46452, 47.81304], [-1.46533, 47.81373], [-1.46592, 47.81451], [-1.46627, 47.81535], [-1.46637, 47.81623], [-1.46622, 47.8171], [-1.46582, 47.81793], [-1.46518, 47.8187], [-1.46433, 47.81937], [-1.46331, 47.81991], [-1.46215, 47.82031], [-1.46089, 47.82055], [-1.4596, 47.82061], [-1.4583, 47.82051], [-1.45706, 47.82024], [-1.45593, 47.81981], [-1.45554, 47.81959], [-1.45447, 47.81908], [-1.45327, 47.81873], [-1.45277, 47.81862], [-1.45164, 47.81819], [-1.45098, 47.81782], [-1.44991, 47.81731], [-1.44871, 47.81696], [-1.44853, 47.81692], [-1.44739, 47.81649], [-1.44724, 47.8164], [-1.44617, 47.8159], [-1.44497, 47.81554], [-1.44419, 47.81537], [-1.44306, 47.81494], [-1.44207, 47.81437], [-1.44126, 47.81369], [-1.44067, 47.8129], [-1.44032, 47.81206], [-1.44022, 47.81118], [-1.44037, 47.81031], [-1.44077, 47.80948], [-1.44141, 47.80871], [-1.44226, 47.80805], [-1.44328, 47.8075], [-1.44444, 47.8071], [-1.4457, 47.80687], [-1.44699, 47.8068], [-1.44829, 47.8069], [-1.44953, 47.80717], [-1.45066, 47.8076], [-1.45081, 47.80769], [-1.45189, 47.80819], [-1.45309, 47.80855], [-1.45386, 47.80872], [-1.45499, 47.80915], [-1.45565, 47.80952], [-1.45672, 47.81003], [-1.45792, 47.81038], [-1.4581, 47.81042], [-1.45924, 47.81085], [-1.45963, 47.81107], [-1.4607, 47.81158], [-1.4619, 47.81193], [-1.46239, 47.81204], [-1.46353, 47.81247]]]}}, {"type": "Feature", "properties": {"id_parc": "0006309777", "nom_usuel": "Parc éolien Eoliennes de Rougé", "puissance_parc": 9.0, "code_insee": "44146", "nom_commune": "ROUGE", "code_dept": "44", "code_reg": "52", "dat_depot": "2016/12/21 00:00:00", "dat_daae": "2019/10/22 00:00:00", "dat_dlv_au": "2019/12/11 00:00:00", "dat_deb_c": "2021/09/01 00:00:00", "dat_mesv": "2022/06/10 00:00:00", "dat_deb_d": null, "etat_parc": "En exploitation", "sta_admin": "Autorisation", "sta_parc": "Autorisé", "dat_ap_cpl": null, "renouvellement": "Aucun", "nom_exploitant": "VSB Energies Nouvelles", "siret": "82407986700019", "date_maj": "2023/07/21 00:00:00"}, "bbox": [-1.44917, 47.80402, -1.42542, 47.81377], "geometry": {"type": "Polygon", "coordinates": [[[-1.44395, 47.80493], [-1.44519, 47.8052], [-1.44633, 47.80563], [-1.44732, 47.8062], [-1.44812, 47.80689], [-1.44871, 47.80767], [-1.44907, 47.80851], [-1.44917, 47.80939], [-1.44901, 47.81026], [-1.44861, 47.81109], [-1.44797, 47.81186], [-1.44713, 47.81253], [-1.4461, 47.81307], [-1.44494, 47.81347], [-1.44369, 47.8137], [-1.44239, 47.81377], [-1.4411, 47.81367], [-1.44089, 47.81362], [-1.43961, 47.81343], [-1.4383, 47.81342], [-1.4378, 47.81344], [-1.43651, 47.81334], [-1.43551, 47.81312], [-1.43423, 47.81293], [-1.43293, 47.81291], [-1.43193, 47.81297], [-1.43064, 47.81286], [-1.4294, 47.81259], [-1.42826, 47.81216], [-1.42727, 47.81159], [-1.42647, 47.8109], [-1.42587, 47.81012], [-1.42552, 47.80927], [-1.42542, 47.8084], [-1.42557, 47.80753], [-1.42598, 47.80669], [-1.42662, 47.80593], [-1.42746, 47.80526], [-1.42849, 47.80472], [-1.42965, 47.80432], [-1.4309, 47.80408], [-1.4322, 47.80402], [-1.43349, 47.80412], [-1.43448, 47.80434], [-1.43576, 47.80453], [-1.43707, 47.80454], [-1.43807, 47.80449], [-1.43936, 47.8046], [-1.43957, 47.80464], [-1.44085, 47.80483], [-1.44216, 47.80485], [-1.44266, 47.80482], [-1.44395, 47.80493]]]}}, {"type": "Feature", "properties": {"id_parc": "0100043784", "nom_usuel": "CROIX ENERGIES", "puissance_parc": 9.0, "code_insee": "35332", "nom_commune": "TEILLAY", "code_dept": "35", "code_reg": "53", "dat_depot": "2024/03/28 00:00:00", "dat_daae": null, "dat_dlv_au": null, "dat_deb_c": null, "dat_mesv": null, "dat_deb_d": null, "etat_parc": "", "sta_admin": "Autorisation", "sta_parc": "En instruction", "dat_ap_cpl": null, "renouvellement": "Aucun", "nom_exploitant": "CROIX ENERGIES", "siret": "98753880800013", "date_maj": null}, "bbox": [-1.5096, 47.81413, -1.47948, 47.82405], "geometry": {"type": "Polygon", "coordinates": [[[-1.49787, 47.81563], [-1.49937, 47.81484], [-1.50053, 47.81444], [-1.50178, 47.8142], [-1.50308, 47.81413], [-1.50437, 47.81424], [-1.50561, 47.81451], [-1.50675, 47.81494], [-1.50774, 47.81551], [-1.50855, 47.81619], [-1.50914, 47.81698], [-1.50949, 47.81782], [-1.5096, 47.8187], [-1.50944, 47.81957], [-1.50904, 47.8204], [-1.5084, 47.82117], [-1.50756, 47.82184], [-1.50654, 47.82238], [-1.50537, 47.82278], [-1.50412, 47.82302], [-1.50282, 47.82308], [-1.50153, 47.82298], [-1.50029, 47.82271], [-1.49869, 47.82211], [-1.49748, 47.82175], [-1.4962, 47.82156], [-1.49489, 47.82155], [-1.49359, 47.82171], [-1.49237, 47.82203], [-1.49127, 47.82251], [-1.4897, 47.82335], [-1.48855, 47.82375], [-1.4873, 47.82399], [-1.486, 47.82405], [-1.4847, 47.82395], [-1.48346, 47.82368], [-1.48233, 47.82325], [-1.48134, 47.82268], [-1.48053, 47.82199], [-1.47994, 47.82121], [-1.47959, 47.82037], [-1.47948, 47.81949], [-1.47964, 47.81862], [-1.48004, 47.81779], [-1.48068, 47.81702], [-1.48152, 47.81635], [-1.48254, 47.81581], [-1.48371, 47.81541], [-1.48496, 47.81517], [-1.48626, 47.8151], [-1.48755, 47.81521], [-1.48879, 47.81548], [-1.49039, 47.81608], [-1.49159, 47.81643], [-1.49287, 47.81662], [-1.49418, 47.81664], [-1.49547, 47.81649], [-1.49669, 47.81616], [-1.49779, 47.81569], [-1.49787, 47.81563]]]}}]}