{"type": "FeatureCollection", "features": [{"type": "Feature", "id": "national_alrt3j.fid--408db5c8_19f2454d07c_430", "geometry": {"type": "Point", "coordinates": [-1.679, 47.3643]}, "geometry_name": "the_geom", "properties": {"gml_id": 15266974, "aasqa": "52", "date_maj": "2026-07-02T13:31:06.135Z", "partition_field": "522026w27", "etat": "PAS DE DEPASSEMENT", "lib_zone": "Loire-Atlantique", "lib_pol": "Particules PM10", "date_ech": "2026-07-03", "date_dif": "2026-07-02T13:00:06Z", "code_zone": "44", "code_pol": "24"}, "bbox": [-1.679, 47.3643, -1.679, 47.3643]}, {"type": "Feature", "id": "national_alrt3j.fid--408db5c8_19f2454d07c_431", "geometry": {"type": "Point", "coordinates": [-1.679, 47.3643]}, "geometry_name": "the_geom", "properties": {"gml_id": 15266975, "aasqa": "52", "date_maj": "2026-07-02T13:31:06.135Z", "partition_field": "522026w27", "etat": "PAS DE DEPASSEMENT", "lib_zone": "Loire-Atlantique", "lib_pol": "Ozone", "date_ech": "2026-07-03", "date_dif": "2026-07-02T13:00:06Z", "code_zone": "44", "code_pol": "08"}, "bbox": [-1.679, 47.3643, -1.679, 47.3643]}, {"type": "Feature", "id": "national_alrt3j.fid--408db5c8_19f2454d07c_432", "geometry": {"type": "Point", "coordinates": [-1.679, 47.3643]}, "geometry_name": "the_geom", "properties": {"gml_id": 15266976, "aasqa": "52", "date_maj": "2026-07-02T13:31:06.135Z", "partition_field": "522026w27", "etat": "PAS DE DEPASSEMENT", "lib_zone": "Loire-Atlantique", "lib_pol": "Dioxyde d'azote", "date_ech": "2026-07-03", "date_dif": "2026-07-02T13:00:06Z", "code_zone": "44", "code_pol": "03"}, "bbox": [-1.679, 47.3643, -1.679, 47.3643]}, {"type": "Feature", "id": "national_alrt3j.fid--408db5c8_19f2454d07c_433", "geometry": {"type": "Point", "coordinates": [-1.679, 47.3643]}, "geometry_name": "the_geom", "properties": {"gml_id": 15266977, "aasqa": "52", "date_maj": "2026-07-02T13:31:06.135Z", "partition_field": "522026w27", "etat": "PAS DE DEPASSEMENT", "lib_zone": "Loire-Atlantique", "lib_pol": "Particules PM10", "date_ech": "2026-07-02", "date_dif": "2026-07-02T13:00:06Z", "code_zone": "44", "code_pol": "24"}, "bbox": [-1.679, 47.3643, -1.679, 47.3643]}, {"type": "Feature", "id": "national_alrt3j.fid--408db5c8_19f2454d07c_434", "geometry": {"type": "Point", "coordinates": [-1.679, 47.3643]}, "geometry_name": "the_geom", "properties": {"gml_id": 15266978, "aasqa": "52", "date_maj": "2026-07-02T13:31:06.135Z", "partition_field": "522026w27", "etat": "PAS DE DEPASSEMENT", "lib_zone": "Loire-Atlantique", "lib_pol": "Ozone", "date_ech": "2026-07-02", "date_dif": "2026-07-02T13:00:06Z", "code_zone": "44", "code_pol": "08"}, "bbox": [-1.679, 47.3643, -1.679, 47.3643]}, {"type": "Feature", "id": "national_alrt3j.fid--408db5c8_19f2454d07c_435", "geometry": {"type": "Point", "coordinates": [-1.679, 47.3643]}, "geometry_name": "the_geom", "properties": {"gml_id": 15266979, "aasqa": "52", "date_maj": "2026-07-02T13:31:06.135Z", "partition_field": "522026w27", "etat": "PAS DE DEPASSEMENT", "lib_zone": "Loire-Atlantique", "lib_pol": "Dioxyde d'azote", "date_ech": "2026-07-02", "date_dif": "2026-07-02T13:00:06Z", "code_zone": "44", "code_pol": "03"}, "bbox": [-1.679, 47.3643, -1.679, 47.3643]}, {"type": "Feature", "id": "national_alrt3j.fid--408db5c8_19f2454d07c_436", "geometry": {"type": "Point", "coordinates": [-1.679, 47.3643]}, "geometry_name": "the_geom", "properties": {"gml_id": 15266980, "aasqa": "52", "date_maj": "2026-07-02T13:31:06.135Z", "partition_field": "522026w27", "etat": "PAS DE DEPASSEMENT", "lib_zone": "Loire-Atlantique", "lib_pol": "Particules PM10", "date_ech": "2026-07-01", "date_dif": "2026-07-02T13:00:06Z", "code_zone": "44", "code_pol": "24"}, "bbox": [-1.679, 47.3643, -1.679, 47.3643]}, {"type": "Feature", "id": "national_alrt3j.fid--408db5c8_19f2454d07c_437", "geometry": {"type": "Point", "coordinates": [-1.679, 47.3643]}, "geometry_name": "the_geom", "properties": {"gml_id": 15266981, "aasqa": "52", "date_maj": "2026-07-02T13:31:06.135Z", "partition_field": "522026w27", "etat": "PAS DE DEPASSEMENT", "lib_zone": "Loire-Atlantique", "lib_pol": "Ozone", "date_ech": "2026-07-01", "date_dif": "2026-07-02T13:00:06Z", "code_zone": "44", "code_pol": "08"}, "bbox": [-1.679, 47.3643, -1.679, 47.3643]}, {"type": "Feature", "id": "national_alrt3j.fid--408db5c8_19f2454d07c_438", "geometry": {"type": "Point", "coordinates": [-1.679, 47.3643]}, "geometry_name": "the_geom", "properties": {"gml_id": 15266982, "aasqa": "52", "date_maj": "2026-07-02T13:31:06.135Z", "partition_field": "522026w27", "etat": "PAS DE DEPASSEMENT", "lib_zone": "Loire-Atlantique", "lib_pol": "Dioxyde d'azote", "date_ech": "2026-07-01", "date_dif": "2026-07-02T13:00:06Z", "code_zone": "44", "code_pol": "03"}, "bbox": [-1.679, 47.3643, -1.679, 47.3643]}, {"type": "Feature", "id": "national_alrt3j.fid--408db5c8_19f2454d07c_439", "geometry": {"type": "Point", "coordinates": [-0.5593, 47.391]}, "geometry_name": "the_geom", "properties": {"gml_id": 15267010, "aasqa": "52", "date_maj": "2026-07-02T13:31:06.135Z", "partition_field": "522026w27", "etat": "PAS DE DEPASSEMENT", "lib_zone": "Maine-et-Loire", "lib_pol": "Particules PM10", "date_ech": "2026-07-03", "date_dif": "2026-07-02T13:00:06Z", "code_zone": "49", "code_pol": "24"}, "bbox": [-0.5593, 47.391, -0.5593, 47.391]}, {"type": "Feature", "id": "national_alrt3j.fid--408db5c8_19f2454d07c_43a", "geometry": {"type": "Point", "coordinates": [-0.5593, 47.391]}, "geometry_name": "the_geom", "properties": {"gml_id": 15267011, "aasqa": "52", "date_maj": "2026-07-02T13:31:06.135Z", "partition_field": "522026w27", "etat": "PAS DE DEPASSEMENT", "lib_zone": "Maine-et-Loire", "lib_pol": "Ozone", "date_ech": "2026-07-03", "date_dif": "2026-07-02T13:00:06Z", "code_zone": "49", "code_pol": "08"}, "bbox": [-0.5593, 47.391, -0.5593, 47.391]}, {"type": "Feature", "id": "national_alrt3j.fid--408db5c8_19f2454d07c_43b", "geometry": {"type": "Point", "coordinates": [-0.5593, 47.391]}, "geometry_name": "the_geom", "properties": {"gml_id": 15267012, "aasqa": "52", "date_maj": "2026-07-02T13:31:06.135Z", "partition_field": "522026w27", "etat": "PAS DE DEPASSEMENT", "lib_zone": "Maine-et-Loire", "lib_pol": "Dioxyde d'azote", "date_ech": "2026-07-03", "date_dif": "2026-07-02T13:00:06Z", "code_zone": "49", "code_pol": "03"}, "bbox": [-0.5593, 47.391, -0.5593, 47.391]}, {"type": "Feature", "id": "national_alrt3j.fid--408db5c8_19f2454d07c_43c", "geometry": {"type": "Point", "coordinates": [-0.5593, 47.391]}, "geometry_name": "the_geom", "properties": {"gml_id": 15267013, "aasqa": "52", "date_maj": "2026-07-02T13:31:06.135Z", "partition_field": "522026w27", "etat": "PAS DE DEPASSEMENT", "lib_zone": "Maine-et-Loire", "lib_pol": "Particules PM10", "date_ech": "2026-07-02", "date_dif": "2026-07-02T13:00:06Z", "code_zone": "49", "code_pol": "24"}, "bbox": [-0.5593, 47.391, -0.5593, 47.391]}, {"type": "Feature", "id": "national_alrt3j.fid--408db5c8_19f2454d07c_43d", "geometry": {"type": "Point", "coordinates": [-0.5593, 47.391]}, "geometry_name": "the_geom", "properties": {"gml_id": 15267014, "aasqa": "52", "date_maj": "2026-07-02T13:31:06.135Z", "partition_field": "522026w27", "etat": "PAS DE DEPASSEMENT", "lib_zone": "Maine-et-Loire", "lib_pol": "Ozone", "date_ech": "2026-07-02", "date_dif": "2026-07-02T13:00:06Z", "code_zone": "49", "code_pol": "08"}, "bbox": [-0.5593, 47.391, -0.5593, 47.391]}, {"type": "Feature", "id": "national_alrt3j.fid--408db5c8_19f2454d07c_43e", "geometry": {"type": "Point", "coordinates": [-0.5593, 47.391]}, "geometry_name": "the_geom", "properties": {"gml_id": 15267015, "aasqa": "52", "date_maj": "2026-07-02T13:31:06.135Z", "partition_field": "522026w27", "etat": "PAS DE DEPASSEMENT", "lib_zone": "Maine-et-Loire", "lib_pol": "Dioxyde d'azote", "date_ech": "2026-07-02", "date_dif": "2026-07-02T13:00:06Z", "code_zone": "49", "code_pol": "03"}, "bbox": [-0.5593, 47.391, -0.5593, 47.391]}, {"type": "Feature", "id": "national_alrt3j.fid--408db5c8_19f2454d07c_43f", "geometry": {"type": "Point", "coordinates": [-0.5593, 47.391]}, "geometry_name": "the_geom", "properties": {"gml_id": 15267016, "aasqa": "52", "date_maj": "2026-07-02T13:31:06.135Z", "partition_field": "522026w27", "etat": "PAS DE DEPASSEMENT", "lib_zone": "Maine-et-Loire", "lib_pol": "Particules PM10", "date_ech": "2026-07-01", "date_dif": "2026-07-02T13:00:06Z", "code_zone": "49", "code_pol": "24"}, "bbox": [-0.5593, 47.391, -0.5593, 47.391]}, {"type": "Feature", "id": "national_alrt3j.fid--408db5c8_19f2454d07c_440", "geometry": {"type": "Point", "coordinates": [-0.5593, 47.391]}, "geometry_name": "the_geom", "properties": {"gml_id": 15267017, "aasqa": "52", "date_maj": "2026-07-02T13:31:06.135Z", "partition_field": "522026w27", "etat": "PAS DE DEPASSEMENT", "lib_zone": "Maine-et-Loire", "lib_pol": "Ozone", "date_ech": "2026-07-01", "date_dif": "2026-07-02T13:00:06Z", "code_zone": "49", "code_pol": "08"}, "bbox": [-0.5593, 47.391, -0.5593, 47.391]}, {"type": "Feature", "id": "national_alrt3j.fid--408db5c8_19f2454d07c_441", "geometry": {"type": "Point", "coordinates": [-0.5593, 47.391]}, "geometry_name": "the_geom", "properties": {"gml_id": 15267018, "aasqa": "52", "date_maj": "2026-07-02T13:31:06.135Z", "partition_field": "522026w27", "etat": "PAS DE DEPASSEMENT", "lib_zone": "Maine-et-Loire", "lib_pol": "Dioxyde d'azote", "date_ech": "2026-07-01", "date_dif": "2026-07-02T13:00:06Z", "code_zone": "49", "code_pol": "03"}, "bbox": [-0.5593, 47.391, -0.5593, 47.391]}, {"type": "Feature", "id": "national_alrt3j.fid--408db5c8_19f2454d07c_442", "geometry": {"type": "Point", "coordinates": [-2.8651, 48.4416]}, "geometry_name": "the_geom", "properties": {"gml_id": 15266656, "aasqa": "53", "date_maj": "2026-07-02T13:12:51.026Z", "partition_field": "532026w27", "etat": "PAS DE DEPASSEMENT", "lib_zone": "COTES-D'ARMOR", "lib_pol": "Dioxyde d'azote", "date_ech": "2026-07-01", "date_dif": "2026-07-02T02:00:00Z", "code_zone": "22", "code_pol": "8"}, "bbox": [-2.8651, 48.4416, -2.8651, 48.4416]}, {"type": "Feature", "id": "national_alrt3j.fid--408db5c8_19f2454d07c_443", "geometry": {"type": "Point", "coordinates": [-2.8651, 48.4416]}, "geometry_name": "the_geom", "properties": {"gml_id": 15266657, "aasqa": "53", "date_maj": "2026-07-02T13:12:51.026Z", "partition_field": "532026w27", "etat": "PAS DE DEPASSEMENT", "lib_zone": "COTES-D'ARMOR", "lib_pol": "Ozone", "date_ech": "2026-07-01", "date_dif": "2026-07-02T02:00:00Z", "code_zone": "22", "code_pol": "7"}, "bbox": [-2.8651, 48.4416, -2.8651, 48.4416]}, {"type": "Feature", "id": "national_alrt3j.fid--408db5c8_19f2454d07c_444", "geometry": {"type": "Point", "coordinates": [-2.8651, 48.4416]}, "geometry_name": "the_geom", "properties": {"gml_id": 15266658, "aasqa": "53", "date_maj": "2026-07-02T13:12:51.026Z", "partition_field": "532026w27", "etat": "PAS DE DEPASSEMENT", "lib_zone": "COTES-D'ARMOR", "lib_pol": "Particules fines PM10", "date_ech": "2026-07-01", "date_dif": "2026-07-02T02:00:00Z", "code_zone": "22", "code_pol": "5"}, "bbox": [-2.8651, 48.4416, -2.8651, 48.4416]}, {"type": "Feature", "id": "national_alrt3j.fid--408db5c8_19f2454d07c_445", "geometry": {"type": "Point", "coordinates": [-2.8651, 48.4416]}, "geometry_name": "the_geom", "properties": {"gml_id": 15266659, "aasqa": "53", "date_maj": "2026-07-02T13:12:51.026Z", "partition_field": "532026w27", "etat": "PAS DE DEPASSEMENT", "lib_zone": "COTES-D'ARMOR", "lib_pol": "Dioxyde d'azote", "date_ech": "2026-07-02", "date_dif": "2026-07-02T02:00:00Z", "code_zone": "22", "code_pol": "8"}, "bbox": [-2.8651, 48.4416, -2.8651, 48.4416]}, {"type": "Feature", "id": "national_alrt3j.fid--408db5c8_19f2454d07c_446", "geometry": {"type": "Point", "coordinates": [-2.8651, 48.4416]}, "geometry_name": "the_geom", "properties": {"gml_id": 15266660, "aasqa": "53", "date_maj": "2026-07-02T13:12:51.026Z", "partition_field": "532026w27", "etat": "PAS DE DEPASSEMENT", "lib_zone": "COTES-D'ARMOR", "lib_pol": "Ozone", "date_ech": "2026-07-02", "date_dif": "2026-07-02T02:00:00Z", "code_zone": "22", "code_pol": "7"}, "bbox": [-2.8651, 48.4416, -2.8651, 48.4416]}, {"type": "Feature", "id": "national_alrt3j.fid--408db5c8_19f2454d07c_447", "geometry": {"type": "Point", "coordinates": [-2.8651, 48.4416]}, "geometry_name": "the_geom", "properties": {"gml_id": 15266661, "aasqa": "53", "date_maj": "2026-07-02T13:12:51.026Z", "partition_field": "532026w27", "etat": "PAS DE DEPASSEMENT", "lib_zone": "COTES-D'ARMOR", "lib_pol": "Particules fines PM10", "date_ech": "2026-07-02", "date_dif": "2026-07-02T02:00:00Z", "code_zone": "22", "code_pol": "5"}, "bbox": [-2.8651, 48.4416, -2.8651, 48.4416]}, {"type": "Feature", "id": "national_alrt3j.fid--408db5c8_19f2454d07c_448", "geometry": {"type": "Point", "coordinates": [-2.8651, 48.4416]}, "geometry_name": "the_geom", "properties": {"gml_id": 15266662, "aasqa": "53", "date_maj": "2026-07-02T13:12:51.026Z", "partition_field": "532026w27", "etat": "PAS DE DEPASSEMENT", "lib_zone": "COTES-D'ARMOR", "lib_pol": "Dioxyde d'azote", "date_ech": "2026-07-03", "date_dif": "2026-07-02T02:00:00Z", "code_zone": "22", "code_pol": "8"}, "bbox": [-2.8651, 48.4416, -2.8651, 48.4416]}, {"type": "Feature", "id": "national_alrt3j.fid--408db5c8_19f2454d07c_449", "geometry": {"type": "Point", "coordinates": [-2.8651, 48.4416]}, "geometry_name": "the_geom", "properties": {"gml_id": 15266663, "aasqa": "53", "date_maj": "2026-07-02T13:12:51.026Z", "partition_field": "532026w27", "etat": "PAS DE DEPASSEMENT", "lib_zone": "COTES-D'ARMOR", "lib_pol": "Ozone", "date_ech": "2026-07-03", "date_dif": "2026-07-02T02:00:00Z", "code_zone": "22", "code_pol": "7"}, "bbox": [-2.8651, 48.4416, -2.8651, 48.4416]}, {"type": "Feature", "id": "national_alrt3j.fid--408db5c8_19f2454d07c_44a", "geometry": {"type": "Point", "coordinates": [-2.8651, 48.4416]}, "geometry_name": "the_geom", "properties": {"gml_id": 15266664, "aasqa": "53", "date_maj": "2026-07-02T13:12:51.026Z", "partition_field": "532026w27", "etat": "PAS DE DEPASSEMENT", "lib_zone": "COTES-D'ARMOR", "lib_pol": "Particules fines PM10", "date_ech": "2026-07-03", "date_dif": "2026-07-02T02:00:00Z", "code_zone": "22", "code_pol": "5"}, "bbox": [-2.8651, 48.4416, -2.8651, 48.4416]}, {"type": "Feature", "id": "national_alrt3j.fid--408db5c8_19f2454d07c_44b", "geometry": {"type": "Point", "coordinates": [-1.638, 48.1567]}, "geometry_name": "the_geom", "properties": {"gml_id": 15266674, "aasqa": "53", "date_maj": "2026-07-02T13:12:51.026Z", "partition_field": "532026w27", "etat": "PAS DE DEPASSEMENT", "lib_zone": "ILLE-ET-VILAINE", "lib_pol": "Dioxyde d'azote", "date_ech": "2026-07-01", "date_dif": "2026-07-02T02:00:00Z", "code_zone": "35", "code_pol": "8"}, "bbox": [-1.638, 48.1567, -1.638, 48.1567]}, {"type": "Feature", "id": "national_alrt3j.fid--408db5c8_19f2454d07c_44c", "geometry": {"type": "Point", "coordinates": [-1.638, 48.1567]}, "geometry_name": "the_geom", "properties": {"gml_id": 15266675, "aasqa": "53", "date_maj": "2026-07-02T13:12:51.026Z", "partition_field": "532026w27", "etat": "PAS DE DEPASSEMENT", "lib_zone": "ILLE-ET-VILAINE", "lib_pol": "Ozone", "date_ech": "2026-07-01", "date_dif": "2026-07-02T02:00:00Z", "code_zone": "35", "code_pol": "7"}, "bbox": [-1.638, 48.1567, -1.638, 48.1567]}, {"type": "Feature", "id": "national_alrt3j.fid--408db5c8_19f2454d07c_44d", "geometry": {"type": "Point", "coordinates": [-1.638, 48.1567]}, "geometry_name": "the_geom", "properties": {"gml_id": 15266676, "aasqa": "53", "date_maj": "2026-07-02T13:12:51.026Z", "partition_field": "532026w27", "etat": "PAS DE DEPASSEMENT", "lib_zone": "ILLE-ET-VILAINE", "lib_pol": "Particules fines PM10", "date_ech": "2026-07-01", "date_dif": "2026-07-02T02:00:00Z", "code_zone": "35", "code_pol": "5"}, "bbox": [-1.638, 48.1567, -1.638, 48.1567]}, {"type": "Feature", "id": "national_alrt3j.fid--408db5c8_19f2454d07c_44e", "geometry": {"type": "Point", "coordinates": [-1.638, 48.1567]}, "geometry_name": "the_geom", "properties": {"gml_id": 15266677, "aasqa": "53", "date_maj": "2026-07-02T13:12:51.026Z", "partition_field": "532026w27", "etat": "PAS DE DEPASSEMENT", "lib_zone": "ILLE-ET-VILAINE", "lib_pol": "Particules fines PM2.5", "date_ech": "2026-07-01", "date_dif": "2026-07-02T02:00:00Z", "code_zone": "35", "code_pol": "6001"}, "bbox": [-1.638, 48.1567, -1.638, 48.1567]}, {"type": "Feature", "id": "national_alrt3j.fid--408db5c8_19f2454d07c_44f", "geometry": {"type": "Point", "coordinates": [-1.638, 48.1567]}, "geometry_name": "the_geom", "properties": {"gml_id": 15266678, "aasqa": "53", "date_maj": "2026-07-02T13:12:51.026Z", "partition_field": "532026w27", "etat": "PAS DE DEPASSEMENT", "lib_zone": "ILLE-ET-VILAINE", "lib_pol": "Dioxyde d'azote", "date_ech": "2026-07-02", "date_dif": "2026-07-02T02:00:00Z", "code_zone": "35", "code_pol": "8"}, "bbox": [-1.638, 48.1567, -1.638, 48.1567]}, {"type": "Feature", "id": "national_alrt3j.fid--408db5c8_19f2454d07c_450", "geometry": {"type": "Point", "coordinates": [-1.638, 48.1567]}, "geometry_name": "the_geom", "properties": {"gml_id": 15266679, "aasqa": "53", "date_maj": "2026-07-02T13:12:51.026Z", "partition_field": "532026w27", "etat": "PAS DE DEPASSEMENT", "lib_zone": "ILLE-ET-VILAINE", "lib_pol": "Ozone", "date_ech": "2026-07-02", "date_dif": "2026-07-02T02:00:00Z", "code_zone": "35", "code_pol": "7"}, "bbox": [-1.638, 48.1567, -1.638, 48.1567]}, {"type": "Feature", "id": "national_alrt3j.fid--408db5c8_19f2454d07c_451", "geometry": {"type": "Point", "coordinates": [-1.638, 48.1567]}, "geometry_name": "the_geom", "properties": {"gml_id": 15266680, "aasqa": "53", "date_maj": "2026-07-02T13:12:51.026Z", "partition_field": "532026w27", "etat": "PAS DE DEPASSEMENT", "lib_zone": "ILLE-ET-VILAINE", "lib_pol": "Particules fines PM10", "date_ech": "2026-07-02", "date_dif": "2026-07-02T02:00:00Z", "code_zone": "35", "code_pol": "5"}, "bbox": [-1.638, 48.1567, -1.638, 48.1567]}, {"type": "Feature", "id": "national_alrt3j.fid--408db5c8_19f2454d07c_452", "geometry": {"type": "Point", "coordinates": [-1.638, 48.1567]}, "geometry_name": "the_geom", "properties": {"gml_id": 15266681, "aasqa": "53", "date_maj": "2026-07-02T13:12:51.026Z", "partition_field": "532026w27", "etat": "PAS DE DEPASSEMENT", "lib_zone": "ILLE-ET-VILAINE", "lib_pol": "Particules fines PM2.5", "date_ech": "2026-07-02", "date_dif": "2026-07-02T02:00:00Z", "code_zone": "35", "code_pol": "6001"}, "bbox": [-1.638, 48.1567, -1.638, 48.1567]}, {"type": "Feature", "id": "national_alrt3j.fid--408db5c8_19f2454d07c_453", "geometry": {"type": "Point", "coordinates": [-1.638, 48.1567]}, "geometry_name": "the_geom", "properties": {"gml_id": 15266682, "aasqa": "53", "date_maj": "2026-07-02T13:12:51.026Z", "partition_field": "532026w27", "etat": "PAS DE DEPASSEMENT", "lib_zone": "ILLE-ET-VILAINE", "lib_pol": "Dioxyde d'azote", "date_ech": "2026-07-03", "date_dif": "2026-07-02T02:00:00Z", "code_zone": "35", "code_pol": "8"}, "bbox": [-1.638, 48.1567, -1.638, 48.1567]}, {"type": "Feature", "id": "national_alrt3j.fid--408db5c8_19f2454d07c_454", "geometry": {"type": "Point", "coordinates": [-1.638, 48.1567]}, "geometry_name": "the_geom", "properties": {"gml_id": 15266683, "aasqa": "53", "date_maj": "2026-07-02T13:12:51.026Z", "partition_field": "532026w27", "etat": "PAS DE DEPASSEMENT", "lib_zone": "ILLE-ET-VILAINE", "lib_pol": "Ozone", "date_ech": "2026-07-03", "date_dif": "2026-07-02T02:00:00Z", "code_zone": "35", "code_pol": "7"}, "bbox": [-1.638, 48.1567, -1.638, 48.1567]}, {"type": "Feature", "id": "national_alrt3j.fid--408db5c8_19f2454d07c_455", "geometry": {"type": "Point", "coordinates": [-1.638, 48.1567]}, "geometry_name": "the_geom", "properties": {"gml_id": 15266684, "aasqa": "53", "date_maj": "2026-07-02T13:12:51.026Z", "partition_field": "532026w27", "etat": "PAS DE DEPASSEMENT", "lib_zone": "ILLE-ET-VILAINE", "lib_pol": "Particules fines PM10", "date_ech": "2026-07-03", "date_dif": "2026-07-02T02:00:00Z", "code_zone": "35", "code_pol": "5"}, "bbox": [-1.638, 48.1567, -1.638, 48.1567]}, {"type": "Feature", "id": "national_alrt3j.fid--408db5c8_19f2454d07c_456", "geometry": {"type": "Point", "coordinates": [-1.638, 48.1567]}, "geometry_name": "the_geom", "properties": {"gml_id": 15266685, "aasqa": "53", "date_maj": "2026-07-02T13:12:51.026Z", "partition_field": "532026w27", "etat": "PAS DE DEPASSEMENT", "lib_zone": "ILLE-ET-VILAINE", "lib_pol": "Particules fines PM2.5", "date_ech": "2026-07-03", "date_dif": "2026-07-02T02:00:00Z", "code_zone": "35", "code_pol": "6001"}, "bbox": [-1.638, 48.1567, -1.638, 48.1567]}], "totalFeatures": 39, "numberMatched": 39, "numberReturned": 39, "timeStamp": "2026-07-02T19:36:48.044Z", "crs": {"type": "name", "properties": {"name": "urn:ogc:def:crs:EPSG::4326"}}, "bbox": [-2.8651, 47.3643, -0.5593, 48.4416]}