{"type": "FeatureCollection", "features": [{"type": "Feature", "id": "chef_lieu_d_epci.251", "geometry": {"type": "Point", "coordinates": [-1.81281167, 47.96880002]}, "geometry_name": "geometrie", "properties": {"cleabs": "CHFLEPCI0000000200043990", "nom_officiel": "CC Vallons de Haute-Bretagne Communauté", "nom_officiel_en_majuscules": "CC VALLONS DE HAUTE-BRETAGNE COMMUNAUTE", "nom_du_chef_lieu": "Guichen", "nom_du_chef_lieu_en_majuscules": "GUICHEN", "nom_du_siege_de_l_epci": "Siège de la Communauté de Communes Vallons de Haute Bretagne Communauté", "nom_du_siege_de_l_epci_en_majuscules": "SIEGE DE LA COMMUNAUTE DE COMMUNES VALLONS DE HAUTE BRETAGNE COMMUNAUTE", "code_insee_de_la_commune_siege": "35126", "lien_vers_l_epci": "EPCI____0000000200043990", "code_siren": "200043990"}}, {"type": "Feature", "id": "chef_lieu_d_epci.575", "geometry": {"type": "Point", "coordinates": [-1.6863048, 47.85236149]}, "geometry_name": "geometrie", "properties": {"cleabs": "CHFLEPCI0000000200070662", "nom_officiel": "CC Bretagne porte de Loire Communauté", "nom_officiel_en_majuscules": "CC BRETAGNE PORTE DE LOIRE COMMUNAUTE", "nom_du_chef_lieu": "Bain-de-Bretagne", "nom_du_chef_lieu_en_majuscules": "BAIN-DE-BRETAGNE", "nom_du_siege_de_l_epci": "Siège de la Communauté de Communes Bretagne Porte de Loire Communauté", "nom_du_siege_de_l_epci_en_majuscules": "SIEGE DE LA COMMUNAUTE DE COMMUNES BRETAGNE PORTE DE LOIRE COMMUNAUTE", "code_insee_de_la_commune_siege": "35012", "lien_vers_l_epci": "EPCI____0000000200070662", "code_siren": "200070662"}}, {"type": "Feature", "id": "chef_lieu_d_epci.916", "geometry": {"type": "Point", "coordinates": [-1.67524205, 48.09321314]}, "geometry_name": "geometrie", "properties": {"cleabs": "CHFLEPCI0000000243500139", "nom_officiel": "Rennes Métropole", "nom_officiel_en_majuscules": "RENNES METROPOLE", "nom_du_chef_lieu": "Rennes", "nom_du_chef_lieu_en_majuscules": "RENNES", "nom_du_siege_de_l_epci": "Siège de Rennes Métropole", "nom_du_siege_de_l_epci_en_majuscules": "SIEGE DE RENNES METROPOLE", "code_insee_de_la_commune_siege": "35238", "lien_vers_l_epci": "EPCI____0000000243500139", "code_siren": "243500139"}}, {"type": "Feature", "id": "chef_lieu_d_epci.917", "geometry": {"type": "Point", "coordinates": [-1.95641617, 48.13876394]}, "geometry_name": "geometrie", "properties": {"cleabs": "CHFLEPCI0000000243500550", "nom_officiel": "CC Montfort Communauté", "nom_officiel_en_majuscules": "CC MONTFORT COMMUNAUTE", "nom_du_chef_lieu": "Montfort-sur-Meu", "nom_du_chef_lieu_en_majuscules": "MONTFORT-SUR-MEU", "nom_du_siege_de_l_epci": "Siège de la Communauté de Communes Montfort Communauté", "nom_du_siege_de_l_epci_en_majuscules": "SIEGE DE LA COMMUNAUTE DE COMMUNES MONTFORT COMMUNAUTE", "code_insee_de_la_commune_siege": "35188", "lien_vers_l_epci": "EPCI____0000000243500550", "code_siren": "243500550"}}, {"type": "Feature", "id": "chef_lieu_d_epci.919", "geometry": {"type": "Point", "coordinates": [-1.37969824, 47.91143708]}, "geometry_name": "geometrie", "properties": {"cleabs": "CHFLEPCI0000000243500634", "nom_officiel": "Roche aux Fées Communauté", "nom_officiel_en_majuscules": "ROCHE AUX FEES COMMUNAUTE", "nom_du_chef_lieu": "Retiers", "nom_du_chef_lieu_en_majuscules": "RETIERS", "nom_du_siege_de_l_epci": "Siège de la Communauté de Communes de la Roche aux Fées", "nom_du_siege_de_l_epci_en_majuscules": "SIEGE DE LA COMMUNAUTE DE COMMUNES DE LA ROCHE AUX FEES", "code_insee_de_la_commune_siege": "35239", "lien_vers_l_epci": "EPCI____0000000243500634", "code_siren": "243500634"}}, {"type": "Feature", "id": "chef_lieu_d_epci.920", "geometry": {"type": "Point", "coordinates": [-1.51214024, 48.05424382]}, "geometry_name": "geometrie", "properties": {"cleabs": "CHFLEPCI0000000243500659", "nom_officiel": "CC Pays de Châteaugiron Communauté", "nom_officiel_en_majuscules": "CC PAYS DE CHATEAUGIRON COMMUNAUTE", "nom_du_chef_lieu": "Châteaugiron", "nom_du_chef_lieu_en_majuscules": "CHATEAUGIRON", "nom_du_siege_de_l_epci": "Siège de la Communauté de Communes Pays de Châteaugiron Communauté", "nom_du_siege_de_l_epci_en_majuscules": "SIEGE DE LA COMMUNAUTE DE COMMUNES PAYS DE CHATEAUGIRON COMMUNAUTE", "code_insee_de_la_commune_siege": "35069", "lien_vers_l_epci": "EPCI____0000000243500659", "code_siren": "243500659"}}, {"type": "Feature", "id": "chef_lieu_d_epci.921", "geometry": {"type": "Point", "coordinates": [-1.71764484, 48.24602567]}, "geometry_name": "geometrie", "properties": {"cleabs": "CHFLEPCI0000000243500667", "nom_officiel": "CC Val d'Ille-Aubigné", "nom_officiel_en_majuscules": "CC VAL D'ILLE-AUBIGNE", "nom_du_chef_lieu": "Montreuil-le-Gast", "nom_du_chef_lieu_en_majuscules": "MONTREUIL-LE-GAST", "nom_du_siege_de_l_epci": "Siège de la Communauté de Communes Val d'Ille-Aubigné", "nom_du_siege_de_l_epci_en_majuscules": "SIEGE DE LA COMMUNAUTE DE COMMUNES VAL D'ILLE-AUBIGNE", "code_insee_de_la_commune_siege": "35193", "lien_vers_l_epci": "EPCI____0000000243500667", "code_siren": "243500667"}}, {"type": "Feature", "id": "chef_lieu_d_epci.925", "geometry": {"type": "Point", "coordinates": [-1.50294839, 48.21676165]}, "geometry_name": "geometrie", "properties": {"cleabs": "CHFLEPCI0000000243500774", "nom_officiel": "CC Liffré-Cormier Communauté", "nom_officiel_en_majuscules": "CC LIFFRE-CORMIER COMMUNAUTE", "nom_du_chef_lieu": "Liffré", "nom_du_chef_lieu_en_majuscules": "LIFFRE", "nom_du_siege_de_l_epci": "Siège de la Communauté de Communes Liffré-Cormier Communauté", "nom_du_siege_de_l_epci_en_majuscules": "SIEGE DE LA COMMUNAUTE DE COMMUNES LIFFRE-CORMIER COMMUNAUTE", "code_insee_de_la_commune_siege": "35152", "lien_vers_l_epci": "EPCI____0000000243500774", "code_siren": "243500774"}}], "totalFeatures": 8, "numberMatched": 8, "numberReturned": 8, "timeStamp": "2026-07-04T17:55:45.839Z", "crs": {"type": "name", "properties": {"name": "urn:ogc:def:crs:EPSG::4326"}}}