{"type": "FeatureCollection", "features": [{"type": "Feature", "id": "ae_annotation_edit.1514", "geometry": {"type": "MultiPoint", "coordinates": [[-1.7125, 47.9816]]}, "geometry_name": "the_geom", "properties": {"remarque": "Proximité OAP / Réservoir régional biodiversité", "resolu": false, "service": "DREAL", "auteur": "LD"}}, {"type": "Feature", "id": "ae_annotation_edit.1506", "geometry": {"type": "MultiPoint", "coordinates": [[-1.7458, 48.0466]]}, "geometry_name": "the_geom", "properties": {"remarque": "Proximité OAP / ZNIEFF1", "resolu": false, "service": "DREAL", "auteur": "LD"}}, {"type": "Feature", "id": "ae_annotation_edit.1508", "geometry": {"type": "MultiPoint", "coordinates": [[-1.8263, 48.08]]}, "geometry_name": "the_geom", "properties": {"remarque": "Proximité OAP / Site de préservation majeure du patrimoine naturel", "resolu": false, "service": "DREAL", "auteur": "LD"}}, {"type": "Feature", "id": "ae_annotation_edit.1505", "geometry": {"type": "MultiPoint", "coordinates": [[-1.7846, 48.1567]]}, "geometry_name": "the_geom", "properties": {"remarque": "Proximité OAP / ZNIEFF1", "resolu": false, "service": "DREAL", "auteur": "LF"}}, {"type": "Feature", "id": "ae_annotation_edit.1507", "geometry": {"type": "MultiPoint", "coordinates": [[-1.6773, 47.9992]]}, "geometry_name": "the_geom", "properties": {"remarque": "Proximité OAP / ZNIEFF1", "resolu": false, "service": "DREAL", "auteur": "LD"}}, {"type": "Feature", "id": "ae_annotation_edit.1562", "geometry": {"type": "MultiPoint", "coordinates": [[-1.8052, 48.1081]]}, "geometry_name": "the_geom", "properties": {"remarque": "Mange la vallée et ZH, incompatible SCOT. Mais conforme au classement du PLU actuel et a fait l'objet d'un avis Ae en 2013 concluant à une bonne qualité de l'EE (G-1591). Pour autant, l'affectation du vallon comme \"équipement sportif de plein air\" ne répond pas à l'enjeu de sa préservation.", "resolu": false, "service": "DREAL", "auteur": "PM"}}, {"type": "Feature", "id": "ae_annotation_edit.1569", "geometry": {"type": "MultiPoint", "coordinates": [[-1.5859, 48.14]]}, "geometry_name": "the_geom", "properties": {"remarque": "\"passager clandestin\" de Viasilva, vient bouffer une continuité écologique du SCoT", "resolu": false, "service": "DREAL", "auteur": "PM"}}], "totalFeatures": 7, "numberMatched": 7, "numberReturned": 7, "timeStamp": "2026-07-04T17:56:24.844Z", "crs": {"type": "name", "properties": {"name": "urn:ogc:def:crs:EPSG::4326"}}}