{"type": "FeatureCollection", "features": [{"type": "Feature", "id": "APB_polygones.14", "geometry": {"type": "MultiPolygon", "coordinates": [[[[-1.555, 48.1822], [-1.5525, 48.1839], [-1.5526, 48.184], [-1.5499, 48.186], [-1.5499, 48.1861], [-1.5499, 48.1862], [-1.5501, 48.1863], [-1.5503, 48.1864], [-1.5505, 48.1864], [-1.5501, 48.1867], [-1.5501, 48.1866], [-1.5501, 48.1865], [-1.5499, 48.1864], [-1.5496, 48.1863], [-1.5495, 48.1863], [-1.547, 48.188], [-1.5468, 48.1879], [-1.546, 48.1869], [-1.5461, 48.1849], [-1.5461, 48.1839], [-1.5464, 48.1836], [-1.5464, 48.1833], [-1.5461, 48.183], [-1.5462, 48.1818], [-1.5502, 48.1791], [-1.5504, 48.1792], [-1.5506, 48.1791], [-1.5508, 48.1792], [-1.555, 48.1822], [-1.555, 48.1822]]]]}, "geometry_name": "the_geom", "properties": {"oid": 14, "NOM_SITE": "Nidification du balbuzard pêcheur en forêt de Rennes", "ID_MNHN": "", "ID_DREAL": "apb_35_016", "DEPT": "35", "URL_FICHE": "", "SURF_OFF": 36, "MARIN": "F", "GEST_SITE": "", "DATE_CREA": "2025-04-08T22:00:00Z", "MODIF_ADM": null, "MODIF_GEO": null, "SRC_GEOM": "", "SRC_ANNEE": "", "URL_AMP": "", "URL_DREAL": "https://www.bretagne.developpement-durable.gouv.fr/arrete-listant-les-sites-d-interet-geologique-du-a4193.html", "URL_GEOBZH": ""}}, {"type": "Feature", "id": "APB_polygones.41", "geometry": {"type": "MultiPolygon", "coordinates": [[[[-1.5611, 47.8302], [-1.561, 47.8302], [-1.561, 47.8302], [-1.561, 47.8302], [-1.561, 47.8302], [-1.561, 47.8302], [-1.561, 47.8302], [-1.561, 47.8302], [-1.561, 47.8302], [-1.5609, 47.8302], [-1.5609, 47.8302], [-1.5609, 47.8302], [-1.5609, 47.8302], [-1.5609, 47.8302], [-1.5609, 47.8302], [-1.5609, 47.8302], [-1.5609, 47.8302], [-1.5608, 47.8302], [-1.5608, 47.8302], [-1.5608, 47.8302], [-1.5608, 47.8302], [-1.5607, 47.8302], [-1.5607, 47.8302], [-1.5607, 47.8302], [-1.5607, 47.8302], [-1.5607, 47.8302], [-1.5607, 47.8302], [-1.5606, 47.8302], [-1.5606, 47.8302], [-1.5606, 47.8302], [-1.5606, 47.8301], [-1.5606, 47.8301], [-1.5606, 47.8302], [-1.5606, 47.8302], [-1.5606, 47.8301], [-1.5606, 47.8301], [-1.5606, 47.8301], [-1.5606, 47.8301], [-1.5606, 47.8301], [-1.5606, 47.8301], [-1.5606, 47.8301], [-1.5606, 47.8301], [-1.5606, 47.8301], [-1.5606, 47.8301], [-1.5606, 47.8301], [-1.5606, 47.8301], [-1.5606, 47.83], [-1.5606, 47.83], [-1.5606, 47.83], [-1.5607, 47.83], [-1.5607, 47.83], [-1.5607, 47.83], [-1.5607, 47.83], [-1.5607, 47.83], [-1.5607, 47.83], [-1.5607, 47.83], [-1.5607, 47.83], [-1.5608, 47.83], [-1.5608, 47.83], [-1.5608, 47.83], [-1.5608, 47.83], [-1.5608, 47.83], [-1.5608, 47.83], [-1.5609, 47.83], [-1.5609, 47.83], [-1.5609, 47.83], [-1.5609, 47.83], [-1.5609, 47.83], [-1.5609, 47.83], [-1.5609, 47.83], [-1.5609, 47.83], [-1.561, 47.83], [-1.561, 47.83], [-1.561, 47.83], [-1.561, 47.83], [-1.561, 47.83], [-1.561, 47.83], [-1.561, 47.83], [-1.561, 47.83], [-1.5611, 47.83], [-1.5611, 47.8301], [-1.5611, 47.8301], [-1.5611, 47.8301], [-1.5611, 47.8301], [-1.5611, 47.8301], [-1.5611, 47.8301], [-1.5611, 47.8301], [-1.5611, 47.8301], [-1.5611, 47.8301], [-1.5611, 47.8301], [-1.5611, 47.8301], [-1.5611, 47.8301], [-1.5611, 47.8301], [-1.5611, 47.8302], [-1.5611, 47.8302], [-1.5611, 47.8302], [-1.5611, 47.8302], [-1.5611, 47.8302]]]]}, "geometry_name": "the_geom", "properties": {"oid": 41, "NOM_SITE": "Eglise Paroissiale - Commune D'Erce-En-Lamee", "ID_MNHN": "FR3800616", "ID_DREAL": "apb_35_007", "DEPT": "35", "URL_FICHE": "https://inpn.mnhn.fr/espace/protege/FR3800616", "SURF_OFF": 0, "MARIN": "F", "GEST_SITE": "", "DATE_CREA": "2001-08-23T22:00:00Z", "MODIF_ADM": null, "MODIF_GEO": null, "SRC_GEOM": "PCI", "SRC_ANNEE": "2022", "URL_AMP": "", "URL_DREAL": "https://www.bretagne.developpement-durable.gouv.fr/arrete-de-protection-de-biotope-du-departement-d-a467.html", "URL_GEOBZH": "https://geobretagne.fr/pub/dreal_b/pac_nature/arretes_biotope/FR3800616.pdf"}}, {"type": "Feature", "id": "APB_polygones.44", "geometry": {"type": "MultiPolygon", "coordinates": [[[[-1.8401, 48.1115], [-1.8403, 48.1116], [-1.8404, 48.1117], [-1.8405, 48.1118], [-1.8405, 48.1118], [-1.8405, 48.1118], [-1.8402, 48.112], [-1.84, 48.112], [-1.84, 48.112], [-1.8399, 48.1121], [-1.8397, 48.1121], [-1.8396, 48.1122], [-1.8395, 48.1122], [-1.8394, 48.1122], [-1.8393, 48.1121], [-1.8393, 48.1121], [-1.839, 48.1119], [-1.839, 48.1118], [-1.8389, 48.1118], [-1.8388, 48.1117], [-1.8388, 48.1117], [-1.8388, 48.1117], [-1.8386, 48.1115], [-1.8388, 48.1111], [-1.8388, 48.111], [-1.839, 48.1107], [-1.8391, 48.1105], [-1.8392, 48.1105], [-1.8392, 48.1105], [-1.8393, 48.1106], [-1.8394, 48.1107], [-1.8395, 48.1108], [-1.8395, 48.1109], [-1.8397, 48.1111], [-1.8398, 48.1112], [-1.8399, 48.1113], [-1.8399, 48.1114], [-1.8401, 48.1115]]]]}, "geometry_name": "the_geom", "properties": {"oid": 44, "NOM_SITE": "Mares De La Tremblais", "ID_MNHN": "FR3800726", "ID_DREAL": "apb_35_012", "DEPT": "35", "URL_FICHE": "https://inpn.mnhn.fr/espace/protege/FR3800726", "SURF_OFF": 0, "MARIN": "F", "GEST_SITE": "", "DATE_CREA": "2009-06-03T22:00:00Z", "MODIF_ADM": null, "MODIF_GEO": null, "SRC_GEOM": "", "SRC_ANNEE": "", "URL_AMP": "", "URL_DREAL": "https://www.bretagne.developpement-durable.gouv.fr/arrete-de-protection-de-biotope-du-departement-d-a467.html", "URL_GEOBZH": "https://geobretagne.fr/pub/dreal_b/pac_nature/arretes_biotope/FR3800726.pdf"}}, {"type": "Feature", "id": "APB_polygones.58", "geometry": {"type": "MultiPolygon", "coordinates": [[[[-1.5504, 48.1053], [-1.5504, 48.1053], [-1.5504, 48.1054], [-1.5504, 48.1054], [-1.5504, 48.1054], [-1.5505, 48.1054], [-1.5505, 48.1055], [-1.5505, 48.1055], [-1.5505, 48.1056], [-1.5505, 48.1056], [-1.5505, 48.1057], [-1.5505, 48.1057], [-1.5505, 48.1057], [-1.5506, 48.1057], [-1.5506, 48.1058], [-1.5506, 48.1058], [-1.5506, 48.1058], [-1.5506, 48.1059], [-1.5506, 48.1059], [-1.5506, 48.106], [-1.5506, 48.106], [-1.5506, 48.106], [-1.5506, 48.106], [-1.5506, 48.106], [-1.5506, 48.1061], [-1.5506, 48.1061], [-1.5504, 48.106], [-1.5501, 48.106], [-1.5499, 48.1059], [-1.5497, 48.1059], [-1.5494, 48.1059], [-1.5493, 48.1058], [-1.5493, 48.1059], [-1.5493, 48.1059], [-1.5493, 48.1059], [-1.5492, 48.1059], [-1.5492, 48.106], [-1.5492, 48.106], [-1.5492, 48.106], [-1.5492, 48.106], [-1.5491, 48.106], [-1.549, 48.106], [-1.549, 48.106], [-1.5489, 48.1059], [-1.5488, 48.1059], [-1.5487, 48.1059], [-1.5487, 48.1059], [-1.5487, 48.1058], [-1.5486, 48.1058], [-1.5486, 48.1058], [-1.5486, 48.1058], [-1.5485, 48.1059], [-1.5484, 48.1059], [-1.5483, 48.1059], [-1.5482, 48.1059], [-1.5482, 48.1059], [-1.5482, 48.1059], [-1.5481, 48.1059], [-1.5481, 48.1059], [-1.548, 48.1059], [-1.5479, 48.1059], [-1.5479, 48.1059], [-1.5478, 48.1059], [-1.5478, 48.1059], [-1.5477, 48.1058], [-1.5477, 48.1058], [-1.5476, 48.1058], [-1.5475, 48.1058], [-1.5474, 48.1057], [-1.5474, 48.1057], [-1.5473, 48.1057], [-1.5473, 48.1056], [-1.5472, 48.1056], [-1.5472, 48.1056], [-1.5472, 48.1055], [-1.5472, 48.1055], [-1.5472, 48.1054], [-1.5472, 48.1054], [-1.5472, 48.1054], [-1.5472, 48.1054], [-1.5472, 48.1053], [-1.5471, 48.1053], [-1.5471, 48.1052], [-1.5471, 48.1051], [-1.547, 48.1051], [-1.547, 48.105], [-1.547, 48.105], [-1.547, 48.1049], [-1.547, 48.1049], [-1.547, 48.1049], [-1.547, 48.1049], [-1.547, 48.1048], [-1.5471, 48.1048], [-1.5471, 48.1047], [-1.5472, 48.1047], [-1.5473, 48.1046], [-1.5473, 48.1046], [-1.5474, 48.1045], [-1.5474, 48.1044], [-1.5475, 48.1044], [-1.5475, 48.1044], [-1.5476, 48.1044], [-1.5477, 48.1044], [-1.5477, 48.1043], [-1.5478, 48.1043], [-1.5479, 48.1043], [-1.548, 48.1043], [-1.5481, 48.1042], [-1.5481, 48.1042], [-1.5481, 48.1042], [-1.5481, 48.1042], [-1.5482, 48.1042], [-1.5482, 48.1042], [-1.5483, 48.1042], [-1.5483, 48.1042], [-1.5484, 48.1042], [-1.5484, 48.1042], [-1.5485, 48.1042], [-1.5485, 48.1042], [-1.5485, 48.1042], [-1.5486, 48.1042], [-1.5486, 48.1042], [-1.5487, 48.1042], [-1.5487, 48.1042], [-1.5487, 48.1042], [-1.5488, 48.1042], [-1.5489, 48.1042], [-1.549, 48.1043], [-1.5491, 48.1043], [-1.5492, 48.1043], [-1.5493, 48.1044], [-1.5495, 48.1044], [-1.5495, 48.1044], [-1.5496, 48.1045], [-1.5497, 48.1045], [-1.5497, 48.1045], [-1.5498, 48.1045], [-1.5498, 48.1045], [-1.5499, 48.1045], [-1.5499, 48.1045], [-1.55, 48.1045], [-1.5501, 48.1045], [-1.5503, 48.1045], [-1.5504, 48.1046], [-1.5505, 48.1046], [-1.5506, 48.1046], [-1.5508, 48.1046], [-1.5509, 48.1046], [-1.5511, 48.1046], [-1.5512, 48.1047], [-1.5513, 48.1047], [-1.5514, 48.1047], [-1.5512, 48.1048], [-1.551, 48.1049], [-1.5509, 48.105], [-1.5507, 48.1051], [-1.5506, 48.1052], [-1.5504, 48.1053]], [[-1.5473, 48.1055], [-1.5473, 48.1056], [-1.5474, 48.1055], [-1.5473, 48.1055], [-1.5473, 48.1055]]], [[[-1.5442, 48.105], [-1.5442, 48.1049], [-1.5443, 48.1049], [-1.5443, 48.1048], [-1.5443, 48.1048], [-1.5443, 48.1048], [-1.5443, 48.1047], [-1.5444, 48.1047], [-1.5444, 48.1047], [-1.5445, 48.1047], [-1.5445, 48.1047], [-1.5446, 48.1047], [-1.5447, 48.1047], [-1.5448, 48.1046], [-1.5449, 48.1046], [-1.5449, 48.1046], [-1.545, 48.1046], [-1.545, 48.1046], [-1.545, 48.1046], [-1.5451, 48.1046], [-1.5451, 48.1046], [-1.5451, 48.1046], [-1.5452, 48.1046], [-1.5452, 48.1045], [-1.5452, 48.1044], [-1.5452, 48.1043], [-1.5452, 48.1041], [-1.5453, 48.104], [-1.5453, 48.104], [-1.5453, 48.104], [-1.5454, 48.104], [-1.5454, 48.104], [-1.5455, 48.104], [-1.5455, 48.104], [-1.5455, 48.1041], [-1.5456, 48.1041], [-1.5457, 48.1041], [-1.5457, 48.1041], [-1.5457, 48.1041], [-1.5458, 48.1041], [-1.5458, 48.1041], [-1.5459, 48.1041], [-1.5459, 48.1042], [-1.5459, 48.1042], [-1.5459, 48.1043], [-1.546, 48.1043], [-1.546, 48.1044], [-1.546, 48.1044], [-1.546, 48.1044], [-1.546, 48.1044], [-1.5461, 48.1044], [-1.5461, 48.1044], [-1.5462, 48.1044], [-1.5463, 48.1044], [-1.5464, 48.1044], [-1.5464, 48.1044], [-1.5465, 48.1044], [-1.5465, 48.1044], [-1.5466, 48.1045], [-1.5466, 48.1045], [-1.5466, 48.1045], [-1.5467, 48.1045], [-1.5467, 48.1045], [-1.5467, 48.1045], [-1.5467, 48.1045], [-1.5468, 48.1045], [-1.5469, 48.1045], [-1.547, 48.1045], [-1.547, 48.1045], [-1.5471, 48.1045], [-1.5471, 48.1045], [-1.5472, 48.1045], [-1.5473, 48.1044], [-1.5472, 48.1046], [-1.547, 48.1047], [-1.5469, 48.1049], [-1.5468, 48.1049], [-1.5467, 48.105], [-1.5467, 48.105], [-1.5467, 48.1051], [-1.5466, 48.1052], [-1.5465, 48.1053], [-1.5464, 48.1054], [-1.5464, 48.1054], [-1.5464, 48.1054], [-1.5464, 48.1054], [-1.5463, 48.1055], [-1.5463, 48.1055], [-1.5462, 48.1055], [-1.5462, 48.1055], [-1.5462, 48.1056], [-1.5462, 48.1055], [-1.5462, 48.1055], [-1.5462, 48.1054], [-1.5461, 48.1055], [-1.546, 48.1055], [-1.546, 48.1055], [-1.546, 48.1056], [-1.5458, 48.1056], [-1.5457, 48.1056], [-1.5456, 48.1057], [-1.5455, 48.1057], [-1.5454, 48.1057], [-1.5453, 48.1057], [-1.5453, 48.1057], [-1.5452, 48.1057], [-1.5452, 48.1057], [-1.5451, 48.1057], [-1.5451, 48.1057], [-1.5449, 48.1058], [-1.5447, 48.1058], [-1.5447, 48.1058], [-1.5447, 48.1057], [-1.5446, 48.1056], [-1.5446, 48.1055], [-1.5446, 48.1054], [-1.5446, 48.1054], [-1.5446, 48.1053], [-1.5446, 48.1052], [-1.5446, 48.1051], [-1.5445, 48.105], [-1.5445, 48.105], [-1.5445, 48.105], [-1.5444, 48.105], [-1.5444, 48.105], [-1.5443, 48.105], [-1.5443, 48.105], [-1.5442, 48.105]]], [[[-1.5499, 48.1042], [-1.55, 48.1042], [-1.55, 48.1043], [-1.55, 48.1043], [-1.55, 48.1044], [-1.5498, 48.1044], [-1.5498, 48.1044], [-1.5497, 48.1044], [-1.5496, 48.1044], [-1.5495, 48.1043], [-1.5495, 48.1043], [-1.5494, 48.1043], [-1.5493, 48.1043], [-1.5492, 48.1042], [-1.5491, 48.1042], [-1.5491, 48.1042], [-1.5491, 48.1041], [-1.5491, 48.1041], [-1.549, 48.104], [-1.549, 48.104], [-1.5491, 48.104], [-1.5492, 48.104], [-1.5494, 48.1041], [-1.5495, 48.1041], [-1.5496, 48.1041], [-1.5497, 48.1041], [-1.5497, 48.1041], [-1.5498, 48.1041], [-1.5499, 48.1042], [-1.5499, 48.1042]]], [[[-1.5473, 48.1035], [-1.5474, 48.1037], [-1.5474, 48.1039], [-1.5475, 48.104], [-1.5475, 48.1041], [-1.5475, 48.1042], [-1.5475, 48.1042], [-1.5474, 48.1043], [-1.5474, 48.1044], [-1.5473, 48.1044], [-1.5472, 48.1044], [-1.5471, 48.1044], [-1.547, 48.1044], [-1.5469, 48.1044], [-1.5468, 48.1044], [-1.5468, 48.1045], [-1.5468, 48.1045], [-1.5467, 48.1045], [-1.5467, 48.1044], [-1.5467, 48.1044], [-1.5467, 48.1044], [-1.5466, 48.1044], [-1.5466, 48.1044], [-1.5466, 48.1044], [-1.5465, 48.1044], [-1.5464, 48.1044], [-1.5463, 48.1044], [-1.5462, 48.1044], [-1.5461, 48.1044], [-1.5461, 48.1044], [-1.546, 48.1044], [-1.546, 48.1043], [-1.546, 48.1043], [-1.546, 48.1042], [-1.5459, 48.1042], [-1.5459, 48.1042], [-1.5459, 48.1041], [-1.5458, 48.104], [-1.5458, 48.104], [-1.5458, 48.1039], [-1.5457, 48.1039], [-1.5458, 48.1038], [-1.5459, 48.1038], [-1.546, 48.1038], [-1.5461, 48.1037], [-1.5461, 48.1037], [-1.5462, 48.1037], [-1.5462, 48.1037], [-1.5463, 48.1037], [-1.5464, 48.1036], [-1.5465, 48.1036], [-1.5466, 48.1036], [-1.5466, 48.1036], [-1.5467, 48.1036], [-1.5467, 48.1036], [-1.5468, 48.1036], [-1.5468, 48.1036], [-1.5469, 48.1036], [-1.5469, 48.1036], [-1.547, 48.1035], [-1.5471, 48.1035], [-1.5473, 48.1035]]], [[[-1.5479, 48.1039], [-1.548, 48.1038], [-1.5481, 48.1037], [-1.5482, 48.1036], [-1.5483, 48.1034], [-1.5485, 48.1033], [-1.5486, 48.1032], [-1.5486, 48.1031], [-1.5487, 48.103], [-1.5488, 48.1029], [-1.5488, 48.1029], [-1.549, 48.1029], [-1.549, 48.1029], [-1.549, 48.1031], [-1.549, 48.1032], [-1.549, 48.1033], [-1.549, 48.1034], [-1.549, 48.1035], [-1.549, 48.1036], [-1.549, 48.1037], [-1.549, 48.1038], [-1.549, 48.1039], [-1.549, 48.1039], [-1.549, 48.104], [-1.549, 48.1041], [-1.549, 48.1041], [-1.5489, 48.1041], [-1.5489, 48.1041], [-1.5488, 48.1041], [-1.5487, 48.1041], [-1.5487, 48.1041], [-1.5487, 48.1041], [-1.5486, 48.1041], [-1.5486, 48.1041], [-1.5485, 48.1041], [-1.5485, 48.1041], [-1.5485, 48.1041], [-1.5484, 48.1041], [-1.5484, 48.1041], [-1.5483, 48.1041], [-1.5483, 48.1041], [-1.5483, 48.1041], [-1.5482, 48.1041], [-1.5481, 48.1041], [-1.548, 48.1042], [-1.548, 48.1042], [-1.5479, 48.1042], [-1.5478, 48.1042], [-1.5477, 48.1043], [-1.5476, 48.1043], [-1.5476, 48.1043], [-1.5476, 48.1043], [-1.5476, 48.1043], [-1.5475, 48.1043], [-1.5476, 48.1042], [-1.5477, 48.1041], [-1.5478, 48.104], [-1.5479, 48.1039]]]]}, "geometry_name": "the_geom", "properties": {"oid": 58, "NOM_SITE": "Mares De Mottais, De L'Hourmel Et De La Petite Lande", "ID_MNHN": "FR3800747", "ID_DREAL": "apb_35_011", "DEPT": "35", "URL_FICHE": "https://inpn.mnhn.fr/espace/protege/FR3800747", "SURF_OFF": 0, "MARIN": "F", "GEST_SITE": "", "DATE_CREA": "2009-05-04T22:00:00Z", "MODIF_ADM": null, "MODIF_GEO": null, "SRC_GEOM": "", "SRC_ANNEE": "", "URL_AMP": "", "URL_DREAL": "https://www.bretagne.developpement-durable.gouv.fr/arrete-de-protection-de-biotope-du-departement-d-a467.html", "URL_GEOBZH": "https://geobretagne.fr/pub/dreal_b/pac_nature/arretes_biotope/FR3800747.pdf"}}, {"type": "Feature", "id": "APB_polygones.63", "geometry": {"type": "MultiPolygon", "coordinates": [[[[-1.887, 47.9814], [-1.887, 47.9813], [-1.887, 47.9813], [-1.8871, 47.9813], [-1.8872, 47.9812], [-1.8872, 47.9811], [-1.8872, 47.981], [-1.8873, 47.9808], [-1.8873, 47.9807], [-1.8874, 47.9806], [-1.8874, 47.9806], [-1.8874, 47.9806], [-1.8875, 47.9804], [-1.8875, 47.9803], [-1.8876, 47.9802], [-1.8877, 47.9802], [-1.8877, 47.9802], [-1.8877, 47.9802], [-1.8877, 47.9801], [-1.8878, 47.9801], [-1.8878, 47.9801], [-1.8878, 47.98], [-1.8878, 47.98], [-1.8878, 47.9799], [-1.8878, 47.9799], [-1.8878, 47.9799], [-1.8878, 47.9798], [-1.8879, 47.9797], [-1.8879, 47.9797], [-1.8881, 47.9796], [-1.8882, 47.9796], [-1.8882, 47.9796], [-1.8883, 47.9795], [-1.8884, 47.9794], [-1.8885, 47.9793], [-1.8888, 47.9792], [-1.889, 47.9792], [-1.8892, 47.9791], [-1.8894, 47.979], [-1.8895, 47.979], [-1.8896, 47.9789], [-1.8898, 47.9789], [-1.8901, 47.9786], [-1.8901, 47.9786], [-1.8904, 47.9785], [-1.8906, 47.9785], [-1.8907, 47.9785], [-1.8908, 47.9784], [-1.891, 47.9784], [-1.8912, 47.9784], [-1.8913, 47.9783], [-1.8914, 47.9783], [-1.8917, 47.9782], [-1.8918, 47.9781], [-1.8918, 47.9781], [-1.8918, 47.9779], [-1.8922, 47.9779], [-1.8924, 47.9779], [-1.8925, 47.9779], [-1.8926, 47.9779], [-1.8927, 47.978], [-1.8928, 47.978], [-1.8929, 47.978], [-1.893, 47.978], [-1.8931, 47.9781], [-1.8932, 47.9781], [-1.8932, 47.9782], [-1.8933, 47.9782], [-1.8933, 47.9782], [-1.8935, 47.9784], [-1.8935, 47.9784], [-1.8938, 47.9784], [-1.8939, 47.9783], [-1.8939, 47.9783], [-1.8939, 47.9783], [-1.8939, 47.9782], [-1.8939, 47.9782], [-1.8938, 47.9781], [-1.8937, 47.9779], [-1.8937, 47.9779], [-1.8936, 47.9777], [-1.8936, 47.9775], [-1.8936, 47.9774], [-1.8935, 47.9772], [-1.8935, 47.9772], [-1.8935, 47.9772], [-1.8936, 47.977], [-1.8937, 47.977], [-1.8936, 47.9771], [-1.8936, 47.9772], [-1.8937, 47.9774], [-1.8938, 47.9774], [-1.8939, 47.9773], [-1.894, 47.9773], [-1.8942, 47.9773], [-1.8943, 47.9773], [-1.8946, 47.9774], [-1.8951, 47.9775], [-1.8953, 47.9775], [-1.8955, 47.9776], [-1.8956, 47.9781], [-1.8956, 47.9782], [-1.8956, 47.9782], [-1.8956, 47.9784], [-1.8956, 47.9784], [-1.8956, 47.9786], [-1.8956, 47.9787], [-1.8956, 47.9788], [-1.8957, 47.9789], [-1.8957, 47.979], [-1.8963, 47.9789], [-1.8965, 47.9788], [-1.8975, 47.9787], [-1.8978, 47.9787], [-1.8978, 47.9788], [-1.8978, 47.9788], [-1.8979, 47.9788], [-1.8979, 47.9788], [-1.8978, 47.979], [-1.8977, 47.9792], [-1.8976, 47.9794], [-1.8975, 47.9795], [-1.8975, 47.9795], [-1.898, 47.9795], [-1.8988, 47.9793], [-1.899, 47.9793], [-1.8999, 47.98], [-1.9001, 47.9802], [-1.9001, 47.9805], [-1.9001, 47.9806], [-1.9001, 47.9808], [-1.9002, 47.9809], [-1.9002, 47.9809], [-1.9002, 47.9812], [-1.9002, 47.9814], [-1.9001, 47.9815], [-1.9001, 47.9817], [-1.9, 47.9818], [-1.9003, 47.9818], [-1.9005, 47.9818], [-1.9005, 47.9819], [-1.9004, 47.982], [-1.9005, 47.982], [-1.9003, 47.9822], [-1.9002, 47.9824], [-1.9002, 47.9826], [-1.9002, 47.9827], [-1.9002, 47.9829], [-1.9001, 47.9831], [-1.8997, 47.9831], [-1.8995, 47.9832], [-1.8995, 47.9832], [-1.8995, 47.9832], [-1.8994, 47.9832], [-1.8989, 47.9832], [-1.8988, 47.9832], [-1.8988, 47.9832], [-1.8988, 47.9831], [-1.8984, 47.9831], [-1.8981, 47.9831], [-1.8981, 47.9831], [-1.8979, 47.983], [-1.8979, 47.9829], [-1.8981, 47.9829], [-1.8984, 47.9829], [-1.8988, 47.9829], [-1.8989, 47.9829], [-1.8989, 47.9828], [-1.8991, 47.9828], [-1.8991, 47.9828], [-1.8991, 47.9827], [-1.8988, 47.9827], [-1.8984, 47.9827], [-1.898, 47.9827], [-1.8978, 47.9828], [-1.8977, 47.9828], [-1.8977, 47.9827], [-1.8976, 47.9826], [-1.8974, 47.9825], [-1.8972, 47.9823], [-1.8964, 47.9817], [-1.8961, 47.9815], [-1.8958, 47.9812], [-1.8956, 47.9811], [-1.8955, 47.9811], [-1.8955, 47.9811], [-1.8954, 47.981], [-1.8954, 47.9808], [-1.8953, 47.9808], [-1.8953, 47.9807], [-1.8953, 47.9807], [-1.8953, 47.9807], [-1.8949, 47.9807], [-1.8949, 47.9806], [-1.895, 47.9805], [-1.8944, 47.9804], [-1.8944, 47.9805], [-1.8944, 47.9805], [-1.8944, 47.9806], [-1.8941, 47.9806], [-1.8941, 47.9806], [-1.894, 47.9806], [-1.8938, 47.9808], [-1.8935, 47.9811], [-1.8932, 47.9816], [-1.8926, 47.9825], [-1.8925, 47.9825], [-1.8925, 47.9825], [-1.8924, 47.9827], [-1.8924, 47.9828], [-1.8922, 47.9831], [-1.8922, 47.9833], [-1.8922, 47.9833], [-1.8918, 47.9831], [-1.8915, 47.983], [-1.8911, 47.9829], [-1.8909, 47.9829], [-1.8909, 47.9829], [-1.8902, 47.9827], [-1.8901, 47.9827], [-1.89, 47.9826], [-1.8893, 47.9822], [-1.8893, 47.9822], [-1.8892, 47.9822], [-1.8887, 47.9821], [-1.8885, 47.982], [-1.8878, 47.9818], [-1.8875, 47.9817], [-1.8874, 47.9816], [-1.8873, 47.9816], [-1.8873, 47.9816], [-1.8872, 47.9815], [-1.8872, 47.9815], [-1.8871, 47.9815], [-1.8871, 47.9814], [-1.887, 47.9814], [-1.887, 47.9814], [-1.887, 47.9814]]], [[[-1.8816, 47.9804], [-1.8816, 47.9803], [-1.8816, 47.9803], [-1.8816, 47.9803], [-1.8816, 47.9802], [-1.8817, 47.9802], [-1.8818, 47.9801], [-1.8819, 47.98], [-1.8821, 47.9799], [-1.8824, 47.98], [-1.8825, 47.98], [-1.8828, 47.98], [-1.8828, 47.9801], [-1.8829, 47.9801], [-1.8829, 47.98], [-1.883, 47.98], [-1.883, 47.98], [-1.883, 47.98], [-1.8831, 47.98], [-1.8832, 47.9801], [-1.8834, 47.9802], [-1.8834, 47.9802], [-1.8835, 47.9802], [-1.8836, 47.9803], [-1.8837, 47.9803], [-1.8838, 47.9804], [-1.8839, 47.9804], [-1.884, 47.9804], [-1.884, 47.9805], [-1.8842, 47.9805], [-1.8842, 47.9805], [-1.8843, 47.9805], [-1.8844, 47.9806], [-1.8844, 47.9806], [-1.8845, 47.9806], [-1.8845, 47.9807], [-1.8845, 47.9807], [-1.8845, 47.9807], [-1.8845, 47.9807], [-1.8845, 47.9807], [-1.8847, 47.9808], [-1.8848, 47.9808], [-1.8848, 47.9808], [-1.8849, 47.9808], [-1.8849, 47.9809], [-1.885, 47.9809], [-1.885, 47.9809], [-1.8851, 47.9809], [-1.8851, 47.9809], [-1.8852, 47.9809], [-1.8852, 47.9809], [-1.8853, 47.9809], [-1.8854, 47.9809], [-1.8854, 47.9809], [-1.8855, 47.9809], [-1.8856, 47.981], [-1.8856, 47.9811], [-1.8857, 47.9811], [-1.8858, 47.9813], [-1.8859, 47.9814], [-1.886, 47.9815], [-1.886, 47.9815], [-1.8861, 47.9815], [-1.8862, 47.9815], [-1.8864, 47.9815], [-1.8865, 47.9815], [-1.8866, 47.9815], [-1.8868, 47.9815], [-1.8869, 47.9815], [-1.8869, 47.9815], [-1.8869, 47.9815], [-1.887, 47.9814], [-1.887, 47.9814], [-1.8871, 47.9815], [-1.8871, 47.9815], [-1.8872, 47.9815], [-1.8872, 47.9815], [-1.8872, 47.9816], [-1.8873, 47.9816], [-1.8873, 47.9816], [-1.8875, 47.9817], [-1.8878, 47.9818], [-1.8884, 47.982], [-1.8887, 47.9821], [-1.8887, 47.9821], [-1.8888, 47.9821], [-1.889, 47.9822], [-1.8892, 47.9822], [-1.8893, 47.9822], [-1.8893, 47.9822], [-1.8896, 47.9824], [-1.89, 47.9827], [-1.8901, 47.9827], [-1.8901, 47.9827], [-1.8904, 47.9828], [-1.8908, 47.9829], [-1.891, 47.9829], [-1.8913, 47.983], [-1.8915, 47.9831], [-1.8922, 47.9833], [-1.8922, 47.9834], [-1.8922, 47.9834], [-1.8922, 47.984], [-1.8922, 47.984], [-1.8918, 47.984], [-1.8917, 47.984], [-1.8913, 47.9839], [-1.89, 47.9837], [-1.8898, 47.9837], [-1.8897, 47.9836], [-1.8895, 47.9836], [-1.8894, 47.9836], [-1.8893, 47.9835], [-1.888, 47.983], [-1.8867, 47.9824], [-1.8855, 47.9819], [-1.8846, 47.9815], [-1.8841, 47.9813], [-1.8839, 47.9813], [-1.8838, 47.9812], [-1.8837, 47.9812], [-1.8835, 47.9812], [-1.8833, 47.9811], [-1.8832, 47.9811], [-1.8828, 47.9811], [-1.8824, 47.981], [-1.8821, 47.981], [-1.8819, 47.981], [-1.8819, 47.9809], [-1.8819, 47.9809], [-1.8819, 47.9809], [-1.8819, 47.9809], [-1.8818, 47.9808], [-1.8818, 47.9808], [-1.8817, 47.9808], [-1.8817, 47.9807], [-1.8817, 47.9806], [-1.8817, 47.9805], [-1.8816, 47.9805], [-1.8816, 47.9804], [-1.8816, 47.9804]]], [[[-1.8936, 47.9745], [-1.8936, 47.9745], [-1.8936, 47.9745], [-1.8936, 47.9744], [-1.8936, 47.9744], [-1.8937, 47.9743], [-1.8937, 47.9742], [-1.8939, 47.9741], [-1.894, 47.9741], [-1.8941, 47.9741], [-1.8943, 47.974], [-1.8944, 47.974], [-1.8944, 47.9739], [-1.8946, 47.9738], [-1.8947, 47.9737], [-1.8948, 47.9736], [-1.8948, 47.9735], [-1.8948, 47.9734], [-1.8949, 47.9734], [-1.8949, 47.9733], [-1.8949, 47.9732], [-1.895, 47.9732], [-1.8951, 47.9731], [-1.8952, 47.973], [-1.8953, 47.973], [-1.8954, 47.9729], [-1.8951, 47.9726], [-1.8953, 47.9726], [-1.8954, 47.9726], [-1.8954, 47.9725], [-1.8955, 47.9725], [-1.8957, 47.9725], [-1.896, 47.9725], [-1.8962, 47.9725], [-1.8964, 47.9725], [-1.8964, 47.9725], [-1.8965, 47.9725], [-1.8965, 47.9725], [-1.8967, 47.9725], [-1.8969, 47.9724], [-1.897, 47.9723], [-1.8971, 47.972], [-1.8971, 47.9718], [-1.8971, 47.9717], [-1.8971, 47.9716], [-1.8971, 47.9715], [-1.897, 47.9714], [-1.8969, 47.9713], [-1.897, 47.9712], [-1.8972, 47.9711], [-1.8973, 47.9711], [-1.898, 47.9714], [-1.8978, 47.9717], [-1.8978, 47.9717], [-1.8978, 47.9718], [-1.8978, 47.9722], [-1.898, 47.9723], [-1.8981, 47.9724], [-1.8981, 47.9724], [-1.8981, 47.9726], [-1.8982, 47.9727], [-1.8976, 47.9728], [-1.8974, 47.9729], [-1.8972, 47.9731], [-1.8968, 47.9733], [-1.8967, 47.9732], [-1.8966, 47.9733], [-1.8965, 47.9734], [-1.8964, 47.9735], [-1.8962, 47.9736], [-1.8961, 47.9737], [-1.896, 47.9738], [-1.8963, 47.9739], [-1.8962, 47.974], [-1.896, 47.9742], [-1.8958, 47.9745], [-1.896, 47.9746], [-1.8967, 47.9747], [-1.8959, 47.9753], [-1.8959, 47.9753], [-1.8958, 47.9753], [-1.8958, 47.9753], [-1.8954, 47.9755], [-1.8953, 47.9755], [-1.8953, 47.9756], [-1.894, 47.9759], [-1.894, 47.9757], [-1.894, 47.9754], [-1.894, 47.9754], [-1.894, 47.9754], [-1.894, 47.9753], [-1.8939, 47.9753], [-1.8939, 47.9753], [-1.8939, 47.9753], [-1.8939, 47.9752], [-1.8939, 47.9751], [-1.8939, 47.9751], [-1.8939, 47.975], [-1.8938, 47.9749], [-1.8937, 47.9747], [-1.8936, 47.9746], [-1.8936, 47.9745]]], [[[-1.8818, 47.9811], [-1.8819, 47.9811], [-1.8822, 47.9811], [-1.8825, 47.9811], [-1.8827, 47.9812], [-1.883, 47.9812], [-1.8831, 47.9812], [-1.8832, 47.9812], [-1.8833, 47.9812], [-1.8834, 47.9812], [-1.8835, 47.9813], [-1.8836, 47.9813], [-1.8837, 47.9813], [-1.8837, 47.9813], [-1.8838, 47.9813], [-1.884, 47.9814], [-1.8841, 47.9814], [-1.8842, 47.9815], [-1.8842, 47.9815], [-1.8843, 47.9815], [-1.8844, 47.9815], [-1.8847, 47.9817], [-1.8853, 47.9819], [-1.8859, 47.9822], [-1.8864, 47.9824], [-1.887, 47.9827], [-1.8875, 47.9829], [-1.8881, 47.9831], [-1.8885, 47.9833], [-1.8888, 47.9834], [-1.8891, 47.9836], [-1.8886, 47.9835], [-1.8885, 47.9835], [-1.8882, 47.9834], [-1.8878, 47.9834], [-1.8875, 47.9834], [-1.8874, 47.9834], [-1.8873, 47.9834], [-1.8872, 47.9834], [-1.887, 47.9835], [-1.8867, 47.9835], [-1.8866, 47.9835], [-1.8866, 47.9835], [-1.8865, 47.9836], [-1.8863, 47.9836], [-1.8861, 47.9837], [-1.8859, 47.9838], [-1.8858, 47.9838], [-1.8857, 47.9839], [-1.8857, 47.9839], [-1.8856, 47.9839], [-1.8856, 47.984], [-1.8855, 47.984], [-1.8854, 47.9841], [-1.8854, 47.9841], [-1.8853, 47.9841], [-1.8853, 47.9842], [-1.8853, 47.9842], [-1.8852, 47.9843], [-1.8852, 47.9843], [-1.8852, 47.9843], [-1.8852, 47.9844], [-1.8851, 47.9844], [-1.8851, 47.9845], [-1.8851, 47.9846], [-1.8849, 47.9846], [-1.8848, 47.9845], [-1.8847, 47.9845], [-1.8846, 47.9845], [-1.8846, 47.9844], [-1.8844, 47.9844], [-1.8844, 47.9842], [-1.8844, 47.9841], [-1.8843, 47.9841], [-1.8843, 47.9841], [-1.8844, 47.9841], [-1.8848, 47.984], [-1.8849, 47.9838], [-1.885, 47.9836], [-1.8849, 47.9836], [-1.8848, 47.9836], [-1.8848, 47.9835], [-1.8849, 47.9831], [-1.885, 47.983], [-1.885, 47.983], [-1.8849, 47.9829], [-1.8847, 47.9828], [-1.8845, 47.9826], [-1.8845, 47.9825], [-1.8844, 47.9823], [-1.8843, 47.9822], [-1.8842, 47.9821], [-1.8841, 47.982], [-1.884, 47.9819], [-1.8838, 47.9817], [-1.8836, 47.9817], [-1.8835, 47.9817], [-1.8834, 47.9816], [-1.8833, 47.9815], [-1.8833, 47.9815], [-1.8832, 47.9815], [-1.8832, 47.9814], [-1.8831, 47.9814], [-1.8831, 47.9814], [-1.883, 47.9814], [-1.883, 47.9813], [-1.8829, 47.9813], [-1.8828, 47.9813], [-1.8826, 47.9812], [-1.8824, 47.9812], [-1.8823, 47.9812], [-1.882, 47.9811], [-1.882, 47.9812], [-1.882, 47.9812], [-1.882, 47.9812], [-1.882, 47.9812], [-1.8819, 47.9812], [-1.8819, 47.9812], [-1.8819, 47.9811], [-1.8819, 47.9811], [-1.8818, 47.9811]]], [[[-1.8852, 47.9846], [-1.8852, 47.9845], [-1.8852, 47.9844], [-1.8853, 47.9844], [-1.8853, 47.9843], [-1.8853, 47.9843], [-1.8853, 47.9842], [-1.8853, 47.9842], [-1.8854, 47.9842], [-1.8854, 47.9841], [-1.8855, 47.9841], [-1.8856, 47.984], [-1.8856, 47.984], [-1.8857, 47.9839], [-1.8859, 47.9839], [-1.8861, 47.9838], [-1.8863, 47.984], [-1.8867, 47.9843], [-1.8868, 47.9844], [-1.887, 47.9845], [-1.8871, 47.9844], [-1.8871, 47.9845], [-1.8871, 47.9845], [-1.8871, 47.9846], [-1.8871, 47.9846], [-1.8872, 47.9847], [-1.8873, 47.9848], [-1.8873, 47.9848], [-1.8873, 47.9848], [-1.8874, 47.9849], [-1.8875, 47.9849], [-1.8876, 47.9851], [-1.8865, 47.9852], [-1.8868, 47.9857], [-1.8879, 47.9859], [-1.8879, 47.9859], [-1.8879, 47.9859], [-1.8879, 47.9861], [-1.8879, 47.9863], [-1.8878, 47.9863], [-1.8876, 47.9863], [-1.8872, 47.9862], [-1.8869, 47.9861], [-1.8866, 47.9861], [-1.8861, 47.9862], [-1.8858, 47.9862], [-1.8854, 47.9863], [-1.8854, 47.9862], [-1.8854, 47.9861], [-1.8854, 47.986], [-1.8854, 47.9859], [-1.8854, 47.9858], [-1.8854, 47.9857], [-1.8854, 47.9856], [-1.8854, 47.9855], [-1.8853, 47.9853], [-1.8853, 47.985], [-1.8861, 47.9848], [-1.8862, 47.9844], [-1.886, 47.9844], [-1.8856, 47.9845], [-1.8855, 47.9845], [-1.8852, 47.9846]]], [[[-1.8935, 47.9723], [-1.8935, 47.9722], [-1.8935, 47.972], [-1.8935, 47.9719], [-1.8936, 47.9719], [-1.8937, 47.9719], [-1.8938, 47.972], [-1.894, 47.972], [-1.8942, 47.9721], [-1.8942, 47.9721], [-1.8943, 47.9721], [-1.8944, 47.9721], [-1.8944, 47.9721], [-1.8947, 47.972], [-1.8947, 47.972], [-1.8947, 47.972], [-1.8948, 47.972], [-1.8948, 47.972], [-1.8949, 47.9721], [-1.895, 47.9721], [-1.8951, 47.9721], [-1.8953, 47.9721], [-1.8955, 47.9721], [-1.8956, 47.972], [-1.8957, 47.9719], [-1.8957, 47.9719], [-1.8958, 47.9719], [-1.8958, 47.972], [-1.8959, 47.9722], [-1.896, 47.9722], [-1.8961, 47.9722], [-1.8961, 47.9722], [-1.8961, 47.972], [-1.8962, 47.972], [-1.8963, 47.9719], [-1.8966, 47.9717], [-1.8966, 47.9717], [-1.8967, 47.9716], [-1.8968, 47.9715], [-1.8968, 47.9715], [-1.8968, 47.9714], [-1.8969, 47.9714], [-1.8969, 47.9714], [-1.8969, 47.9714], [-1.897, 47.9715], [-1.8969, 47.9715], [-1.897, 47.9717], [-1.897, 47.9718], [-1.8969, 47.9721], [-1.8968, 47.9722], [-1.8968, 47.9723], [-1.8967, 47.9723], [-1.8967, 47.9723], [-1.8963, 47.9724], [-1.8963, 47.9724], [-1.8959, 47.9724], [-1.8957, 47.9724], [-1.8956, 47.9724], [-1.8955, 47.9725], [-1.8954, 47.9725], [-1.8953, 47.9725], [-1.8953, 47.9725], [-1.8952, 47.9725], [-1.8952, 47.9725], [-1.8951, 47.9726], [-1.8951, 47.9726], [-1.895, 47.9726], [-1.895, 47.9726], [-1.8946, 47.9729], [-1.8945, 47.9729], [-1.8944, 47.973], [-1.8944, 47.973], [-1.8943, 47.9731], [-1.8942, 47.9731], [-1.8941, 47.9731], [-1.894, 47.9732], [-1.8939, 47.9732], [-1.8938, 47.9732], [-1.8937, 47.9732], [-1.8937, 47.9732], [-1.8935, 47.9723]]], [[[-1.8843, 47.9773], [-1.8844, 47.9772], [-1.8844, 47.9772], [-1.8845, 47.9772], [-1.8849, 47.9772], [-1.8851, 47.9771], [-1.8853, 47.9771], [-1.8853, 47.9772], [-1.8854, 47.9773], [-1.8854, 47.9775], [-1.8855, 47.978], [-1.8857, 47.9786], [-1.8858, 47.9786], [-1.8858, 47.9787], [-1.8859, 47.9789], [-1.886, 47.9792], [-1.8858, 47.9792], [-1.8856, 47.9793], [-1.8853, 47.9793], [-1.885, 47.9793], [-1.8849, 47.979], [-1.8849, 47.9789], [-1.8849, 47.9789], [-1.8849, 47.9785], [-1.8849, 47.9784], [-1.8848, 47.9782], [-1.8848, 47.9782], [-1.8847, 47.9781], [-1.8846, 47.978], [-1.8846, 47.9779], [-1.8845, 47.9778], [-1.8844, 47.9776], [-1.8843, 47.9774], [-1.8843, 47.9774], [-1.8843, 47.9773]]], [[[-1.8861, 47.9838], [-1.8866, 47.9836], [-1.8868, 47.9835], [-1.8869, 47.9835], [-1.8871, 47.9835], [-1.8873, 47.9835], [-1.8874, 47.9834], [-1.8875, 47.9834], [-1.8878, 47.9834], [-1.8882, 47.9835], [-1.8886, 47.9835], [-1.8889, 47.9836], [-1.8894, 47.9837], [-1.8894, 47.9837], [-1.8897, 47.9837], [-1.8896, 47.9843], [-1.8894, 47.9842], [-1.8891, 47.9842], [-1.8887, 47.9842], [-1.8883, 47.9842], [-1.8883, 47.9841], [-1.8882, 47.9841], [-1.8881, 47.984], [-1.8881, 47.984], [-1.888, 47.984], [-1.8879, 47.9841], [-1.8877, 47.9841], [-1.8877, 47.9841], [-1.8877, 47.984], [-1.8876, 47.984], [-1.8872, 47.984], [-1.8871, 47.9838], [-1.887, 47.9838], [-1.8867, 47.9838], [-1.8863, 47.9839], [-1.8861, 47.9838]]], [[[-1.8899, 47.9766], [-1.8905, 47.9763], [-1.8907, 47.9763], [-1.8908, 47.9762], [-1.8909, 47.9761], [-1.891, 47.9763], [-1.8912, 47.9765], [-1.8912, 47.9766], [-1.8912, 47.9766], [-1.8912, 47.9767], [-1.8912, 47.9767], [-1.8913, 47.9768], [-1.8914, 47.9769], [-1.8913, 47.9769], [-1.8913, 47.9769], [-1.8911, 47.9769], [-1.891, 47.977], [-1.8909, 47.977], [-1.8909, 47.977], [-1.8909, 47.9771], [-1.8908, 47.9772], [-1.8907, 47.9771], [-1.8906, 47.9771], [-1.8904, 47.977], [-1.8903, 47.977], [-1.8902, 47.9769], [-1.89, 47.9768], [-1.89, 47.9767], [-1.89, 47.9767], [-1.89, 47.9767], [-1.89, 47.9767], [-1.89, 47.9767], [-1.8899, 47.9766]]]]}, "geometry_name": "the_geom", "properties": {"oid": 63, "NOM_SITE": "Landes Blanches De Lassy Et De Baulon", "ID_MNHN": "FR3800620", "ID_DREAL": "apb_35_010", "DEPT": "35", "URL_FICHE": "https://inpn.mnhn.fr/espace/protege/FR3800620", "SURF_OFF": 56.87, "MARIN": "F", "GEST_SITE": "", "DATE_CREA": "2003-06-29T22:00:00Z", "MODIF_ADM": null, "MODIF_GEO": null, "SRC_GEOM": "", "SRC_ANNEE": "", "URL_AMP": "", "URL_DREAL": "https://www.bretagne.developpement-durable.gouv.fr/arrete-de-protection-de-biotope-du-departement-d-a467.html", "URL_GEOBZH": "https://geobretagne.fr/pub/dreal_b/pac_nature/arretes_biotope/FR3800620.pdf"}}, {"type": "Feature", "id": "APB_polygones.70", "geometry": {"type": "MultiPolygon", "coordinates": [[[[-1.7145, 48.358], [-1.7145, 48.358], [-1.7145, 48.358], [-1.7144, 48.3581], [-1.7144, 48.358], [-1.7144, 48.358], [-1.7144, 48.358], [-1.7144, 48.358], [-1.7143, 48.358], [-1.7143, 48.358], [-1.7142, 48.358], [-1.7142, 48.358], [-1.7142, 48.358], [-1.7142, 48.358], [-1.7142, 48.358], [-1.7142, 48.358], [-1.7142, 48.3579], [-1.7142, 48.3579], [-1.7142, 48.3579], [-1.7142, 48.3579], [-1.7142, 48.3579], [-1.7143, 48.3578], [-1.7143, 48.3578], [-1.7143, 48.3578], [-1.7144, 48.3579], [-1.7144, 48.3578], [-1.7144, 48.3578], [-1.7144, 48.3578], [-1.7144, 48.3578], [-1.7145, 48.3578], [-1.7144, 48.3578], [-1.7144, 48.3578], [-1.7145, 48.3578], [-1.7145, 48.3577], [-1.7145, 48.3577], [-1.7145, 48.3577], [-1.7145, 48.3577], [-1.7145, 48.3577], [-1.7145, 48.3577], [-1.7145, 48.3577], [-1.7145, 48.3577], [-1.7146, 48.3577], [-1.7146, 48.3577], [-1.7146, 48.3576], [-1.7146, 48.3577], [-1.7146, 48.3576], [-1.7146, 48.3576], [-1.7146, 48.3576], [-1.7147, 48.3577], [-1.7147, 48.3577], [-1.7147, 48.3577], [-1.7147, 48.3577], [-1.7147, 48.3577], [-1.7147, 48.3577], [-1.7147, 48.3577], [-1.7147, 48.3577], [-1.7147, 48.3577], [-1.7147, 48.3577], [-1.7147, 48.3577], [-1.7146, 48.3578], [-1.7146, 48.3578], [-1.7146, 48.3578], [-1.7146, 48.3578], [-1.7146, 48.3578], [-1.7146, 48.3578], [-1.7146, 48.3578], [-1.7146, 48.3578], [-1.7145, 48.3579], [-1.7145, 48.3579], [-1.7145, 48.3579], [-1.7145, 48.3579], [-1.7145, 48.3579], [-1.7146, 48.3579], [-1.7146, 48.3579], [-1.7146, 48.3579], [-1.7145, 48.358], [-1.7145, 48.358]]]]}, "geometry_name": "the_geom", "properties": {"oid": 70, "NOM_SITE": "Combles Et Clocher De L'église De Dingé", "ID_MNHN": "FR3800850", "ID_DREAL": "apb_35_014", "DEPT": "35", "URL_FICHE": "https://inpn.mnhn.fr/espace/protege/FR3800850", "SURF_OFF": 0, "MARIN": "F", "GEST_SITE": "", "DATE_CREA": "2014-02-27T23:00:00Z", "MODIF_ADM": null, "MODIF_GEO": null, "SRC_GEOM": "", "SRC_ANNEE": "", "URL_AMP": "", "URL_DREAL": "https://www.bretagne.developpement-durable.gouv.fr/arrete-de-protection-de-biotope-du-departement-d-a467.html", "URL_GEOBZH": "https://geobretagne.fr/pub/dreal_b/pac_nature/arretes_biotope/FR3800850.pdf"}}, {"type": "Feature", "id": "APB_polygones.72", "geometry": {"type": "MultiPolygon", "coordinates": [[[[-1.7956, 47.9684], [-1.7955, 47.9684], [-1.7953, 47.9684], [-1.7952, 47.9683], [-1.7951, 47.9683], [-1.795, 47.9683], [-1.795, 47.9683], [-1.795, 47.9682], [-1.795, 47.9682], [-1.7951, 47.9681], [-1.7951, 47.9681], [-1.7952, 47.9681], [-1.7953, 47.9681], [-1.7953, 47.9681], [-1.7957, 47.9682], [-1.7957, 47.9683], [-1.7957, 47.9684], [-1.7956, 47.9684], [-1.7956, 47.9684]]]]}, "geometry_name": "the_geom", "properties": {"oid": 72, "NOM_SITE": "Eglise De Guichen", "ID_MNHN": "FR3800352", "ID_DREAL": "apb_35_001", "DEPT": "35", "URL_FICHE": "https://inpn.mnhn.fr/espace/protege/FR3800352", "SURF_OFF": 0, "MARIN": "F", "GEST_SITE": "", "DATE_CREA": "1994-04-26T22:00:00Z", "MODIF_ADM": null, "MODIF_GEO": null, "SRC_GEOM": "", "SRC_ANNEE": "", "URL_AMP": "", "URL_DREAL": "https://www.bretagne.developpement-durable.gouv.fr/arrete-de-protection-de-biotope-du-departement-d-a467.html", "URL_GEOBZH": "https://geobretagne.fr/pub/dreal_b/pac_nature/arretes_biotope/FR3800352.pdf"}}, {"type": "Feature", "id": "APB_polygones.75", "geometry": {"type": "MultiPolygon", "coordinates": [[[[-1.7841, 47.882], [-1.7841, 47.882], [-1.7842, 47.882], [-1.7842, 47.8821], [-1.7841, 47.882], [-1.7841, 47.882], [-1.7841, 47.882]]], [[[-1.7828, 47.8811], [-1.7829, 47.8811], [-1.7829, 47.8811], [-1.7829, 47.8812], [-1.7828, 47.8811]]]]}, "geometry_name": "the_geom", "properties": {"oid": 75, "NOM_SITE": "Local Technique Et Concasseur Du Clos-Pointu", "ID_MNHN": "FR3800851", "ID_DREAL": "apb_35_013", "DEPT": "35", "URL_FICHE": "https://inpn.mnhn.fr/espace/protege/FR3800851", "SURF_OFF": 0, "MARIN": "F", "GEST_SITE": "", "DATE_CREA": "2014-02-27T23:00:00Z", "MODIF_ADM": null, "MODIF_GEO": null, "SRC_GEOM": "", "SRC_ANNEE": "", "URL_AMP": "", "URL_DREAL": "https://www.bretagne.developpement-durable.gouv.fr/arrete-de-protection-de-biotope-du-departement-d-a467.html", "URL_GEOBZH": "https://geobretagne.fr/pub/dreal_b/pac_nature/arretes_biotope/FR3800851.pdf"}}, {"type": "Feature", "id": "APB_polygones.79", "geometry": {"type": "MultiPolygon", "coordinates": [[[[-1.749, 47.8949], [-1.749, 47.8949], [-1.7489, 47.8948], [-1.7489, 47.8948], [-1.7489, 47.8947], [-1.749, 47.8947], [-1.7491, 47.8947], [-1.7495, 47.8946], [-1.7495, 47.8948], [-1.749, 47.8949]]]]}, "geometry_name": "the_geom", "properties": {"oid": 79, "NOM_SITE": "Eglise Paroissiale - Commune De Plechatel", "ID_MNHN": "FR3800615", "ID_DREAL": "apb_35_005", "DEPT": "35", "URL_FICHE": "https://inpn.mnhn.fr/espace/protege/FR3800615", "SURF_OFF": 0, "MARIN": "F", "GEST_SITE": "", "DATE_CREA": "2001-08-23T22:00:00Z", "MODIF_ADM": null, "MODIF_GEO": null, "SRC_GEOM": "", "SRC_ANNEE": "", "URL_AMP": "", "URL_DREAL": "https://www.bretagne.developpement-durable.gouv.fr/arrete-de-protection-de-biotope-du-departement-d-a467.html", "URL_GEOBZH": "https://geobretagne.fr/pub/dreal_b/pac_nature/arretes_biotope/FR3800615.pdf"}}], "totalFeatures": 9, "numberMatched": 9, "numberReturned": 9, "timeStamp": "2026-07-04T17:56:30.699Z", "crs": {"type": "name", "properties": {"name": "urn:ogc:def:crs:EPSG::4326"}}}